{
"type": "FeatureCollection",
"name": "obras_drenaje_punto",
"crs": { "type": "name", "properties": { "name": "urn:ogc:def:crs:OGC:1.3:CRS84" } },
"features": [
{ "type": "Feature", "properties": { "ID_OBRA": "272_Epazoyucan", "No.": 272.0, "Municipio": "Epazoyucan", "Rubro": "Infraestructura Hídrica", "Ejercicio": 2022.0, "Obra": "Inversión de 658 mil pesos en adquisición de variadores sumergibles en planta de tratamiento de aguas residuales Xochihuacan.", "Localidad": "Xochihuacán", "Inversión": 658188.76, "Habitantes.beneficiados": 896.0, "Ejecutora": "CAASIM", "Trabajos": "Ejecuta trabajos para el mantenimiento y mejoramiento de la Planta de tratamiento en la localidad de Xochihuacán municipio de Epazoyucan.", "Geometria_tipo": "Punto" }, "geometry": { "type": "Point", "coordinates": [ -98.735296072302049, 20.002408962754611 ] } },
{ "type": "Feature", "properties": { "ID_OBRA": "967_San Agustín Tlaxiaca", "No.": 967.0, "Municipio": "San Agustín Tlaxiaca", "Rubro": "Infraestructura Hídrica", "Ejercicio": 2023.0, "Obra": "Ampliación de la planta de tratamiento de aguas residuales solares", "Localidad": "La Concepción", "Inversión": 18370444.07, "Habitantes.beneficiados": 41.0, "Ejecutora": "CAASIM", "Trabajos": "Considera los trabajos para la  Ampliación de la planta de tratamiento de aguas residuales en la localidad de Concepción municipio de San Agustín Tlaxiaca.", "Geometria_tipo": "Punto" }, "geometry": { "type": "Point", "coordinates": [ -98.822355791310329, 20.139258247629169 ] } },
{ "type": "Feature", "properties": { "ID_OBRA": "1271_Tolcayuca", "No.": 1271.0, "Municipio": "Tolcayuca", "Rubro": "Infraestructura Hídrica", "Ejercicio": 2024.0, "Obra": "Rehabilitación de planta de tratamiento de aguas residuales en Tolcayuca.", "Localidad": "Tolcayuca", "Inversión": 7531276.96, "Habitantes.beneficiados": null, "Ejecutora": "DGEP", "Trabajos": "Ejecuta trabajos para el mantenimiento y mejoramiento de la Planta de tratamiento en el municipio de Tolcayuca.", "Geometria_tipo": "Punto" }, "geometry": { "type": "Point", "coordinates": [ -98.921288147618895, 19.9592655261571 ] } },
{ "type": "Feature", "properties": { "ID_OBRA": "1435_Zapotlán de Juárez", "No.": 1435.0, "Municipio": "Zapotlán de Juárez", "Rubro": "Infraestructura Hídrica", "Ejercicio": 2024.0, "Obra": "Rehabilitación de planta de tratamiento de aguas residuales en San Pedro Huaquilpan", "Localidad": "San Pedro Huaquilpan", "Inversión": 2953617.42, "Habitantes.beneficiados": 5175.0, "Ejecutora": "DGEP", "Trabajos": "Considera los trabajos para la rehabilitación  de la planta de tratamiento de aguas residuales en la localidad de San Pedro Huaquilpan municipio de Zapotlán de Juárez.", "Geometria_tipo": "Punto" }, "geometry": { "type": "Point", "coordinates": [ -98.851104382788904, 19.984810786645099 ] } },
{ "type": "Feature", "properties": { "ID_OBRA": "1461_Zempoala", "No.": 1461.0, "Municipio": "Zempoala", "Rubro": "Infraestructura Hídrica", "Ejercicio": 2022.0, "Obra": "Inversión de 129 mil pesos en construcción de línea sanitaria, en calle Vista Hermosa del municipio de Pachuca.", "Localidad": "Zempoala", "Inversión": 129415.74, "Habitantes.beneficiados": null, "Ejecutora": "CAASIM", "Trabajos": "Considera trabajos de mejoramiento a la infraestructura sanitaria.", "Geometria_tipo": "Punto" }, "geometry": { "type": "Point", "coordinates": [ -98.807084817476905, 20.024707909443801 ] } },
{ "type": "Feature", "properties": { "ID_OBRA": "1462_Zempoala", "No.": 1462.0, "Municipio": "Zempoala", "Rubro": "Infraestructura Hídrica", "Ejercicio": 2022.0, "Obra": "Inversión de 963 mil pesos en construcción de 200 metros de colector sanitario Santa Matilde.", "Localidad": "Zempoala", "Inversión": 963269.35, "Habitantes.beneficiados": null, "Ejecutora": "CAASIM", "Trabajos": "Considera los trabajos de excavaciones, instalación de  tubería.", "Geometria_tipo": "Punto" }, "geometry": { "type": "Point", "coordinates": [ -98.785895696878697, 19.999185039549101 ] } },
{ "type": "Feature", "properties": { "ID_OBRA": "1463_Zempoala", "No.": 1463.0, "Municipio": "Zempoala", "Rubro": "Infraestructura Hídrica", "Ejercicio": 2022.0, "Obra": "Inversión de 2.1 mdp en construcción de colector sanitario Santa Matilde, municipio de Zempoala.", "Localidad": "Zempoala", "Inversión": 2108733.23, "Habitantes.beneficiados": null, "Ejecutora": "CAASIM", "Trabajos": "Considera los trabajos de excavaciones, instalación de  tubería.", "Geometria_tipo": "Punto" }, "geometry": { "type": "Point", "coordinates": [ -98.786132356797793, 19.9981238767006 ] } },
{ "type": "Feature", "properties": { "ID_OBRA": "1229_Tlahuiltepa", "No.": 1229.0, "Municipio": "Tlahuiltepa", "Rubro": "Infraestructura Hídrica", "Ejercicio": 2022.0, "Obra": "Construcción de sanitario con biodigestor, en el municipio de Tlahuiltepa", "Localidad": "Varias", "Inversión": 830196.66, "Habitantes.beneficiados": null, "Ejecutora": "SIPDUS", "Trabajos": "Considera los trabajos instalación hidráulica, instalación eléctrica, instalación de biodigestor, acabados y albañilería, excavación de biodigestor.", "Geometria_tipo": "Punto" }, "geometry": { "type": "Point", "coordinates": [ -98.972428543038376, 20.866570621035351 ] } },
{ "type": "Feature", "properties": { "ID_OBRA": "1372_Xochiatipan", "No.": 1372.0, "Municipio": "Xochiatipan", "Rubro": "Infraestructura Hídrica", "Ejercicio": 2023.0, "Obra": "Construcción de Sanitario con Biodigestor, en el municipio de Xochiatipan", "Localidad": "Varias", "Inversión": 1758659.25, "Habitantes.beneficiados": null, "Ejecutora": "SIPDUS", "Trabajos": "Considera los trabajos instalación hidráulica, instalación eléctrica, instalación de biodigestor, acabados y albañilería, excavación de biodigestor.", "Geometria_tipo": "Punto" }, "geometry": { "type": "Point", "coordinates": [ -98.26129722, 20.79364032 ] } },
{ "type": "Feature", "properties": { "ID_OBRA": "337_Huazalingo", "No.": 337.0, "Municipio": "Huazalingo", "Rubro": "Infraestructura Hídrica", "Ejercicio": 2022.0, "Obra": "Construcción de sanitario con biodigestor, en el municipio de Huazalingo", "Localidad": "Varias", "Inversión": 2940289.92, "Habitantes.beneficiados": null, "Ejecutora": "SIPDUS", "Trabajos": "Considera los trabajos instalación hidráulica, instalación eléctrica, instalación de biodigestor, acabados y albañilería, excavación de biodigestor.", "Geometria_tipo": "Punto" }, "geometry": { "type": "Point", "coordinates": [ -98.48914, 20.997492 ] } },
{ "type": "Feature", "properties": { "ID_OBRA": "385_Huejutla de Reyes", "No.": 385.0, "Municipio": "Huejutla de Reyes", "Rubro": "Infraestructura Hídrica", "Ejercicio": 2024.0, "Obra": "Construcción de sanitario con biodigestor en el municipio de Huejutla de Reyes", "Localidad": "Varias", "Inversión": 1567739.63, "Habitantes.beneficiados": null, "Ejecutora": "DGCCE", "Trabajos": "Considera los trabajos instalación hidráulica, instalación eléctrica, instalación de biodigestor, acabados y albañilería, excavación de biodigestor.", "Geometria_tipo": "Punto" }, "geometry": { "type": "Point", "coordinates": [ -98.45172, 21.12724 ] } },
{ "type": "Feature", "properties": { "ID_OBRA": "493_La Misión", "No.": 493.0, "Municipio": "La Misión", "Rubro": "Infraestructura Hídrica", "Ejercicio": 2022.0, "Obra": "Construcción de Sanitario con Biodigestor, en el municipio de La Misión", "Localidad": "Varias", "Inversión": 761098.43, "Habitantes.beneficiados": null, "Ejecutora": "SIPDUS", "Trabajos": "Considera los trabajos instalación hidráulica, instalación eléctrica, instalación de biodigestor, acabados y albañilería, excavación de biodigestor.", "Geometria_tipo": "Punto" }, "geometry": { "type": "Point", "coordinates": [ -99.070495, 21.070952 ] } },
{ "type": "Feature", "properties": { "ID_OBRA": "554_Mineral de la Reforma", "No.": 554.0, "Municipio": "Mineral de la Reforma", "Rubro": "Infraestructura Hídrica", "Ejercicio": 2022.0, "Obra": "Inversión de 518 mil pesos en ampliación de red de drenaje sanitario, en Avenida Real de Minas, Santa María la Calera, municipio de Mineral de la Reforma.", "Localidad": "Mineral de la Reforma", "Inversión": 518587.4, "Habitantes.beneficiados": null, "Ejecutora": "CAASIM", "Trabajos": "Considera los trabajos de excavaciones y rellenos, descargas domiciliarias, pozos de visita, red de drenaje.", "Geometria_tipo": "Punto" }, "geometry": { "type": "Point", "coordinates": [ -98.715056, 20.030336 ] } },
{ "type": "Feature", "properties": { "ID_OBRA": "561_Mineral de la Reforma", "No.": 561.0, "Municipio": "Mineral de la Reforma", "Rubro": "Infraestructura Hídrica", "Ejercicio": 2024.0, "Obra": "Obras emergentes de renovación de Infraestructura sanitaria Red Pachuquilla", "Localidad": "Pachuquilla", "Inversión": 5432772.84, "Habitantes.beneficiados": 9559.0, "Ejecutora": "CAASIM", "Trabajos": "Considera trabajos de mejoramiento a la infraestructura sanitaria.", "Geometria_tipo": "Punto" }, "geometry": { "type": "Point", "coordinates": [ -98.696278084686853, 20.071505904262221 ] } },
{ "type": "Feature", "properties": { "ID_OBRA": "584_Mineral de la Reforma", "No.": 584.0, "Municipio": "Mineral de la Reforma", "Rubro": "Infraestructura Hídrica", "Ejercicio": 2024.0, "Obra": "Obras emergentes de renovación de Infraestructura sanitaria Red La Calera", "Localidad": "Santa María la Calera", "Inversión": 4988000.0, "Habitantes.beneficiados": 2261.0, "Ejecutora": "CAASIM", "Trabajos": "Considera trabajos de mejoramiento a la infraestructura sanitaria.", "Geometria_tipo": "Punto" }, "geometry": { "type": "Point", "coordinates": [ -98.723567, 20.031081 ] } },
{ "type": "Feature", "properties": { "ID_OBRA": "630_Nicolás Flores", "No.": 630.0, "Municipio": "Nicolás Flores", "Rubro": "Infraestructura Hídrica", "Ejercicio": 2023.0, "Obra": "Construcción de sistema de alcantarillado sanitario, colectores y emisor para beneficiar a las localidades de Segundo Centro, Cruz de Piedra, y Tedra, en el&#10;municipio de Nicolás Flores, etapa dos de dos.", "Localidad": "Segundo Centro, Cruz de Piedra, y Tedra", "Inversión": 2075608.21, "Habitantes.beneficiados": null, "Ejecutora": "CEAA", "Trabajos": "Considera los trabajos de excavaciones y rellenos, descargas domiciliarias, red de alcantarillado.", "Geometria_tipo": "Punto" }, "geometry": { "type": "Point", "coordinates": [ -99.157852, 20.764314 ] } },
{ "type": "Feature", "properties": { "ID_OBRA": "630_Nicolás Flores", "No.": 630.0, "Municipio": "Nicolás Flores", "Rubro": "Infraestructura Hídrica", "Ejercicio": 2023.0, "Obra": "Construcción de sistema de alcantarillado sanitario, colectores y emisor para beneficiar a las localidades de Segundo Centro, Cruz de Piedra, y Tedra, en el&#10;municipio de Nicolás Flores, etapa dos de dos.", "Localidad": "Segundo Centro, Cruz de Piedra, y Tedra", "Inversión": 2075608.21, "Habitantes.beneficiados": null, "Ejecutora": "CEAA", "Trabajos": "Considera los trabajos de excavaciones y rellenos, descargas domiciliarias, red de alcantarillado.", "Geometria_tipo": "Punto" }, "geometry": { "type": "Point", "coordinates": [ -99.143731, 20.775323 ] } },
{ "type": "Feature", "properties": { "ID_OBRA": "630_Nicolás Flores", "No.": 630.0, "Municipio": "Nicolás Flores", "Rubro": "Infraestructura Hídrica", "Ejercicio": 2023.0, "Obra": "Construcción de sistema de alcantarillado sanitario, colectores y emisor para beneficiar a las localidades de Segundo Centro, Cruz de Piedra, y Tedra, en el&#10;municipio de Nicolás Flores, etapa dos de dos.", "Localidad": "Segundo Centro, Cruz de Piedra, y Tedra", "Inversión": 2075608.21, "Habitantes.beneficiados": null, "Ejecutora": "CEAA", "Trabajos": "Considera los trabajos de excavaciones y rellenos, descargas domiciliarias, red de alcantarillado.", "Geometria_tipo": "Punto" }, "geometry": { "type": "Point", "coordinates": [ -99.148891, 20.776123 ] } },
{ "type": "Feature", "properties": { "ID_OBRA": "631_Nicolás Flores", "No.": 631.0, "Municipio": "Nicolás Flores", "Rubro": "Infraestructura Hídrica", "Ejercicio": 2022.0, "Obra": "Construcción de sistema de alcantarillado sanitario, colectores y emisor para beneficiar a las localidades de Segundo Centro, Cruz de Piedra, y Tedra, en el municipio de Nicolás Flores, etapa una de dos.", "Localidad": "Segundo Centro, Cruz de Piedra, y Tedra", "Inversión": 3449417.49, "Habitantes.beneficiados": 208.0, "Ejecutora": "CEAA", "Trabajos": "Considera los trabajos de excavaciones y rellenos, descargas domiciliarias, red de alcantarillado.", "Geometria_tipo": "Punto" }, "geometry": { "type": "Point", "coordinates": [ -99.157497, 20.764956 ] } },
{ "type": "Feature", "properties": { "ID_OBRA": "631_Nicolás Flores", "No.": 631.0, "Municipio": "Nicolás Flores", "Rubro": "Infraestructura Hídrica", "Ejercicio": 2022.0, "Obra": "Construcción de sistema de alcantarillado sanitario, colectores y emisor para beneficiar a las localidades de Segundo Centro, Cruz de Piedra, y Tedra, en el municipio de Nicolás Flores, etapa una de dos.", "Localidad": "Segundo Centro, Cruz de Piedra, y Tedra", "Inversión": 3449417.49, "Habitantes.beneficiados": 208.0, "Ejecutora": "CEAA", "Trabajos": "Considera los trabajos de excavaciones y rellenos, descargas domiciliarias, red de alcantarillado.", "Geometria_tipo": "Punto" }, "geometry": { "type": "Point", "coordinates": [ -99.144058, 20.776127 ] } },
{ "type": "Feature", "properties": { "ID_OBRA": "631_Nicolás Flores", "No.": 631.0, "Municipio": "Nicolás Flores", "Rubro": "Infraestructura Hídrica", "Ejercicio": 2022.0, "Obra": "Construcción de sistema de alcantarillado sanitario, colectores y emisor para beneficiar a las localidades de Segundo Centro, Cruz de Piedra, y Tedra, en el municipio de Nicolás Flores, etapa una de dos.", "Localidad": "Segundo Centro, Cruz de Piedra, y Tedra", "Inversión": 3449417.49, "Habitantes.beneficiados": 208.0, "Ejecutora": "CEAA", "Trabajos": "Considera los trabajos de excavaciones y rellenos, descargas domiciliarias, red de alcantarillado.", "Geometria_tipo": "Punto" }, "geometry": { "type": "Point", "coordinates": [ -99.148506, 20.775807 ] } },
{ "type": "Feature", "properties": { "ID_OBRA": "656_Pachuca de Soto", "No.": 656.0, "Municipio": "Pachuca de Soto", "Rubro": "Infraestructura Hídrica", "Ejercicio": 2023.0, "Obra": "Sustitución de red de alcantarillado sanitario, Colonias San Bartolo, tramo Prlolongación Yucatán - Calzada Veracruz, municipio de Pachuca de Soto,Hgo.", "Localidad": "Pachuca de Soto", "Inversión": 3837089.46, "Habitantes.beneficiados": null, "Ejecutora": "CAASIM", "Trabajos": "Considera los trabajos de excavaciones y rellenos, descargas domiciliarias, red de alcantarillado.", "Geometria_tipo": "Punto" }, "geometry": { "type": "Point", "coordinates": [ -98.754615, 20.1286 ] } },
{ "type": "Feature", "properties": { "ID_OBRA": "657_Pachuca de Soto", "No.": 657.0, "Municipio": "Pachuca de Soto", "Rubro": "Infraestructura Hídrica", "Ejercicio": 2023.0, "Obra": "Sustitución de red de alcantarillado sanitario en calles San Gabriel, Prolongación Sonora y Santa Catalina, colonia San Bartolo, municipio de Pachuca de Soto, Hgo.", "Localidad": "Pachuca de Soto", "Inversión": 5263119.8, "Habitantes.beneficiados": null, "Ejecutora": "CAASIM", "Trabajos": "Considera los trabajos de preliminares, piso para pavimento de concreto hidráulico.", "Geometria_tipo": "Punto" }, "geometry": { "type": "Point", "coordinates": [ -98.761561, 20.130314 ] } },
{ "type": "Feature", "properties": { "ID_OBRA": "666_Pachuca de Soto", "No.": 666.0, "Municipio": "Pachuca de Soto", "Rubro": "Infraestructura Hídrica", "Ejercicio": 2022.0, "Obra": "Inversión de 1.4 mdp en mantenimiento a planta de tratamiento de aguas residuales las Garzas", "Localidad": "Pachuca de Soto", "Inversión": 1424190.0, "Habitantes.beneficiados": null, "Ejecutora": "CAASIM", "Trabajos": "Ejecuta trabajos para el mantenimiento y mejoramiento de la Planta de tratamiento en elmunicipio de Pachuca de Soto.", "Geometria_tipo": "Punto" }, "geometry": { "type": "Point", "coordinates": [ -98.749366, 20.085415 ] } },
{ "type": "Feature", "properties": { "ID_OBRA": "792_Pachuca de Soto", "No.": 792.0, "Municipio": "Pachuca de Soto", "Rubro": "Infraestructura Hídrica", "Ejercicio": 2024.0, "Obra": "Adquisición de equipo séptico hidroneumático para aguas negras.", "Localidad": "Pachuca de Soto", "Inversión": 5500000.0, "Habitantes.beneficiados": null, "Ejecutora": "CAASIM", "Trabajos": "Se ejecutan acciones para la ejecución de obras en Infraestructura hídrica", "Geometria_tipo": "Punto" }, "geometry": { "type": "Point", "coordinates": [ -98.748097556035248, 20.091469331932579 ] } },
{ "type": "Feature", "properties": { "ID_OBRA": "806_Pachuca de Soto", "No.": 806.0, "Municipio": "Pachuca de Soto", "Rubro": "Infraestructura Hídrica", "Ejercicio": 2024.0, "Obra": "Obras emergentes de renovación de Infraestructura Sanitaria Red Real de Minas", "Localidad": "Pachuca de Soto", "Inversión": 11832000.0, "Habitantes.beneficiados": null, "Ejecutora": "CAASIM", "Trabajos": "Considera trabajos de mejoramiento a la infraestructura sanitaria.", "Geometria_tipo": "Punto" }, "geometry": { "type": "Point", "coordinates": [ -98.735057022380332, 20.116207229845671 ] } },
{ "type": "Feature", "properties": { "ID_OBRA": "807_Pachuca de Soto", "No.": 807.0, "Municipio": "Pachuca de Soto", "Rubro": "Infraestructura Hídrica", "Ejercicio": 2024.0, "Obra": "Obras emergentes de renovación de Infraestructura Sanitaria Red Barrios Altos", "Localidad": "Pachuca de Soto", "Inversión": 11020000.0, "Habitantes.beneficiados": null, "Ejecutora": "CAASIM", "Trabajos": "Considera trabajos de mejoramiento a la infraestructura sanitaria.", "Geometria_tipo": "Punto" }, "geometry": { "type": "Point", "coordinates": [ -98.72936022086607, 20.12496117778203 ] } },
{ "type": "Feature", "properties": { "ID_OBRA": "930_Mineral de la Reforma", "No.": 930.0, "Municipio": "Mineral de la Reforma", "Rubro": "Infraestructura Hídrica", "Ejercicio": 2022.0, "Obra": "Inversión de 2 mdp en la adquisición de equipamiento a las plantas de tratamiento de aguas residuales Matilde, Providencia y Solares.", "Localidad": "Varias", "Inversión": 611416.359541693, "Habitantes.beneficiados": null, "Ejecutora": "CAASIM", "Trabajos": "Ejecuta trabajos para el mantenimiento y mejoramiento de la Planta de tratamiento en la localidad de Atlaltipa Huitzotlaco municipio de Atlapexco.", "Geometria_tipo": "Punto" }, "geometry": { "type": "Point", "coordinates": [ -98.725466165887312, 20.053275599158241 ] } },
{ "type": "Feature", "properties": { "ID_OBRA": "930_Pachuca de Soto", "No.": 930.0, "Municipio": "Pachuca de Soto", "Rubro": "Infraestructura Hídrica", "Ejercicio": 2022.0, "Obra": "Inversión de 2 mdp en la adquisición de equipamiento a las plantas de tratamiento de aguas residuales Matilde, Providencia y Solares.", "Localidad": "Varias", "Inversión": 947906.60230679298, "Habitantes.beneficiados": null, "Ejecutora": "CAASIM", "Trabajos": "Ejecuta trabajos para el mantenimiento y mejoramiento de la Planta de tratamiento en la localidad de Atlaltipa Huitzotlaco municipio de Atlapexco.", "Geometria_tipo": "Punto" }, "geometry": { "type": "Point", "coordinates": [ -98.822324, 20.13932 ] } },
{ "type": "Feature", "properties": { "ID_OBRA": "930_San Agustín Tlaxiaca", "No.": 930.0, "Municipio": "San Agustín Tlaxiaca", "Rubro": "Infraestructura Hídrica", "Ejercicio": 2022.0, "Obra": "Inversión de 2 mdp en la adquisición de equipamiento a las plantas de tratamiento de aguas residuales Matilde, Providencia y Solares.", "Localidad": "Varias", "Inversión": 117280.941651678, "Habitantes.beneficiados": null, "Ejecutora": "CAASIM", "Trabajos": "Ejecuta trabajos para el mantenimiento y mejoramiento de la Planta de tratamiento en la localidad de Atlaltipa Huitzotlaco municipio de Atlapexco.", "Geometria_tipo": "Punto" }, "geometry": { "type": "Point", "coordinates": [ -98.822357, 20.139334 ] } },
{ "type": "Feature", "properties": { "ID_OBRA": "930_Zempoala", "No.": 930.0, "Municipio": "Zempoala", "Rubro": "Infraestructura Hídrica", "Ejercicio": 2022.0, "Obra": "Inversión de 2 mdp en la adquisición de equipamiento a las plantas de tratamiento de aguas residuales Matilde, Providencia y Solares.", "Localidad": "Varias", "Inversión": 174623.18292875099, "Habitantes.beneficiados": null, "Ejecutora": "CAASIM", "Trabajos": "Ejecuta trabajos para el mantenimiento y mejoramiento de la Planta de tratamiento en la localidad de Atlaltipa Huitzotlaco municipio de Atlapexco.", "Geometria_tipo": "Punto" }, "geometry": { "type": "Point", "coordinates": [ -98.78581, 19.99854 ] } },
{ "type": "Feature", "properties": { "ID_OBRA": "934_Mineral de la Reforma", "No.": 934.0, "Municipio": "Mineral de la Reforma", "Rubro": "Infraestructura Hídrica", "Ejercicio": 2022.0, "Obra": "Inversión de 4.1 mdp en construcción de colector sanitario Azoyatla-Viaducto Rojo Gómez, (etapa ocho de 10) municipios de Mineral de la Reforma y Pachuca.", "Localidad": "Pachuca y Mineral de la Reforma", "Inversión": 1610124.9843399299, "Habitantes.beneficiados": null, "Ejecutora": "CAASIM", "Trabajos": "Considera los trabajos de excavaciones, instalación de  tubería.", "Geometria_tipo": "Punto" }, "geometry": { "type": "Point", "coordinates": [ -98.722634, 20.109095 ] } },
{ "type": "Feature", "properties": { "ID_OBRA": "934_Pachuca de Soto", "No.": 934.0, "Municipio": "Pachuca de Soto", "Rubro": "Infraestructura Hídrica", "Ejercicio": 2022.0, "Obra": "Inversión de 4.1 mdp en construcción de colector sanitario Azoyatla-Viaducto Rojo Gómez, (etapa ocho de 10) municipios de Mineral de la Reforma y Pachuca.", "Localidad": "Pachuca y Mineral de la Reforma", "Inversión": 2496250.0256600701, "Habitantes.beneficiados": null, "Ejecutora": "CAASIM", "Trabajos": "Considera los trabajos de excavaciones, instalación de  tubería.", "Geometria_tipo": "Punto" }, "geometry": { "type": "Point", "coordinates": [ -98.727605, 20.110874 ] } },
{ "type": "Feature", "properties": { "ID_OBRA": "1028_San Salvador", "No.": 1028.0, "Municipio": "San Salvador", "Rubro": "Infraestructura Hídrica", "Ejercicio": 2022.0, "Obra": "Construcción de red de alcantarillado sanitario en Bocaja, San Salvador etapa dos de dos", "Localidad": "Bocaja", "Inversión": 1984995.75, "Habitantes.beneficiados": 659.0, "Ejecutora": "CEAA", "Trabajos": "Considera los trabajos de excavaciones y rellenos, descargas domiciliarias, red de alcantarillado.", "Geometria_tipo": "Punto" }, "geometry": { "type": "Point", "coordinates": [ -99.010517893999975, 20.267636050000078 ] } },
{ "type": "Feature", "properties": { "ID_OBRA": "1085_Tasquillo", "No.": 1085.0, "Municipio": "Tasquillo", "Rubro": "Infraestructura Hídrica", "Ejercicio": 2023.0, "Obra": "Construcción de alcantarillado sanitario y Planta de tratamiento de aguas residuales Centro en Caltimacán, municipio de Tasquillo", "Localidad": "Caltimacán", "Inversión": 12047280.31, "Habitantes.beneficiados": 1674.0, "Ejecutora": "SIPDUS", "Trabajos": "Considera los trabajos para la  Construcción de la planta de tratamiento de aguas residuales en la localidad de Caltimacán municipio de Tasquillo.", "Geometria_tipo": "Punto" }, "geometry": { "type": "Point", "coordinates": [ -99.370417042589381, 20.537668219101391 ] } },
{ "type": "Feature", "properties": { "ID_OBRA": "126_Calnali", "No.": 126.0, "Municipio": "Calnali", "Rubro": "Infraestructura Hídrica", "Ejercicio": 2022.0, "Obra": "Construcción de sanitario con biodigestor, en el municipio de Calnali", "Localidad": "Tecueyaca", "Inversión": 344997.18, "Habitantes.beneficiados": 20.0, "Ejecutora": "SIPDUS", "Trabajos": "Considera los trabajos instalación hidráulica, instalación eléctrica, instalación de biodigestor, acabados y albañilería, excavación de biodigestor.", "Geometria_tipo": "Punto" }, "geometry": { "type": "Point", "coordinates": [ -98.613399676132218, 20.927411898405481 ] } },
{ "type": "Feature", "properties": { "ID_OBRA": "1291_Tulancingo de Bravo", "No.": 1291.0, "Municipio": "Tulancingo de Bravo", "Rubro": "Infraestructura Hídrica", "Ejercicio": 2024.0, "Obra": "Construcción del sistema de alcantarillado sanitario en la localidad de Tepalzingo municipio de Tulancingo de Bravo", "Localidad": "Tepalzingo", "Inversión": 4320068.04, "Habitantes.beneficiados": 516.0, "Ejecutora": "DGIVC", "Trabajos": "Considera los trabajos de excavaciones y rellenos, descargas domiciliarias, red de alcantarillado.", "Geometria_tipo": "Punto" }, "geometry": { "type": "Point", "coordinates": [ -98.279055654296087, 20.140369923736571 ] } },
{ "type": "Feature", "properties": { "ID_OBRA": "1383_Yahualica", "No.": 1383.0, "Municipio": "Yahualica", "Rubro": "Infraestructura Hídrica", "Ejercicio": 2023.0, "Obra": "Construcción de la Planta de Tratamiento de aguas residuales para beneficiar a la localidad de Atlalco en el municipio de Yahualica", "Localidad": "Atlalco", "Inversión": 2467632.1, "Habitantes.beneficiados": null, "Ejecutora": "SIPDUS", "Trabajos": "Considera los trabajos para la  Construcción de la planta de tratamiento de aguas residuales en la localidad deAtlalco municipio de Yahualica.", "Geometria_tipo": "Punto" }, "geometry": { "type": "Point", "coordinates": [ -98.274074, 20.953434000000101 ] } },
{ "type": "Feature", "properties": { "ID_OBRA": "1394_Yahualica", "No.": 1394.0, "Municipio": "Yahualica", "Rubro": "Infraestructura Hídrica", "Ejercicio": 2022.0, "Obra": "Construcción de la planta de tratamiento de aguas residuales para beneficiar a la localidad de Mangocuatitla en el municipio de Yahualica", "Localidad": "Mangocuatitla", "Inversión": 1920731.4, "Habitantes.beneficiados": null, "Ejecutora": "SIPDUS", "Trabajos": "Considera los trabajos para la  Construcción de la planta de tratamiento de aguas residuales en la localidad de Mangocuatitla municipio de Yahualica.", "Geometria_tipo": "Punto" }, "geometry": { "type": "Point", "coordinates": [ -98.339989, 20.9066339 ] } },
{ "type": "Feature", "properties": { "ID_OBRA": "152_Cardonal", "No.": 152.0, "Municipio": "Cardonal", "Rubro": "Infraestructura Hídrica", "Ejercicio": 2023.0, "Obra": "Ampliación del Sistema de Alcantarillado Sanitario y Planta de Tratamiento de aguas residuales de la localidad de San Cristobal, municipio de Cardonal.", "Localidad": "San Cristóbal", "Inversión": 5700000.0, "Habitantes.beneficiados": 374.0, "Ejecutora": "CEAA", "Trabajos": "Considera los trabajos para la  Construcción de la planta de tratamiento de aguas residuales en la localidad de San Cristóbal municipio de Cardonal.", "Geometria_tipo": "Punto" }, "geometry": { "type": "Point", "coordinates": [ -99.00344669499998, 20.60018820900007 ] } },
{ "type": "Feature", "properties": { "ID_OBRA": "186_Chilcuautla", "No.": 186.0, "Municipio": "Chilcuautla", "Rubro": "Infraestructura Hídrica", "Ejercicio": 2023.0, "Obra": "Construcción del Sistema de Alcantarillado Sanitario primera etapa para beneficiar a la localidad de El Mejay en el municipio de Chilcuautla", "Localidad": "El Mejay", "Inversión": 2429626.74, "Habitantes.beneficiados": 839.0, "Ejecutora": "SIPDUS", "Trabajos": "Considera los trabajos de excavaciones y rellenos, descargas domiciliarias, red de alcantarillado.", "Geometria_tipo": "Punto" }, "geometry": { "type": "Point", "coordinates": [ -99.181769827596341, 20.385946766599119 ] } },
{ "type": "Feature", "properties": { "ID_OBRA": "188_Chilcuautla", "No.": 188.0, "Municipio": "Chilcuautla", "Rubro": "Infraestructura Hídrica", "Ejercicio": 2022.0, "Obra": "Construcción de sistema de alcantarillado sanitario de la localidad de Xothí, Chilcuautla, etapa dos de cinco.", "Localidad": "El Xothí", "Inversión": 4408041.38, "Habitantes.beneficiados": 848.0, "Ejecutora": "CEAA", "Trabajos": "Considera los trabajos de excavaciones y rellenos, descargas domiciliarias, red de alcantarillado.", "Geometria_tipo": "Punto" }, "geometry": { "type": "Point", "coordinates": [ -99.17439001629819, 20.404211545440319 ] } },
{ "type": "Feature", "properties": { "ID_OBRA": "204_Chilcuautla", "No.": 204.0, "Municipio": "Chilcuautla", "Rubro": "Infraestructura Hídrica", "Ejercicio": 2023.0, "Obra": "Construcción de sistema de alcantarillado sanitario de la localidad de Xothí, Chilcuautla, etapa tres de cinco.", "Localidad": "Xothí", "Inversión": 776750.64, "Habitantes.beneficiados": 848.0, "Ejecutora": "CEAA", "Trabajos": "Considera los trabajos de excavaciones y rellenos, descargas domiciliarias, red de alcantarillado.", "Geometria_tipo": "Punto" }, "geometry": { "type": "Point", "coordinates": [ -99.17416270194515, 20.404476724905638 ] } },
{ "type": "Feature", "properties": { "ID_OBRA": "206_Chilcuautla", "No.": 206.0, "Municipio": "Chilcuautla", "Rubro": "Infraestructura Hídrica", "Ejercicio": 2023.0, "Obra": "Construcción de la planta de tratamiento de aguas residuales para beneficiar a la localidad de Zacualoya en el municipio de Chilcuautla", "Localidad": "Zacualoya", "Inversión": 3982346.0, "Habitantes.beneficiados": 355.0, "Ejecutora": "SIPDUS", "Trabajos": "Considera los trabajos para la  Construcción de la planta de tratamiento de aguas residuales en la localidad de Zacualoya municipio de Chilcuautla.", "Geometria_tipo": "Punto" }, "geometry": { "type": "Point", "coordinates": [ -99.235369170697027, 20.359876601570779 ] } },
{ "type": "Feature", "properties": { "ID_OBRA": "236_El Arenal", "No.": 236.0, "Municipio": "El Arenal", "Rubro": "Infraestructura Hídrica", "Ejercicio": 2025.0, "Obra": "Rehabilitación de sistema de agua potable, alcantarillado. Sanitario y reposición de pavimento hidráulico en Av. Miguel Hidalgo, en el. Municipio de El Arenal", "Localidad": "El Arenal", "Inversión": 20452825.88, "Habitantes.beneficiados": null, "Ejecutora": "SIPDUS", "Trabajos": null, "Geometria_tipo": "Punto" }, "geometry": { "type": "Point", "coordinates": [ -98.905410477816389, 20.22466157949858 ] } },
{ "type": "Feature", "properties": { "ID_OBRA": "262_Emiliano Zapata", "No.": 262.0, "Municipio": "Emiliano Zapata", "Rubro": "Infraestructura Hídrica", "Ejercicio": 2024.0, "Obra": "Rehabilitación de planta de tratamiento de aguas residuales en la cabecera municipal de Emiliano Zapata.", "Localidad": "Emiliano Zapata", "Inversión": 5482833.88, "Habitantes.beneficiados": null, "Ejecutora": "DGEP", "Trabajos": "Considera los trabajos para la Rehabilitación de la planta de tratamiento de aguas en el municipio de Emiliano Zapata.", "Geometria_tipo": "Punto" }, "geometry": { "type": "Point", "coordinates": [ -98.547411281823329, 19.657142287917221 ] } },
{ "type": "Feature", "properties": { "ID_OBRA": "347_Huehuetla", "No.": 347.0, "Municipio": "Huehuetla", "Rubro": "Infraestructura Hídrica", "Ejercicio": 2022.0, "Obra": "Construcción de sanitario con biodigestor, en el municipio de Huehuetla", "Localidad": "Santa Inés", "Inversión": 822540.07, "Habitantes.beneficiados": 48.0, "Ejecutora": "SIPDUS", "Trabajos": "Considera los trabajos instalación hidráulica, instalación eléctrica, instalación de biodigestor, acabados y albañilería, excavación de biodigestor.", "Geometria_tipo": "Punto" }, "geometry": { "type": "Point", "coordinates": [ -98.072978614999954, 20.459642994000031 ] } },
{ "type": "Feature", "properties": { "ID_OBRA": "370_Huejutla de Reyes", "No.": 370.0, "Municipio": "Huejutla de Reyes", "Rubro": "Infraestructura Hídrica", "Ejercicio": 2024.0, "Obra": "Estudio y proyecto para el encauzamiento y saneamiento del Río Chinguiñoso, en el municipio de Huejutla de Reyes", "Localidad": "Huejutla de Reyes", "Inversión": 7737692.51, "Habitantes.beneficiados": null, "Ejecutora": "DGEyP", "Trabajos": "Considera los trabajos de estudios, proyecto conceptual y proyecto ejecutivo.", "Geometria_tipo": "Punto" }, "geometry": { "type": "Point", "coordinates": [ -98.418294410738824, 21.136226900344941 ] } },
{ "type": "Feature", "properties": { "ID_OBRA": "389_Huichapan", "No.": 389.0, "Municipio": "Huichapan", "Rubro": "Infraestructura Hídrica", "Ejercicio": 2023.0, "Obra": "Construcción de sistema de alcantarillado sanitario y PTAR en Dongoteay etapa tres de cuatro, Huichapan", "Localidad": "Dongoteay", "Inversión": 3176175.03, "Habitantes.beneficiados": 866.0, "Ejecutora": "CEAA", "Trabajos": "Considera los trabajos para la  Construcción de la planta de tratamiento de aguas residuales en la localidad de Dongoteay municipio de Huichapan.", "Geometria_tipo": "Punto" }, "geometry": { "type": "Point", "coordinates": [ -99.677895889332106, 20.357413179263091 ] } },
{ "type": "Feature", "properties": { "ID_OBRA": "390_Huichapan", "No.": 390.0, "Municipio": "Huichapan", "Rubro": "Infraestructura Hídrica", "Ejercicio": 2022.0, "Obra": "Construcción de sistema de alcantarillado sanitario y PTAR en Dongoteay etapa dos de cuatro", "Localidad": "Dongoteay", "Inversión": 3918165.88, "Habitantes.beneficiados": 866.0, "Ejecutora": "CEAA", "Trabajos": "Considera los trabajos para la  Construcción de la planta de tratamiento de aguas residuales en la localidad de Dongoteay municipio de Huichapan.", "Geometria_tipo": "Punto" }, "geometry": { "type": "Point", "coordinates": [ -99.679813574537476, 20.358824373321969 ] } },
{ "type": "Feature", "properties": { "ID_OBRA": "391_Huichapan", "No.": 391.0, "Municipio": "Huichapan", "Rubro": "Infraestructura Hídrica", "Ejercicio": 2024.0, "Obra": "Construcción de sistema de alcantarillado sanitario y PTAR en Dongoteay. (Terminación)", "Localidad": "Dongoteay", "Inversión": 6713093.43, "Habitantes.beneficiados": 866.0, "Ejecutora": "CEAA", "Trabajos": "Considera los trabajos para la  Construcción de la planta de tratamiento de aguas residuales en la localidad de Dongoteay municipio de Huichapan.", "Geometria_tipo": "Punto" }, "geometry": { "type": "Point", "coordinates": [ -99.679052192273886, 20.355577848849549 ] } },
{ "type": "Feature", "properties": { "ID_OBRA": "431_Ixmiquilpan", "No.": 431.0, "Municipio": "Ixmiquilpan", "Rubro": "Infraestructura Hídrica", "Ejercicio": 2023.0, "Obra": "Construcción de Planta de Tratamiento de Aguas Residuales de 1.12 L.P.S. La Mesa y Loma Lopez Rayón, Ixmiquilpan", "Localidad": "La Mesa y Loma Lopez Rayón", "Inversión": 2624279.15, "Habitantes.beneficiados": null, "Ejecutora": "CEAA", "Trabajos": "Considera los trabajos para la  Construcción de la planta de tratamiento de aguas residuales en las localidades de La Mesa y Loma Lopez Rayón municipio de Ixmiquilpan.", "Geometria_tipo": "Punto" }, "geometry": { "type": "Point", "coordinates": [ -99.256555775700193, 20.489989975144841 ] } },
{ "type": "Feature", "properties": { "ID_OBRA": "451_Ixmiquilpan", "No.": 451.0, "Municipio": "Ixmiquilpan", "Rubro": "Infraestructura Hídrica", "Ejercicio": 2024.0, "Obra": "Estudio y Proyecto de Red de alcantarillado Sanitario y Planta de tratamiento de Aguas Residuales en la localidad de El Taxtho", "Localidad": "Taxthó", "Inversión": 5585374.16, "Habitantes.beneficiados": 0.0, "Ejecutora": "CEAA", "Trabajos": "Considera los trabajos de estudios, proyecto conceptual y proyecto ejecutivo.", "Geometria_tipo": "Punto" }, "geometry": { "type": "Point", "coordinates": [ -99.205789091952667, 20.616228826392909 ] } },
{ "type": "Feature", "properties": { "ID_OBRA": "457_Jacala de Ledezma", "No.": 457.0, "Municipio": "Jacala de Ledezma", "Rubro": "Infraestructura Hídrica", "Ejercicio": 2024.0, "Obra": "Rehabilitación de planta de tratamiento de aguas residuales en la cabecera municipal, en Jacala de Ledezma.", "Localidad": "Jacala", "Inversión": 1914348.78, "Habitantes.beneficiados": 4582.0, "Ejecutora": "DGEP", "Trabajos": "Ejecuta trabajos para el mantenimiento y mejoramiento de la Planta de tratamiento en el municipio de Jacala de Ledezma.", "Geometria_tipo": "Punto" }, "geometry": { "type": "Point", "coordinates": [ -99.190315452860872, 21.002148577568779 ] } },
{ "type": "Feature", "properties": { "ID_OBRA": "465_Jaltocán", "No.": 465.0, "Municipio": "Jaltocán", "Rubro": "Infraestructura Hídrica", "Ejercicio": 2023.0, "Obra": "Construcción de colector de drenaje sanitario de las comunidades de Amaxac I, El Chote primera etapa, en el municipio de Jaltocán.", "Localidad": "Amáxac I", "Inversión": 2553249.55, "Habitantes.beneficiados": 744.0, "Ejecutora": "SIPDUS", "Trabajos": "Considera los trabajos de excavaciones y rellenos, descargas domiciliarias, pozos de visita, red de drenaje.", "Geometria_tipo": "Punto" }, "geometry": { "type": "Point", "coordinates": [ -98.505931785262391, 21.137198815855861 ] } },
{ "type": "Feature", "properties": { "ID_OBRA": "503_Lolotla", "No.": 503.0, "Municipio": "Lolotla", "Rubro": "Infraestructura Hídrica", "Ejercicio": 2022.0, "Obra": "Construcción de Sanitario con Biodigestor, en el municipio de Lolotla", "Localidad": "Tlaltepingo", "Inversión": 206136.96, "Habitantes.beneficiados": null, "Ejecutora": "SIPDUS", "Trabajos": "Considera los trabajos instalación hidráulica, instalación eléctrica, instalación de biodigestor, acabados y albañilería, excavación de biodigestor.", "Geometria_tipo": "Punto" }, "geometry": { "type": "Point", "coordinates": [ -98.730338017453789, 20.934155049967011 ] } },
{ "type": "Feature", "properties": { "ID_OBRA": "627_Nicolás Flores", "No.": 627.0, "Municipio": "Nicolás Flores", "Rubro": "Infraestructura Hídrica", "Ejercicio": 2024.0, "Obra": "Construcción del sistema integral de alcantarillado sanitario y planta de tratamiento de aguas residuales para beneficiar a la localidad de El Bocua, municipio de Nicolás Flores, etapa Uno de Tres", "Localidad": "El Bocua", "Inversión": 5680000.0, "Habitantes.beneficiados": 475.0, "Ejecutora": "CEAA", "Trabajos": "Considera los trabajos para la  Construcción de la planta de tratamiento de aguas residuales en la localidad de El Bocua municipio de Nicolás Flores.", "Geometria_tipo": "Punto" }, "geometry": { "type": "Point", "coordinates": [ -99.150374735850264, 20.7705412170789 ] } },
{ "type": "Feature", "properties": { "ID_OBRA": "9_Acaxochitlán", "No.": 9.0, "Municipio": "Acaxochitlán", "Rubro": "Infraestructura Hídrica", "Ejercicio": 2023.0, "Obra": "Construcción de sanitario con biodigestor, en el municipio de Acaxochitlán", "Localidad": "Apapaxtla El Grande (Altamira)", "Inversión": 552928.15, "Habitantes.beneficiados": 32.0, "Ejecutora": "SIPDUS", "Trabajos": "Considera los trabajos instalación hidráulica, instalación eléctrica, instalación de biodigestor, acabados y albañilería, excavación de biodigestor.", "Geometria_tipo": "Punto" }, "geometry": { "type": "Point", "coordinates": [ -98.149459689094996, 20.107544815528779 ] } },
{ "type": "Feature", "properties": { "ID_OBRA": "90_Atitalaquia", "No.": 90.0, "Municipio": "Atitalaquia", "Rubro": "Infraestructura Hídrica", "Ejercicio": 2023.0, "Obra": "Ampliación de drenaje sanitario Villa Mil - La Alcantarilla, en la localidad de Tlamaco; en el municipio de Atitalaquia", "Localidad": "Tlamaco (San Gerónimo Tlamaco)", "Inversión": 3946171.58, "Habitantes.beneficiados": 3885.0, "Ejecutora": "SIPDUS", "Trabajos": "Considera los trabajos de excavaciones y rellenos, descargas domiciliarias, pozos de visita, red de drenaje.", "Geometria_tipo": "Punto" }, "geometry": { "type": "Point", "coordinates": [ -99.231066659728413, 20.03332378008977 ] } },
{ "type": "Feature", "properties": { "ID_OBRA": "935_Pacula", "No.": 935.0, "Municipio": "Pacula", "Rubro": "Infraestructura Hídrica", "Ejercicio": 2022.0, "Obra": "Construcción de sanitario con biodigestor, en el municipio de Pacula", "Localidad": "La Mohonera", "Inversión": 1024014.87, "Habitantes.beneficiados": 60.0, "Ejecutora": "SIPDUS", "Trabajos": "Considera los trabajos instalación hidráulica, instalación eléctrica, instalación de biodigestor, acabados y albañilería, excavación de biodigestor.", "Geometria_tipo": "Punto" }, "geometry": { "type": "Point", "coordinates": [ -99.320040736718084, 20.887386094228269 ] } }
]
}
