{
"type": "FeatureCollection",
"name": "obras_salud_punto",
"crs": { "type": "name", "properties": { "name": "urn:ogc:def:crs:OGC:1.3:CRS84" } },
"features": [
{ "type": "Feature", "properties": { "ID_OBRA": "971_San Agustín Tlaxiaca", "No.": 971.0, "Municipio": "San Agustín Tlaxiaca", "Rubro": "Espacios Públicos", "Ejercicio": 2023.0, "Obra": "Dictaminación y proyectos complementarios de la obra sustitución y ampliación del Hospital General de Pachuca", "Localidad": "San Agustín Tlaxiaca", "Inversión": 12686314.94, "Habitantes.beneficiados": null, "Ejecutora": "DGEP", "Trabajos": "Considera la dictaminación y proyecto del Hospital General de Pachuca", "Geometria_tipo": "Punto" }, "geometry": { "type": "Point", "coordinates": [ -98.833892502130993, 20.117956545082901 ] } },
{ "type": "Feature", "properties": { "ID_OBRA": "972_San Agustín Tlaxiaca", "No.": 972.0, "Municipio": "San Agustín Tlaxiaca", "Rubro": "Espacios Públicos", "Ejercicio": 2022.0, "Obra": "Trabajos complementarios del nuevo Hospital General de Pachuca (cuarto hidráulico, gases medicinales, autoclaves, construcción de paso cubierto, rehabilitación del tanque regulador y zampeado de taludes)", "Localidad": "San Agustín Tlaxiaca", "Inversión": 6795824.16, "Habitantes.beneficiados": null, "Ejecutora": "DGIVC", "Trabajos": "Considera trabajos en infraestructura de salud en el municipio de San Agustín Tlaxiaca.", "Geometria_tipo": "Punto" }, "geometry": { "type": "Point", "coordinates": [ -98.833970911295651, 20.117107321084291 ] } },
{ "type": "Feature", "properties": { "ID_OBRA": "974_San Agustín Tlaxiaca", "No.": 974.0, "Municipio": "San Agustín Tlaxiaca", "Rubro": "Espacios Públicos", "Ejercicio": 2022.0, "Obra": "Gestoría y acometida para la sustitución y ampliación del Hospital General de Pachuca, (servicios generales)", "Localidad": "San Agustín Tlaxiaca", "Inversión": 3236793.55, "Habitantes.beneficiados": null, "Ejecutora": "DGEP", "Trabajos": "Considera trabajos en infraestructura de salud en el municipio de San Agustín Tlaxiaca.", "Geometria_tipo": "Punto" }, "geometry": { "type": "Point", "coordinates": [ -98.832450557231127, 20.116719712521238 ] } },
{ "type": "Feature", "properties": { "ID_OBRA": "975_San Agustín Tlaxiaca", "No.": 975.0, "Municipio": "San Agustín Tlaxiaca", "Rubro": "Espacios Públicos", "Ejercicio": 2022.0, "Obra": "Gestoría y acometida para la sustitución y ampliación del Hospital General de Pachuca, (urgencias)", "Localidad": "San Agustín Tlaxiaca", "Inversión": 3694994.64, "Habitantes.beneficiados": null, "Ejecutora": "DGEP", "Trabajos": "Considera trabajos en infraestructura de salud en el municipio de San Agustín Tlaxiaca.", "Geometria_tipo": "Punto" }, "geometry": { "type": "Point", "coordinates": [ -98.832734911182612, 20.117787135030639 ] } },
{ "type": "Feature", "properties": { "ID_OBRA": "1396_Yahualica", "No.": 1396.0, "Municipio": "Yahualica", "Rubro": "Espacios Públicos", "Ejercicio": 2022.0, "Obra": "Construcción del Centro de Salud en la localidad de Santa Teresa, municipio de Yahualica", "Localidad": "Santa Teresa", "Inversión": 16887585.01, "Habitantes.beneficiados": 4941.0, "Ejecutora": "DGCCE", "Trabajos": "Considera trabajos en infraestructura de salud en el municipio de Yahualica", "Geometria_tipo": "Punto" }, "geometry": { "type": "Point", "coordinates": [ -98.382689956944205, 20.888617677651599 ] } },
{ "type": "Feature", "properties": { "ID_OBRA": "1432_Zapotlán de Juárez", "No.": 1432.0, "Municipio": "Zapotlán de Juárez", "Rubro": "Espacios Públicos", "Ejercicio": 2022.0, "Obra": "Construcción del Centro de Salud en la localidad de San Pedro Huaquilpan, municipio de Zapotlán de Juárez", "Localidad": "San Pedro Huaquilpan", "Inversión": 15353070.41, "Habitantes.beneficiados": 5175.0, "Ejecutora": "DGCCE", "Trabajos": "Considera trabajos en infraestructura de salud en la localidad San Pedro Huaquilpan de  municipio de Zapotlán de Juárez.", "Geometria_tipo": "Punto" }, "geometry": { "type": "Point", "coordinates": [ -98.870004955440493, 19.990334518728961 ] } },
{ "type": "Feature", "properties": { "ID_OBRA": "700_Pachuca de Soto", "No.": 700.0, "Municipio": "Pachuca de Soto", "Rubro": "Espacios Públicos", "Ejercicio": 2023.0, "Obra": "Remodelación del Centro de Rehabilitación Integral de Hidalgo (CRIH).", "Localidad": "Pachuca de Soto", "Inversión": 3508569.77, "Habitantes.beneficiados": null, "Ejecutora": "DGOPI", "Trabajos": "Considera trabajos en infraestructura del Espacio Público en el municipio de Pachuca de Soto.", "Geometria_tipo": "Punto" }, "geometry": { "type": "Point", "coordinates": [ -98.774642700543609, 20.111522899941921 ] } },
{ "type": "Feature", "properties": { "ID_OBRA": "705_Pachuca de Soto", "No.": 705.0, "Municipio": "Pachuca de Soto", "Rubro": "Espacios Públicos", "Ejercicio": 2023.0, "Obra": "Reestructuración de puente del área de Coordinación de Enseñanza del Hospital del Niño DIF", "Localidad": "Pachuca de Soto", "Inversión": 554828.46, "Habitantes.beneficiados": null, "Ejecutora": "DGOPI", "Trabajos": "Considera trabajos en infraestructura del Espacio Público en el municipio de Pachuca de Soto.", "Geometria_tipo": "Punto" }, "geometry": { "type": "Point", "coordinates": [ -98.776795599877502, 20.07829430006888 ] } },
{ "type": "Feature", "properties": { "ID_OBRA": "876_Pachuca de Soto", "No.": 876.0, "Municipio": "Pachuca de Soto", "Rubro": "Espacios Públicos", "Ejercicio": 2024.0, "Obra": "Rehabilitación y mejoramiento de la imagen urbana sobre el Boulevard Felipe Ángeles zona del hospital IMSS en el municipio de Pachuca de Soto.", "Localidad": "Pachuca de Soto", "Inversión": 2702600.04, "Habitantes.beneficiados": null, "Ejecutora": "DGIVC", "Trabajos": "Considera trabajos en en mejoramiento de la Imagen Urbana sobre el Boulevard Felipe Ángeles en el municipio de Pachuca de Soto.", "Geometria_tipo": "Punto" }, "geometry": { "type": "Point", "coordinates": [ -98.777249023836504, 20.07436397815869 ] } },
{ "type": "Feature", "properties": { "ID_OBRA": "416_Ixmiquilpan", "No.": 416.0, "Municipio": "Ixmiquilpan", "Rubro": "Espacios Públicos", "Ejercicio": 2023.0, "Obra": "Trabajos de Mantenimiento del Hospital General del Valle del Mezquital Ixmiquilpan Clues, HGSSA001590, Municipio de Ixmiquilpan.", "Localidad": "Ixmiquilpan", "Inversión": 2158704.0, "Habitantes.beneficiados": null, "Ejecutora": "DGIVC", "Trabajos": "Considera trabajos en infraestructura de salud en el municipio de Ixmiquilpan.", "Geometria_tipo": "Punto" }, "geometry": { "type": "Point", "coordinates": [ -99.220039395791062, 20.480908317746451 ] } },
{ "type": "Feature", "properties": { "ID_OBRA": "71_Apan", "No.": 71.0, "Municipio": "Apan", "Rubro": "Espacios Públicos", "Ejercicio": 2023.0, "Obra": "Pago de afectaciones por la construcción del acceso al Hospital regional de Apan", "Localidad": "Apan", "Inversión": 1200000.0, "Habitantes.beneficiados": null, "Ejecutora": "DGAJ", "Trabajos": "Considera el pago de afectaciones.", "Geometria_tipo": "Punto" }, "geometry": { "type": "Point", "coordinates": [ -98.465446904292946, 19.712677016887749 ] } },
{ "type": "Feature", "properties": { "ID_OBRA": "997_San Agustín Tlaxiaca", "No.": 997.0, "Municipio": "San Agustín Tlaxiaca", "Rubro": "Espacios Públicos", "Ejercicio": 2024.0, "Obra": "Rehabilitación Laboratorio Estatal de salud del Estado de Hidalgo", "Localidad": "Santa Bárbara", "Inversión": 8146985.3, "Habitantes.beneficiados": 17.0, "Ejecutora": "DGCCE", "Trabajos": "Considera trabajos en infraestructura de salud en el municipio de San Agustín Tlaxiaca.", "Geometria_tipo": "Punto" }, "geometry": { "type": "Point", "coordinates": [ -98.7794810153638, 20.11604936256208 ] } }
]
}
