{
"type": "FeatureCollection",
"name": "obras_vial_punto_mejora",
"crs": { "type": "name", "properties": { "name": "urn:ogc:def:crs:OGC:1.3:CRS84" } },
"features": [
{ "type": "Feature", "properties": { "ID_OBRA": "1359_Villa de Tezontepec", "No.": 1359.0, "Municipio": "Villa de Tezontepec", "Rubro": "Vialidades Urbanas", "Ejercicio": 2024.0, "Obra": "Rehabilitación de andadores de plaza 16 de Enero y pavimentación de concreto hidráulico de la zona Centro de la cabecera municipal, Villa de Tezontepec.", "Localidad": "Tezontepec", "Inversión": 7856237.23, "Habitantes.beneficiados": 6213.0, "Ejecutora": "DGOPI", "Trabajos": "Considera los trabajos de preliminares, riego de impregnación, piso para pavimento de concreto hidráulico.", "Geometria_tipo": "Punto", "extract": 0.36631508613813779 }, "geometry": { "type": "Point", "coordinates": [ -98.8199008974523, 19.880055267615298 ] } },
{ "type": "Feature", "properties": { "ID_OBRA": "1398_Yahualica", "No.": 1398.0, "Municipio": "Yahualica", "Rubro": "Vialidades Urbanas", "Ejercicio": 2022.0, "Obra": "Rehabilitación de la calle paso por Santa Teresa, municipio de Yahualica", "Localidad": "Santa Teresa", "Inversión": 8279054.01, "Habitantes.beneficiados": null, "Ejecutora": "DGIVC", "Trabajos": "Considera los trabajos de preliminares, piso para pavimento de concreto hidráulico.", "Geometria_tipo": "Punto", "extract": 0.47659668745520678 }, "geometry": { "type": "Point", "coordinates": [ -98.382545705755604, 20.886834502880294 ] } },
{ "type": "Feature", "properties": { "ID_OBRA": "1413_Zacualtipán de Ángeles", "No.": 1413.0, "Municipio": "Zacualtipán de Ángeles", "Rubro": "Infraestructura Carretera", "Ejercicio": 2024.0, "Obra": "Reconstrucción de la carretera ramal a Tlahuelompa (Segunda etapa), en el municipio de Zacualtipán", "Localidad": "Tlahuelompa (San Francisco Tlahuelompa)", "Inversión": 18942172.74, "Habitantes.beneficiados": 971.0, "Ejecutora": "DGCCE", "Trabajos": "Considera los trabajos de deshierbe de zonas laterales del camino, extracción de derrumbes (limpieza de cunetas), revestimiento, compactación, pavimento de concreto asfaltico.", "Geometria_tipo": "Punto", "extract": 0.10461436899908166 }, "geometry": { "type": "Point", "coordinates": [ -98.576264409098698, 20.647849788030101 ] } },
{ "type": "Feature", "properties": { "ID_OBRA": "1443_Zapotlán de Juárez", "No.": 1443.0, "Municipio": "Zapotlán de Juárez", "Rubro": "Vialidades Urbanas", "Ejercicio": 2024.0, "Obra": "Reconstrucción de pórtico y vialidad de acceso a la Cabecera Municipal de Zapotlán de Juárez.", "Localidad": "Zapotlán de Juárez", "Inversión": 25761187.15, "Habitantes.beneficiados": null, "Ejecutora": "DGOPI", "Trabajos": "Considera trabajos en la rehabilitación y/o mejoramiento de las vialidades urbanas en el muncipio de Zapotlán de Juárez", "Geometria_tipo": "Punto", "extract": 0.45943624589661303 }, "geometry": { "type": "Point", "coordinates": [ -98.856167028167505, 19.980181089892401 ] } },
{ "type": "Feature", "properties": { "ID_OBRA": "494_Lolotla", "No.": 494.0, "Municipio": "Lolotla", "Rubro": "Infraestructura Carretera", "Ejercicio": 2024.0, "Obra": "Modernización el camino rural Xuchitlan - Toscalao, subtramo: Toscalao - Tetlapaya (Segunda Etapa), Lolotla.", "Localidad": "Xuchitlán", "Inversión": 9963998.85, "Habitantes.beneficiados": 873.0, "Ejecutora": null, "Trabajos": "Considera los trabajos de preliminares, obras de drenaje, terraplen.", "Geometria_tipo": "Punto", "extract": 0.3138950540371015 }, "geometry": { "type": "Point", "coordinates": [ -98.742099327586203, 21.059771526002297 ] } },
{ "type": "Feature", "properties": { "ID_OBRA": "600_Mineral del Chico", "No.": 600.0, "Municipio": "Mineral del Chico", "Rubro": "Infraestructura Carretera", "Ejercicio": 2024.0, "Obra": "Reconstrucción de pavimento asfáltico de carretera Mineral del Chico - E.C.F. Pachuca - Huejutla", "Localidad": "Mineral del Chico", "Inversión": 69515024.26000001, "Habitantes.beneficiados": 533.0, "Ejecutora": "DGCCE", "Trabajos": "Considera los trabajos de la operación de escarificación, disgregado, construcción de base hidráulica, suministro y aplicación de riego de liga con emulsión asfáltica.", "Geometria_tipo": "Punto", "extract": -0.0080115325134357471 }, "geometry": { "type": "Point", "coordinates": [ -98.723717087367902, 20.182064352335601 ] } },
{ "type": "Feature", "properties": { "ID_OBRA": "601_Mineral del Chico", "No.": 601.0, "Municipio": "Mineral del Chico", "Rubro": "Infraestructura Carretera", "Ejercicio": 2024.0, "Obra": "Reconstrucción y rehabilitación de la Carretera La Estanzuela - Tilcuautla, municipio de Mineral del Chico.", "Localidad": "Mineral del Chico", "Inversión": 22293035.97, "Habitantes.beneficiados": null, "Ejecutora": "DGCCE", "Trabajos": "Considera trabajos para la reconstrucción y/o conservación de Infraestructura Carretera en la localidad de Mineral del Chico municipio de Mineral del Chico", "Geometria_tipo": "Punto", "extract": 0.15697645509056563 }, "geometry": { "type": "Point", "coordinates": [ -98.750114803318894, 20.186802126465501 ] } },
{ "type": "Feature", "properties": { "ID_OBRA": "101_Atlapexco", "No.": 101.0, "Municipio": "Atlapexco", "Rubro": "Infraestructura Carretera", "Ejercicio": 2024.0, "Obra": "Rehabilitación de la Carretera Atlapexco a Lolotla, Tramo: Acceso a la localidad de Itzócal, municipio de Atlapexco", "Localidad": "Itzócal", "Inversión": 8288509.13, "Habitantes.beneficiados": 1113.0, "Ejecutora": null, "Trabajos": "Considera trabajos para la reconstrucción y/o conservación de Infraestructura Carretera en la localidad de Itzócal municipio de Atlapexco", "Geometria_tipo": "Punto", "extract": 0.17252218936878572 }, "geometry": { "type": "Point", "coordinates": [ -98.394846025245769, 21.015838949747483 ] } },
{ "type": "Feature", "properties": { "ID_OBRA": "1026_San Felipe Orizatlán", "No.": 1026.0, "Municipio": "San Felipe Orizatlán", "Rubro": "Infraestructura Carretera", "Ejercicio": 2024.0, "Obra": "Rehabilitación de camino de Coacuilco a Pochotitla a Ahuimol, del Km 0.000 al Km 1.310, en el municipio de San Felipe Orizatlán.", "Localidad": "Varias", "Inversión": 1728995.1, "Habitantes.beneficiados": null, "Ejecutora": "DGIyVC", "Trabajos": "Considera trabajos para la reconstrucción y/o conservación de Infraestructura Carretera en la localidad de Varias municipio de San Felipe Orizatlán", "Geometria_tipo": "Punto", "extract": 0.5584948940312886 }, "geometry": { "type": "Point", "coordinates": [ -98.587217, 21.137686 ] } },
{ "type": "Feature", "properties": { "ID_OBRA": "1032_San Salvador", "No.": 1032.0, "Municipio": "San Salvador", "Rubro": "Infraestructura Carretera", "Ejercicio": 2022.0, "Obra": "Reconstrucción a Chichimecas - Cañada Chica, Chichimecas, municipio de San salvador", "Localidad": "Chichimecas", "Inversión": 997980.35, "Habitantes.beneficiados": 479.0, "Ejecutora": "DGCCE", "Trabajos": "Considera trabajos para la reconstrucción y/o conservación de Infraestructura Carretera en la localidad de Chichimecas municipio de San Salvador", "Geometria_tipo": "Punto", "extract": 0.16056918344514054 }, "geometry": { "type": "Point", "coordinates": [ -99.161128226259422, 20.403003891687824 ] } },
{ "type": "Feature", "properties": { "ID_OBRA": "1072_Santiago de Anaya", "No.": 1072.0, "Municipio": "Santiago de Anaya", "Rubro": "Infraestructura Carretera", "Ejercicio": 2024.0, "Obra": "Modernización y ampliación del C.R. Pozuelos - El Palmar; tramo del km 0+000 al 12+209, subtramo: del km 6+770 al km 12+209", "Localidad": "Varias", "Inversión": 38693637.89, "Habitantes.beneficiados": null, "Ejecutora": "DGCCE", "Trabajos": "Considera los trabajos de modernización del camino rural en el municipio de Santiago de Anaya.", "Geometria_tipo": "Punto", "extract": -0.54054736181093299 }, "geometry": { "type": "Point", "coordinates": [ -99.027892012882688, 20.424508804688241 ] } },
{ "type": "Feature", "properties": { "ID_OBRA": "1109_Tecozautla", "No.": 1109.0, "Municipio": "Tecozautla", "Rubro": "Infraestructura Carretera", "Ejercicio": 2023.0, "Obra": "Reconstrucción del camino Gandhó - Rancho Viejo - El Geiser - La Salitrera - Uxdejhe (Estatal 101) del Km 0+000 Al Km 4+000, en el municipio Tecozautla.", "Localidad": "Varias", "Inversión": 19283628.09, "Habitantes.beneficiados": null, "Ejecutora": "DGOPI", "Trabajos": "Considera trabajos para la reconstrucción y/o conservación de Infraestructura Carretera en la localidad de Varias municipio de Tecozautla", "Geometria_tipo": "Punto", "extract": -0.2533554086500836 }, "geometry": { "type": "Point", "coordinates": [ -99.683920255051319, 20.57244212682269 ] } },
{ "type": "Feature", "properties": { "ID_OBRA": "1113_Tenango de Doria", "No.": 1113.0, "Municipio": "Tenango de Doria", "Rubro": "Infraestructura Carretera", "Ejercicio": 2023.0, "Obra": "Reconstrucción de la C.E. Tenango de Doria al Desdavi.", "Localidad": "El Desdavi", "Inversión": 36490785.98, "Habitantes.beneficiados": 2785.0, "Ejecutora": "DGCCE", "Trabajos": "Considera trabajos para la reconstrucción y/o conservación de Infraestructura Carretera en la localidad de El Desdavi municipio de Tenango de Doria", "Geometria_tipo": "Punto", "extract": 0.70849387847479839 }, "geometry": { "type": "Point", "coordinates": [ -98.237686944301728, 20.344306388955232 ] } },
{ "type": "Feature", "properties": { "ID_OBRA": "1126_Tenango de Doria", "No.": 1126.0, "Municipio": "Tenango de Doria", "Rubro": "Infraestructura Carretera", "Ejercicio": 2022.0, "Obra": "Reconstrucción carretera estatal Tenango de Doria - Huehuetla, subtramo: Santa María Temascalapa - Huehuetla tres tramos, municipios de Tenango de Doria y Huehuetla", "Localidad": "Varias", "Inversión": 45404597.14, "Habitantes.beneficiados": 17202.0, "Ejecutora": "DGCCE", "Trabajos": "Considera trabajos para la reconstrucción y/o conservación de Infraestructura Carretera en la localidad de Varias municipio de Tenango de Doria", "Geometria_tipo": "Punto", "extract": 0.57810804040991093 }, "geometry": { "type": "Point", "coordinates": [ -98.18804059086942, 20.388233148792445 ] } },
{ "type": "Feature", "properties": { "ID_OBRA": "1164_Tepehuacán de Guerrero", "No.": 1164.0, "Municipio": "Tepehuacán de Guerrero", "Rubro": "Infraestructura Carretera", "Ejercicio": 2024.0, "Obra": "Rehabilitación de camino de Zacualtipanito a Petlapixca, en el municipio de Tepehuacan de Guerrero.", "Localidad": "Varias", "Inversión": 2806876.46, "Habitantes.beneficiados": null, "Ejecutora": "DGOPI", "Trabajos": "Considera los trabajos de preliminares, revestimiento de camino en el municipio de Tepehuacán de Guerrero", "Geometria_tipo": "Punto", "extract": 0.63088999637223797 }, "geometry": { "type": "Point", "coordinates": [ -98.78990845436941, 21.158930700383639 ] } },
{ "type": "Feature", "properties": { "ID_OBRA": "1165_Tepehuacán de Guerrero", "No.": 1165.0, "Municipio": "Tepehuacán de Guerrero", "Rubro": "Infraestructura Carretera", "Ejercicio": 2024.0, "Obra": "Reconstrucción de la C.E. Casetas Otongo, municipio de Tlanchinol.", "Localidad": "Varias", "Inversión": 7482072.45, "Habitantes.beneficiados": null, "Ejecutora": "DGOPI", "Trabajos": "Considera trabajos para la reconstrucción y/o conservación de Infraestructura Carretera en la localidad de Varias municipio de Tepehuacán de Guerrero", "Geometria_tipo": "Punto", "extract": 0.13489713240095255 }, "geometry": { "type": "Point", "coordinates": [ -98.754989445588564, 20.967166072643717 ] } },
{ "type": "Feature", "properties": { "ID_OBRA": "1205_Tianguistengo", "No.": 1205.0, "Municipio": "Tianguistengo", "Rubro": "Infraestructura Carretera", "Ejercicio": 2024.0, "Obra": "Rehabilitación de la carretera Tianguistengo a Pemuxco, municipio de Tianguistengo", "Localidad": "Varias", "Inversión": 35887142.35, "Habitantes.beneficiados": null, "Ejecutora": null, "Trabajos": "Considera trabajos para la reconstrucción y/o conservación de Infraestructura Carretera en la localidad de Varias municipio de Tianguistengo", "Geometria_tipo": "Punto", "extract": 0.22388673413238974 }, "geometry": { "type": "Point", "coordinates": [ -98.6040996843643, 20.733649099078921 ] } },
{ "type": "Feature", "properties": { "ID_OBRA": "1235_Tlanalapa", "No.": 1235.0, "Municipio": "Tlanalapa", "Rubro": "Vialidades Urbanas", "Ejercicio": 2023.0, "Obra": "Reconstrucción de calle asfáltica Tlanalapa - Chinconcuac; en el municipio de Tlanalapa", "Localidad": "Varias", "Inversión": 7457271.85, "Habitantes.beneficiados": null, "Ejecutora": "DGOPI", "Trabajos": "Se realizan los siguientes trabajos: trazo y nivelación de plazas, suministro y aplicación de carpeta asfáltica compactado.", "Geometria_tipo": "Punto", "extract": 0.096662504097462437 }, "geometry": { "type": "Point", "coordinates": [ -98.613091151224225, 19.822253950152579 ] } },
{ "type": "Feature", "properties": { "ID_OBRA": "1236_Tlanchinol", "No.": 1236.0, "Municipio": "Tlanchinol", "Rubro": "Infraestructura Carretera", "Ejercicio": 2023.0, "Obra": "Rehabilitación del acceso a Acahuasco, del km 0+000 al km 6+000; en el municipio de Tlanchinol.", "Localidad": "Acahuasco", "Inversión": 5128499.07, "Habitantes.beneficiados": 1358.0, "Ejecutora": "DGCCE", "Trabajos": "Se consideran trabajos de revestimiento, cunetas y limpieza de cunetas.", "Geometria_tipo": "Punto", "extract": 0.41247450491653437 }, "geometry": { "type": "Point", "coordinates": [ -98.596262616190202, 20.961843310293666 ] } },
{ "type": "Feature", "properties": { "ID_OBRA": "1237_Tlanchinol", "No.": 1237.0, "Municipio": "Tlanchinol", "Rubro": "Infraestructura Carretera", "Ejercicio": 2023.0, "Obra": "Rehabilitación del tramo E.C. (Casetas - Otongo) - Amoxco, del Km 0+000 al Km 14+500.", "Localidad": "Amoxco", "Inversión": 11318206.64, "Habitantes.beneficiados": 345.0, "Ejecutora": "DGIVC", "Trabajos": "Se consideran trabajos de revestimiento, cunetas y limpieza de cunetas.", "Geometria_tipo": "Punto", "extract": 0.21683575914515288 }, "geometry": { "type": "Point", "coordinates": [ -98.716286244940505, 21.051863059317984 ] } },
{ "type": "Feature", "properties": { "ID_OBRA": "1240_Tlanchinol", "No.": 1240.0, "Municipio": "Tlanchinol", "Rubro": "Infraestructura Carretera", "Ejercicio": 2024.0, "Obra": "Rehabilitación de camino E.C. de Tlanchinol a Hueyapa, a Cuatlimax, del Km 0.000 al Km 10.000, en el municipio de Tlanchinol.", "Localidad": "Cuatlimax", "Inversión": 7849636.51, "Habitantes.beneficiados": 2143.0, "Ejecutora": "DGCCE", "Trabajos": "Considera los trabajos de preliminares, revestimiento de camino en la localidad de Cuatlimax municipio de Tlanchinol", "Geometria_tipo": "Punto", "extract": 0.35009939248995592 }, "geometry": { "type": "Point", "coordinates": [ -98.661565821558469, 21.096340231751888 ] } },
{ "type": "Feature", "properties": { "ID_OBRA": "1245_Tlanchinol", "No.": 1245.0, "Municipio": "Tlanchinol", "Rubro": "Infraestructura Carretera", "Ejercicio": 2023.0, "Obra": "Rehabilitación del tramo E.C. (Orizatlán - San José) - Rancho Nuevo, del km 0+000 al km 2+000; en el municipio de Tlanchinol.", "Localidad": "Rancho Nuevo", "Inversión": 1568807.37, "Habitantes.beneficiados": 111.0, "Ejecutora": "DGIVC", "Trabajos": "Se consideran trabajos de revestimiento, cunetas y limpieza de cunetas.", "Geometria_tipo": "Punto", "extract": 0.33757980945109939 }, "geometry": { "type": "Point", "coordinates": [ -98.589674848763266, 21.072569701228147 ] } },
{ "type": "Feature", "properties": { "ID_OBRA": "1250_Tlanchinol", "No.": 1250.0, "Municipio": "Tlanchinol", "Rubro": "Infraestructura Carretera", "Ejercicio": 2024.0, "Obra": "Rehabilitación de la carretera de Temango a Santa Lucía a Pahuayo, municipio de Tlanchinol", "Localidad": "Santa Lucía", "Inversión": 9459810.54, "Habitantes.beneficiados": 687.0, "Ejecutora": null, "Trabajos": "Considera trabajos para la reconstrucción y/o conservación de Infraestructura Carretera en la localidad de Santa Lucía municipio de Tlanchinol", "Geometria_tipo": "Punto", "extract": 0.71748404488846673 }, "geometry": { "type": "Point", "coordinates": [ -98.706339079617351, 21.161517474713904 ] } },
{ "type": "Feature", "properties": { "ID_OBRA": "1253_Tlanchinol", "No.": 1253.0, "Municipio": "Tlanchinol", "Rubro": "Infraestructura Carretera", "Ejercicio": 2024.0, "Obra": "Rehabilitación del camino a Tierra Colorada, municipio de Tlanchinol", "Localidad": "Tierra Colorada", "Inversión": 9610870.37, "Habitantes.beneficiados": 345.0, "Ejecutora": null, "Trabajos": "Considera trabajos para la reconstrucción y/o conservación de Infraestructura Carretera en la localidad de Tierra Colorada municipio de Tlanchinol", "Geometria_tipo": "Punto", "extract": 0.67097827676897892 }, "geometry": { "type": "Point", "coordinates": [ -98.606585622334308, 21.000552827897717 ] } },
{ "type": "Feature", "properties": { "ID_OBRA": "1260_Tlanchinol", "No.": 1260.0, "Municipio": "Tlanchinol", "Rubro": "Infraestructura Carretera", "Ejercicio": 2024.0, "Obra": "Rehabilitación de camino E.C. de Tlanchinol a Apantlazol, tramo Chichatla a Xochititla, del Km 0.000 al Km 10.000, en el municipio de Tlanchinol.", "Localidad": "Varias", "Inversión": 7854223.17, "Habitantes.beneficiados": null, "Ejecutora": "DGCCE", "Trabajos": "Considera los trabajos de preliminares, revestimiento de camino en el municipio de Tlanchinol", "Geometria_tipo": "Punto", "extract": 0.26681128557177936 }, "geometry": { "type": "Point", "coordinates": [ -98.620277777777716, 20.981638888888902 ] } },
{ "type": "Feature", "properties": { "ID_OBRA": "1261_Tlanchinol", "No.": 1261.0, "Municipio": "Tlanchinol", "Rubro": "Infraestructura Carretera", "Ejercicio": 2024.0, "Obra": "Reconstrucción de la C.E. Tlanchinol a Hueyapa a Temango, en el municipio de Tlanchinol", "Localidad": "Varias", "Inversión": 10684193.4, "Habitantes.beneficiados": null, "Ejecutora": "DGCCE", "Trabajos": "Considera trabajos para la reconstrucción y/o conservación de Infraestructura Carretera en la localidad de Varias municipio de Tlanchinol", "Geometria_tipo": "Punto", "extract": 0.059796847312140196 }, "geometry": { "type": "Point", "coordinates": [ -98.68711475620087, 21.089701858299861 ] } },
{ "type": "Feature", "properties": { "ID_OBRA": "1280_Tula de Allende", "No.": 1280.0, "Municipio": "Tula de Allende", "Rubro": "Infraestructura Carretera", "Ejercicio": 2023.0, "Obra": "Reconstrucción de la C.E. Tula de Allende - Zaragoza; en el municipio de Tula de Allende", "Localidad": "Varias", "Inversión": 29874193.4, "Habitantes.beneficiados": null, "Ejecutora": "DGCCE", "Trabajos": "Considera trabajos para la reconstrucción y/o conservación de Infraestructura Carretera en la localidad de Varias municipio de Tula de Allende", "Geometria_tipo": "Punto", "extract": 0.50114057301017079 }, "geometry": { "type": "Point", "coordinates": [ -99.32355043, 20.01639826 ] } },
{ "type": "Feature", "properties": { "ID_OBRA": "1281_Tula de Allende", "No.": 1281.0, "Municipio": "Tula de Allende", "Rubro": "Vialidades Urbanas", "Ejercicio": 2023.0, "Obra": "Reconstrucción de acceso a las col. de Satelite, Violetas, Galaxia I y Galaxia II, en el municipio de Tula de Allende.", "Localidad": "Varias", "Inversión": 13416901.14, "Habitantes.beneficiados": null, "Ejecutora": "DGCCE", "Trabajos": "Considera trabajos en la rehabilitación y/o mejoramiento de las vialidades urbanas en el muncipio de Tula de Allende", "Geometria_tipo": "Punto", "extract": 0.6222160636019537 }, "geometry": { "type": "Point", "coordinates": [ -99.34503983, 20.02445955 ] } },
{ "type": "Feature", "properties": { "ID_OBRA": "130_Calnali", "No.": 130.0, "Municipio": "Calnali", "Rubro": "Infraestructura Carretera", "Ejercicio": 2024.0, "Obra": "Rehabilitación del camino Pezmatlán a Tula, en la localidad de Tula, municipio de Calnali", "Localidad": "Tula", "Inversión": 4535517.84, "Habitantes.beneficiados": 337.0, "Ejecutora": null, "Trabajos": "Considera los trabajos de preliminares, revestimiento de camino en la localidad de Tula municipio de Calnali", "Geometria_tipo": "Punto", "extract": 0.46957949188280329 }, "geometry": { "type": "Point", "coordinates": [ -98.541113223258904, 20.87658357391668 ] } },
{ "type": "Feature", "properties": { "ID_OBRA": "1363_Xochiatipan", "No.": 1363.0, "Municipio": "Xochiatipan", "Rubro": "Infraestructura Carretera", "Ejercicio": 2024.0, "Obra": "Rehabilitación de la carretera Nuevo Acatepec a Atlalco, municipio de Xochiatipan", "Localidad": "Nuevo Acatepec (Mezcalapa)", "Inversión": 14525475.0, "Habitantes.beneficiados": 180.0, "Ejecutora": null, "Trabajos": "Considera trabajos para la reconstrucción y/o conservación de Infraestructura Carretera en la localidad de Nuevo Acatepec (Mezcalapa) municipio de Xochiatipan", "Geometria_tipo": "Punto", "extract": 0.0025012519690521661 }, "geometry": { "type": "Point", "coordinates": [ -98.293224532480551, 20.927703770678225 ] } },
{ "type": "Feature", "properties": { "ID_OBRA": "1369_Xochiatipan", "No.": 1369.0, "Municipio": "Xochiatipan", "Rubro": "Infraestructura Carretera", "Ejercicio": 2024.0, "Obra": "Rehabilitación del Camino a Pachiquitla a entronque ramal a Xochiatipan, municipio de Xochiatipan.", "Localidad": "Pachiquitla", "Inversión": 8619310.01, "Habitantes.beneficiados": 1156.0, "Ejecutora": null, "Trabajos": "Considera los trabajos de preliminares, revestimiento de camino en la localidad de Pachiquitla municipio de Xochiatipan", "Geometria_tipo": "Punto", "extract": 0.2834699061235707 }, "geometry": { "type": "Point", "coordinates": [ -98.334974006524178, 20.845853402222314 ] } },
{ "type": "Feature", "properties": { "ID_OBRA": "1390_Yahualica", "No.": 1390.0, "Municipio": "Yahualica", "Rubro": "Infraestructura Carretera", "Ejercicio": 2023.0, "Obra": "Rehabilitación de C.R. Crisolco - Tecacalax, en el municipio de Yahualica.", "Localidad": "Crisolco", "Inversión": 9676920.7, "Habitantes.beneficiados": 21986.0, "Ejecutora": "DGCCE", "Trabajos": "Se consideran trabajos de revestimiento, cunetas y limpieza de cunetas.", "Geometria_tipo": "Punto", "extract": 0.62018318769979774 }, "geometry": { "type": "Point", "coordinates": [ -98.339531181917735, 20.873548842092255 ] } },
{ "type": "Feature", "properties": { "ID_OBRA": "1395_Yahualica", "No.": 1395.0, "Municipio": "Yahualica", "Rubro": "Infraestructura Carretera", "Ejercicio": 2023.0, "Obra": "Modernización y ampliación del camino Mecatlán - Mesa Larga, tramo: del Km 0+000 al Km 1+500; en el municipio de Yahualica.", "Localidad": "Mesa Larga", "Inversión": 18106860.44, "Habitantes.beneficiados": 2469.0, "Ejecutora": "DGCCE", "Trabajos": "Considera los trabajos  de modernización y ampliación del camino en la localidad de Mesa Larga municipio de Yahualica.", "Geometria_tipo": "Punto", "extract": 0.18655409814488422 }, "geometry": { "type": "Point", "coordinates": [ -98.413739181453678, 20.942680715749848 ] } },
{ "type": "Feature", "properties": { "ID_OBRA": "1401_Yahualica", "No.": 1401.0, "Municipio": "Yahualica", "Rubro": "Infraestructura Carretera", "Ejercicio": 2023.0, "Obra": "Rehabilitación del tramo Tres Huastecas - Tamalcuatitla, del km 0+000 al km 3+000; en el municipio de Yahualica.", "Localidad": "Tamalcuatitla", "Inversión": 2355140.1, "Habitantes.beneficiados": 853.0, "Ejecutora": "DGIVC", "Trabajos": "Se consideran trabajos de revestimiento, cunetas y limpieza de cunetas.", "Geometria_tipo": "Punto", "extract": 0.4976712650460059 }, "geometry": { "type": "Point", "coordinates": [ -98.354772551718142, 20.925433582578894 ] } },
{ "type": "Feature", "properties": { "ID_OBRA": "1402_Yahualica", "No.": 1402.0, "Municipio": "Yahualica", "Rubro": "Infraestructura Carretera", "Ejercicio": 2024.0, "Obra": "Rehabilitación de camino Xóchitl a Tenamaxtepec, del Km 0.000 al Km 3.780, en el municipio de Yahualica.", "Localidad": "Tenamaxtepec", "Inversión": 9716796.82, "Habitantes.beneficiados": 856.0, "Ejecutora": "DGIyVC", "Trabajos": "Considera los trabajos de preliminares, revestimiento de camino en la localidad de Tenamaxtepec municipio de Yahualica", "Geometria_tipo": "Punto", "extract": 0.39729286873886804 }, "geometry": { "type": "Point", "coordinates": [ -98.362145299860273, 20.883283668645408 ] } },
{ "type": "Feature", "properties": { "ID_OBRA": "258_Eloxochitlán", "No.": 258.0, "Municipio": "Eloxochitlán", "Rubro": "Infraestructura Carretera", "Ejercicio": 2024.0, "Obra": "Rehabilitación De C.R. San Pedro Gilo - Almolón - San Juan Amajac - Camarones - Cieneguilla, municipio de Eloxochitlán", "Localidad": "Varias", "Inversión": 20860000.0, "Habitantes.beneficiados": null, "Ejecutora": "DGCCE", "Trabajos": "Considera los trabajos de preliminares, revestimiento de camino en el municipio de Eloxochitlán", "Geometria_tipo": "Punto", "extract": 0.32119652399378318 }, "geometry": { "type": "Point", "coordinates": [ -98.926653997153153, 20.730773248227337 ] } },
{ "type": "Feature", "properties": { "ID_OBRA": "314_Huautla", "No.": 314.0, "Municipio": "Huautla", "Rubro": "Infraestructura Carretera", "Ejercicio": 2024.0, "Obra": "Rehabilitación del camino Aquetzpalco a La Mesa, municipio de Huautla", "Localidad": "La Mesa", "Inversión": 10121668.5, "Habitantes.beneficiados": 304.0, "Ejecutora": null, "Trabajos": "Considera trabajos para la reconstrucción y/o conservación de Infraestructura Carretera en la localidad de La Mesa municipio de Huautla", "Geometria_tipo": "Punto", "extract": -0.095835955938500542 }, "geometry": { "type": "Point", "coordinates": [ -98.193035505497434, 21.018543998398716 ] } },
{ "type": "Feature", "properties": { "ID_OBRA": "323_Huautla", "No.": 323.0, "Municipio": "Huautla", "Rubro": "Infraestructura Carretera", "Ejercicio": 2024.0, "Obra": "Rehabilitación de camino el Ixtle a El Lindero a Coatempa, del km 0.000 al km 12.000, en el municipio de Huautla.", "Localidad": "Varias", "Inversión": 8451903.32, "Habitantes.beneficiados": null, "Ejecutora": "DGCCE", "Trabajos": "Considera los trabajos de preliminares, revestimiento de camino en el municipio de Huautla", "Geometria_tipo": "Punto", "extract": -0.10218206645451229 }, "geometry": { "type": "Point", "coordinates": [ -98.164748, 21.055749 ] } },
{ "type": "Feature", "properties": { "ID_OBRA": "324_Huazalingo", "No.": 324.0, "Municipio": "Huazalingo", "Rubro": "Infraestructura Carretera", "Ejercicio": 2024.0, "Obra": "Rehabilitación de la Pavimentación de concreto hidráulico del acceso a la localidad de Ixtlahuac, municipio de Huazalingo.", "Localidad": "Ixtlahuac", "Inversión": 13459082.31, "Habitantes.beneficiados": 349.0, "Ejecutora": null, "Trabajos": "Considera los trabajos de preliminares, riego de impregnación, piso para pavimento de concreto hidráulico.", "Geometria_tipo": "Punto", "extract": 0.41133447330550232 }, "geometry": { "type": "Point", "coordinates": [ -98.491647280315632, 20.957930013789582 ] } },
{ "type": "Feature", "properties": { "ID_OBRA": "350_Huejutla de Reyes", "No.": 350.0, "Municipio": "Huejutla de Reyes", "Rubro": "Infraestructura Carretera", "Ejercicio": 2024.0, "Obra": "Rehabilitación de puente vado Achichípil, en la localidad de Achichípil, municipio de Huejutla de Reyes", "Localidad": "Achichípil", "Inversión": 14335853.28, "Habitantes.beneficiados": 196.0, "Ejecutora": null, "Trabajos": "Considera trabajos para la reconstrucción y/o conservación de Infraestructura Carretera en la localidad de Achichípil municipio de Huejutla de Reyes", "Geometria_tipo": "Punto", "extract": 0.079817297614215993 }, "geometry": { "type": "Point", "coordinates": [ -98.507877453925758, 21.210461025050829 ] } },
{ "type": "Feature", "properties": { "ID_OBRA": "356_Huejutla de Reyes", "No.": 356.0, "Municipio": "Huejutla de Reyes", "Rubro": "Infraestructura Carretera", "Ejercicio": 2024.0, "Obra": "Rehabilitación de puente vehicular en la carretera Cececapa a La Corrala, en la localidad de Cececapa, municipio de Huejutla de Reyes", "Localidad": "Cececapa", "Inversión": 13114679.28, "Habitantes.beneficiados": 913.0, "Ejecutora": null, "Trabajos": "Considera trabajos para la reconstrucción y/o conservación de Infraestructura Carretera en la localidad de Cececapa municipio de Huejutla de Reyes", "Geometria_tipo": "Punto", "extract": 0.25778222100288717 }, "geometry": { "type": "Point", "coordinates": [ -98.489658196258659, 21.176596376634045 ] } },
{ "type": "Feature", "properties": { "ID_OBRA": "379_Huejutla de Reyes", "No.": 379.0, "Municipio": "Huejutla de Reyes", "Rubro": "Infraestructura Carretera", "Ejercicio": 2024.0, "Obra": "Rehabilitación de la carretera Huejutla a Santa Cruz, municipio de Huejutla de Reyes", "Localidad": "Santa Cruz", "Inversión": 32569520.47, "Habitantes.beneficiados": 1573.0, "Ejecutora": null, "Trabajos": "Considera trabajos para la reconstrucción y/o conservación de Infraestructura Carretera en la localidad de Santa Cruz municipio de Huejutla de Reyes", "Geometria_tipo": "Punto", "extract": 0.13478393567608191 }, "geometry": { "type": "Point", "coordinates": [ -98.495189847970636, 21.198747642092638 ] } },
{ "type": "Feature", "properties": { "ID_OBRA": "386_Huejutla de Reyes", "No.": 386.0, "Municipio": "Huejutla de Reyes", "Rubro": "Infraestructura Carretera", "Ejercicio": 2024.0, "Obra": "Reconstrucción de la C.E. Libramiento Sur Huejutla - (E.C. Pachuca - Tempoal), municipio de Huejutla de Reyes", "Localidad": "Xiloco", "Inversión": 7747264.0, "Habitantes.beneficiados": 235.0, "Ejecutora": null, "Trabajos": "Considera trabajos para la reconstrucción y/o conservación de Infraestructura Carretera en la localidad de Xiloco municipio de Huejutla de Reyes", "Geometria_tipo": "Punto", "extract": 0.35927696855157198 }, "geometry": { "type": "Point", "coordinates": [ -98.475199369702395, 21.119581839744257 ] } },
{ "type": "Feature", "properties": { "ID_OBRA": "453_Ixmiquilpan", "No.": 453.0, "Municipio": "Ixmiquilpan", "Rubro": "Infraestructura Carretera", "Ejercicio": 2023.0, "Obra": "Rehabilitación de la carretera paso por Ixmiquilpan.", "Localidad": "Varias", "Inversión": 27009792.9, "Habitantes.beneficiados": null, "Ejecutora": "DGOPI", "Trabajos": "Considera trabajos para la reconstrucción y/o conservación de Infraestructura Carretera en la localidad de Varias municipio de Ixmiquilpan", "Geometria_tipo": "Punto", "extract": -0.15604118410496653 }, "geometry": { "type": "Point", "coordinates": [ -99.201308, 20.532473 ] } },
{ "type": "Feature", "properties": { "ID_OBRA": "48_Agua Blanca de Iturbide", "No.": 48.0, "Municipio": "Agua Blanca de Iturbide", "Rubro": "Infraestructura Carretera", "Ejercicio": 2023.0, "Obra": "Reconstrucción de la C.E. Agua Blanca-Zacualpa; en el municipio de Agua Blanca", "Localidad": "Varias", "Inversión": 15618248.25, "Habitantes.beneficiados": null, "Ejecutora": "DGIVC", "Trabajos": "Considera trabajos para la reconstrucción y/o conservación de Infraestructura Carretera en la localidad de Varias municipio de Agua Blanca de Iturbide", "Geometria_tipo": "Punto", "extract": -0.024556356256874162 }, "geometry": { "type": "Point", "coordinates": [ -98.406906, 20.365655 ] } },
{ "type": "Feature", "properties": { "ID_OBRA": "505_Lolotla", "No.": 505.0, "Municipio": "Lolotla", "Rubro": "Infraestructura Carretera", "Ejercicio": 2024.0, "Obra": "Rehabilitación de camino Cuatitlanapa a La Unión, del km 0.000 al km 6.000, en el municipio de Lolotla.", "Localidad": "Varias", "Inversión": 4705390.24, "Habitantes.beneficiados": null, "Ejecutora": "DGOPI", "Trabajos": "Considera trabajos para la reconstrucción y/o conservación de Infraestructura Carretera en la localidad de Varias municipio de Lolotla", "Geometria_tipo": "Punto", "extract": 0.13246419485412225 }, "geometry": { "type": "Point", "coordinates": [ -98.74648, 21.085996 ] } },
{ "type": "Feature", "properties": { "ID_OBRA": "506_Lolotla", "No.": 506.0, "Municipio": "Lolotla", "Rubro": "Infraestructura Carretera", "Ejercicio": 2024.0, "Obra": "Rehabilitación de camino Xuchitlan a Cuatitlanapa, en el municipio de Lolotla.", "Localidad": "Varias", "Inversión": 3150684.36, "Habitantes.beneficiados": null, "Ejecutora": "DGOPI", "Trabajos": "Considera los trabajos de preliminares, revestimiento de camino enel municipio de Lolotla", "Geometria_tipo": "Punto", "extract": 0.25923927017282566 }, "geometry": { "type": "Point", "coordinates": [ -98.744593, 21.067444 ] } },
{ "type": "Feature", "properties": { "ID_OBRA": "586_Mineral de la Reforma", "No.": 586.0, "Municipio": "Mineral de la Reforma", "Rubro": "Infraestructura Carretera", "Ejercicio": 2023.0, "Obra": "Reconstrucción de pavimento en el boulevard Nuevo Hidalgo, tramo Distribuidor Colonias - Distribuidor Vial Municipios Unidos - puente El Venado (cuerpo izquierdo).", "Localidad": "Varias", "Inversión": 33843078.56, "Habitantes.beneficiados": null, "Ejecutora": "DGCCE", "Trabajos": "Considera los trabajos de pavimento de concreto hidráulico premezclado, adquisición de mezcla asfáltica en caliente.", "Geometria_tipo": "Punto", "extract": 0.59022934829881391 }, "geometry": { "type": "Point", "coordinates": [ -98.778909, 20.057007 ] } },
{ "type": "Feature", "properties": { "ID_OBRA": "587_Mineral de la Reforma", "No.": 587.0, "Municipio": "Mineral de la Reforma", "Rubro": "Infraestructura Carretera", "Ejercicio": 2024.0, "Obra": "Reconstrucción de Pavimento en el Boulevard Nuevo Hidalgo tramo Distribuidor Colonias - Distribuidor Vial Municipios Unidos - Puente El Venado (Cuerpo Derecho), en el municipio de Mineral de la Reforma.", "Localidad": "Varias", "Inversión": 67432687.35, "Habitantes.beneficiados": null, "Ejecutora": "DGCCE", "Trabajos": "Se realizará la construcción contemplando las siguientes partidas: preliminares, terracerías, estabilización de subbase, base hidráulica, riego de impregnación, pavimento de concreto hidráulico, señalamiento y obras complementarias.", "Geometria_tipo": "Punto", "extract": 0.5835142923126837 }, "geometry": { "type": "Point", "coordinates": [ -98.777942, 20.057765 ] } },
{ "type": "Feature", "properties": { "ID_OBRA": "633_Nicolás Flores", "No.": 633.0, "Municipio": "Nicolás Flores", "Rubro": "Infraestructura Carretera", "Ejercicio": 2024.0, "Obra": "Rehabilitación de acceso a Nicolás Flores vía Bocua - Cerro de la Cruz, municipio de Nicolás Flores", "Localidad": "Varias", "Inversión": 2487969.15, "Habitantes.beneficiados": null, "Ejecutora": null, "Trabajos": "Considera los trabajos de revestimiento del camino a Nicolás Flores.", "Geometria_tipo": "Punto", "extract": 0.00043309201930763486 }, "geometry": { "type": "Point", "coordinates": [ -99.160938, 20.757525 ] } },
{ "type": "Feature", "properties": { "ID_OBRA": "858_Pachuca de Soto", "No.": 858.0, "Municipio": "Pachuca de Soto", "Rubro": "Vialidades Urbanas", "Ejercicio": 2024.0, "Obra": "Rehabilitación asfáltica del Boulevard Panorámico, en el municipio de Pachuca de Soto", "Localidad": "Pachuca de Soto", "Inversión": 23020998.95, "Habitantes.beneficiados": null, "Ejecutora": "DGCCE", "Trabajos": "Se realizan los siguientes trabajos: trazo y nivelación de plazas, suministro y aplicación de carpeta asfáltica compactado,  en el municipio de Pachuca de Soto", "Geometria_tipo": "Punto", "extract": 0.61304846355032672 }, "geometry": { "type": "Point", "coordinates": [ -98.744877101255881, 20.099272698319357 ] } },
{ "type": "Feature", "properties": { "ID_OBRA": "869_Pachuca de Soto", "No.": 869.0, "Municipio": "Pachuca de Soto", "Rubro": "Vialidades Urbanas", "Ejercicio": 2024.0, "Obra": "Rehabilitación de calles de acceso Valle de San Javier entronque Río de las Avenidas, Pachuca de Soto", "Localidad": "Pachuca de Soto", "Inversión": 7831703.58, "Habitantes.beneficiados": null, "Ejecutora": "DGIVC", "Trabajos": "Considera los trabajos de preliminares, piso para pavimento.", "Geometria_tipo": "Punto", "extract": 0.49670112498597696 }, "geometry": { "type": "Point", "coordinates": [ -98.748932979001594, 20.094690247850238 ] } },
{ "type": "Feature", "properties": { "ID_OBRA": "873_Pachuca de Soto", "No.": 873.0, "Municipio": "Pachuca de Soto", "Rubro": "Vialidades Urbanas", "Ejercicio": 2024.0, "Obra": "Reconstrucción de pavimento de concreto hidráulico en calle San Martín de Porres, Pachuca de Soto", "Localidad": "Pachuca de Soto", "Inversión": 3509851.8, "Habitantes.beneficiados": null, "Ejecutora": "DGIVC", "Trabajos": "Considera los trabajos de preliminares, riego de impregnación, piso para pavimento de concreto hidráulico.", "Geometria_tipo": "Punto", "extract": 0.69020207155154045 }, "geometry": { "type": "Point", "coordinates": [ -98.717653880487461, 20.11214176068767 ] } },
{ "type": "Feature", "properties": { "ID_OBRA": "874_Pachuca de Soto", "No.": 874.0, "Municipio": "Pachuca de Soto", "Rubro": "Vialidades Urbanas", "Ejercicio": 2024.0, "Obra": "Reconstrucción en calle Nicolás Flores, colonia centro, Pachuca de Soto", "Localidad": "Pachuca de Soto", "Inversión": 923928.4, "Habitantes.beneficiados": null, "Ejecutora": "DGIVC", "Trabajos": "Considera los trabajos de preliminares, piso para pavimento.", "Geometria_tipo": "Punto", "extract": 0.69911781428996111 }, "geometry": { "type": "Point", "coordinates": [ -98.734982782874937, 20.126780654451462 ] } },
{ "type": "Feature", "properties": { "ID_OBRA": "875_Pachuca de Soto", "No.": 875.0, "Municipio": "Pachuca de Soto", "Rubro": "Vialidades Urbanas", "Ejercicio": 2024.0, "Obra": "Reconstrucción de pavimento asfáltico en calle Campo de Tiro, municipio de Pachuca de Soto", "Localidad": "Pachuca de Soto", "Inversión": 6555667.43, "Habitantes.beneficiados": null, "Ejecutora": "DGIVC", "Trabajos": "Considera los trabajos de la operación de escarificación, disgregado, construcción de base hidráulica, suministro y aplicación de riego de liga con emulsión asfáltica.", "Geometria_tipo": "Punto", "extract": 0.62370837081980512 }, "geometry": { "type": "Point", "coordinates": [ -98.743771701917538, 20.099539553465078 ] } },
{ "type": "Feature", "properties": { "ID_OBRA": "898_Pachuca de Soto", "No.": 898.0, "Municipio": "Pachuca de Soto", "Rubro": "Vialidades Urbanas", "Ejercicio": 2025.0, "Obra": "Reconstrucción de pavimento asfáltico calle Parque Hidalgo, municipio de Pachuca de Soto", "Localidad": "Pachuca de Soto", "Inversión": 282029.35, "Habitantes.beneficiados": null, "Ejecutora": "DGCCE", "Trabajos": "Se realizará la obra contemplando las siguientes partidas: preliminares, carpeta asfáltica, señalamiento horizontal.", "Geometria_tipo": "Punto", "extract": 0.68628880771607148 }, "geometry": { "type": "Point", "coordinates": [ -98.732451352408859, 20.118851831441106 ] } },
{ "type": "Feature", "properties": { "ID_OBRA": "913_Pachuca de Soto", "No.": 913.0, "Municipio": "Pachuca de Soto", "Rubro": "Vialidades Urbanas", "Ejercicio": 2023.0, "Obra": "Reconstrucción de pavimentación calle 18 de Julio, San Pedro Nopancalco, Pachuca de Soto; en el municipio de Pachuca de Soto", "Localidad": "San Pedro (El Cigarro)", "Inversión": 4840263.41, "Habitantes.beneficiados": 297848.0, "Ejecutora": "DGCCE", "Trabajos": "Considera los trabajos de la operación de escarificación, disgregado, construcción de base hidráulica, suministro y aplicación de riego de liga con emulsión asfáltica.", "Geometria_tipo": "Punto", "extract": 0.6676848803413703 }, "geometry": { "type": "Point", "coordinates": [ -98.717704444700303, 20.138275833296888 ] } },
{ "type": "Feature", "properties": { "ID_OBRA": "914_Pachuca de Soto", "No.": 914.0, "Municipio": "Pachuca de Soto", "Rubro": "Vialidades Urbanas", "Ejercicio": 2024.0, "Obra": "Rehabilitación de Calle Flor de Alhelí en la localidad de Santa Gertrudis, en el municipio de Pachuca de Soto", "Localidad": "Santa Gertrudis", "Inversión": 10262895.56, "Habitantes.beneficiados": 776.0, "Ejecutora": "DGOPI", "Trabajos": "Considera los trabajos de preliminares, piso para pavimento.", "Geometria_tipo": "Punto", "extract": 0.39735795606923285 }, "geometry": { "type": "Point", "coordinates": [ -98.806660486375293, 20.085541851298245 ] } },
{ "type": "Feature", "properties": { "ID_OBRA": "919_Pachuca de Soto", "No.": 919.0, "Municipio": "Pachuca de Soto", "Rubro": "Vialidades Urbanas", "Ejercicio": 2023.0, "Obra": "Reconstrucción de pavimento en calle Francisco Villa, colonia Felipe Ángeles, Pachuca, Hgo.", "Localidad": "Varias", "Inversión": 1972801.0, "Habitantes.beneficiados": null, "Ejecutora": "DGCCE", "Trabajos": "Considera los trabajos de demolición por medios mecánicos de concreto simple, barrido de la superficie por tratar, piso para pavimento de concreto hidráulico.", "Geometria_tipo": "Punto", "extract": 0.65145333968581909 }, "geometry": { "type": "Point", "coordinates": [ -98.726053, 20.106534 ] } },
{ "type": "Feature", "properties": { "ID_OBRA": "922_Pachuca de Soto", "No.": 922.0, "Municipio": "Pachuca de Soto", "Rubro": "Vialidades Urbanas", "Ejercicio": 2024.0, "Obra": "Reconstrucción asfáltica de Circuito Calle 14 y Calle 15, en la Col. Piracantos, Tercera Sección, en el municipio de Pachuca de Soto", "Localidad": "Varias", "Inversión": 2898856.44, "Habitantes.beneficiados": null, "Ejecutora": "DGCCE", "Trabajos": "Se realizan los siguientes trabajos: trazo y nivelación de plazas, suministro y aplicación de carpeta asfáltica compactado.", "Geometria_tipo": "Punto", "extract": 0.5250711699292534 }, "geometry": { "type": "Point", "coordinates": [ -98.777782, 20.123433 ] } },
{ "type": "Feature", "properties": { "ID_OBRA": "924_Pachuca de Soto", "No.": 924.0, "Municipio": "Pachuca de Soto", "Rubro": "Vialidades Urbanas", "Ejercicio": 2024.0, "Obra": "Rehabilitación asfáltica Cto. México, en el Fraccionamiento Geovillas, municipio de Pachuca de Soto", "Localidad": "Varias", "Inversión": 2378611.61, "Habitantes.beneficiados": null, "Ejecutora": "DGCCE", "Trabajos": "Se realizan los siguientes trabajos: trazo y nivelación de plazas, suministro y aplicación de carpeta asfáltica compactado,  en el municipio de Pachuca de Soto", "Geometria_tipo": "Punto", "extract": 0.57944065606697459 }, "geometry": { "type": "Point", "coordinates": [ -98.778399, 20.059365 ] } },
{ "type": "Feature", "properties": { "ID_OBRA": "927_Pachuca de Soto", "No.": 927.0, "Municipio": "Pachuca de Soto", "Rubro": "Infraestructura Carretera", "Ejercicio": 2025.0, "Obra": "Reconstrucción del Boulevard Las Torres Cuerpo Izquierdo a base de concreto hidraulico, tramo del km 0+000 al km 6+490.", "Localidad": "Varias", "Inversión": 289591643.94, "Habitantes.beneficiados": null, "Ejecutora": "SIP", "Trabajos": "Considera trabajos para la reconstrucción y/o conservación de Infraestructura Carretera en la localidad de Varias municipio de Pachuca de Soto", "Geometria_tipo": "Punto", "extract": 0.57663072231303925 }, "geometry": { "type": "Point", "coordinates": [ -98.792636, 20.039565 ] } },
{ "type": "Feature", "properties": { "ID_OBRA": "939_Pacula", "No.": 939.0, "Municipio": "Pacula", "Rubro": "Infraestructura Carretera", "Ejercicio": 2024.0, "Obra": "Rehabilitación de pavimento en carretera principal de Pacula a la Estancia en tramos de las comunidades del Puerto Jilialpan a la Mohonera, municipio de Pacula.", "Localidad": "Varias", "Inversión": 7105879.16, "Habitantes.beneficiados": null, "Ejecutora": "DGIVC", "Trabajos": "Considera trabajos para la reconstrucción y/o conservación de Infraestructura Carretera en la localidad de Varias municipio de Pacula", "Geometria_tipo": "Punto", "extract": -0.058817510869585143 }, "geometry": { "type": "Point", "coordinates": [ -99.336774, 20.968669 ] } },
{ "type": "Feature", "properties": { "ID_OBRA": "999_San Agustín Tlaxiaca", "No.": 999.0, "Municipio": "San Agustín Tlaxiaca", "Rubro": "Vialidades Urbanas", "Ejercicio": 2025.0, "Obra": "Reconstrucción de pavimentación asfáltica de Av. Principal de acceso a la comunidad de Tornacuxtla, en el municipio de San Agustín Tlaxiaca", "Localidad": "Tornacuxtla", "Inversión": 27413944.24, "Habitantes.beneficiados": null, "Ejecutora": "DGIVC", "Trabajos": null, "Geometria_tipo": "Punto", "extract": 0.19016844786129206 }, "geometry": { "type": "Point", "coordinates": [ -98.872409, 20.149868 ] } },
{ "type": "Feature", "properties": { "ID_OBRA": "108_Atotonilco de Tula", "No.": 108.0, "Municipio": "Atotonilco de Tula", "Rubro": "Infraestructura Carretera", "Ejercicio": 2024.0, "Obra": "Reconstrucción de C.E. Atotonilco de Tula - El Cardonal, municipio de Atotonilco de Tula", "Localidad": "Atotonilco de Tula", "Inversión": 7984064.96, "Habitantes.beneficiados": 8822.0, "Ejecutora": "DGOPI", "Trabajos": "Considera trabajos para la reconstrucción y/o conservación de Infraestructura Carretera en la localidad de Atotonilco de Tula municipio de Atotonilco de Tula", "Geometria_tipo": "Punto", "extract": 0.15827407544181915 }, "geometry": { "type": "Point", "coordinates": [ -99.205700562877567, 20.033073534575266 ] } },
{ "type": "Feature", "properties": { "ID_OBRA": "1203_Tianguistengo", "No.": 1203.0, "Municipio": "Tianguistengo", "Rubro": "Infraestructura Carretera", "Ejercicio": 2025.0, "Obra": "Modernización del camino tramo Tianguistengo - Chinameca, en el municipio de Tianguistengo", "Localidad": "Tianguistengo", "Inversión": 16962781.71, "Habitantes.beneficiados": null, "Ejecutora": "SIPDUS", "Trabajos": null, "Geometria_tipo": "Punto", "extract": 0.26184131979534109 }, "geometry": { "type": "Point", "coordinates": [ -98.651106692521012, 20.752448680505555 ] } },
{ "type": "Feature", "properties": { "ID_OBRA": "121_Calnali", "No.": 121.0, "Municipio": "Calnali", "Rubro": "Infraestructura Carretera", "Ejercicio": 2024.0, "Obra": "Reconstrucción de la C.E. Calnali a Papatlatla, Paso por Calnali, en el municipio de Calnali", "Localidad": "Calnali", "Inversión": 3587098.19, "Habitantes.beneficiados": 4235.0, "Ejecutora": "DGIVC", "Trabajos": "Considera trabajos para la reconstrucción y/o conservación de Infraestructura Carretera en la localidad de Calnali municipio de Calnali", "Geometria_tipo": "Punto", "extract": 0.42944798806668943 }, "geometry": { "type": "Point", "coordinates": [ -98.586683933158284, 20.893323522799857 ] } },
{ "type": "Feature", "properties": { "ID_OBRA": "1242_Tlanchinol", "No.": 1242.0, "Municipio": "Tlanchinol", "Rubro": "Infraestructura Carretera", "Ejercicio": 2023.0, "Obra": "Ampliación de camino rural en Tlanchinol, localidad Jalpa.", "Localidad": "Jalpa", "Inversión": 2821969.05, "Habitantes.beneficiados": 1156.0, "Ejecutora": "DGCCE", "Trabajos": "Consiste en el mejoramiento de camino rural de sacacosechas, de excavaciones en corte.", "Geometria_tipo": "Punto", "extract": 0.54844163460447171 }, "geometry": { "type": "Point", "coordinates": [ -98.713227780977846, 21.110491872033357 ] } },
{ "type": "Feature", "properties": { "ID_OBRA": "1243_Tlanchinol", "No.": 1243.0, "Municipio": "Tlanchinol", "Rubro": "Infraestructura Carretera", "Ejercicio": 2023.0, "Obra": "Rehabilitación del tramo E.C. (Xuchitlan) - Jalpa, del Km 0+000 al Km 6+000; en el municipio de Tlanchinol.", "Localidad": "Jalpa", "Inversión": 5254434.39, "Habitantes.beneficiados": null, "Ejecutora": "DGIVC", "Trabajos": "Se consideran trabajos de revestimiento, cunetas y limpieza de cunetas.", "Geometria_tipo": "Punto", "extract": 0.27195669598386735 }, "geometry": { "type": "Point", "coordinates": [ -98.743433848002923, 21.065679081735503 ] } },
{ "type": "Feature", "properties": { "ID_OBRA": "1252_Tlanchinol", "No.": 1252.0, "Municipio": "Tlanchinol", "Rubro": "Infraestructura Carretera", "Ejercicio": 2024.0, "Obra": "Rehabilitación de la C.E.(E.C. Pachuca-Tempoal) - Santa María, municipio de Tlanchinol", "Localidad": "Santa María Catzotipan (Santa María Tepetzintla)", "Inversión": 6918273.11, "Habitantes.beneficiados": 2552.0, "Ejecutora": "DGIVC", "Trabajos": "Considera trabajos para la reconstrucción y/o conservación de Infraestructura Carretera en la localidad de Santa María Catzotipan (Santa María Tepetzintla) municipio de Tlanchinol", "Geometria_tipo": "Punto", "extract": 0.40820326570496701 }, "geometry": { "type": "Point", "coordinates": [ -98.5847579774331, 21.048279262412521 ] } },
{ "type": "Feature", "properties": { "ID_OBRA": "1301_Tulancingo de Bravo", "No.": 1301.0, "Municipio": "Tulancingo de Bravo", "Rubro": "Infraestructura Carretera", "Ejercicio": 2024.0, "Obra": "Reubicación de línea media tensión crucero Tulancingo - Jaltepec y obras adicionales, en el municipio de Tulancingo de Bravo.", "Localidad": "Tulancingo", "Inversión": 24405887.4, "Habitantes.beneficiados": null, "Ejecutora": "DGIVC", "Trabajos": "Considera los trabajos de base hidráulica, terracerías, obra electromecánica, piso de concreto hidráulico.", "Geometria_tipo": "Punto", "extract": 0.45311086594325711 }, "geometry": { "type": "Point", "coordinates": [ -98.379559749163292, 20.088306623539655 ] } },
{ "type": "Feature", "properties": { "ID_OBRA": "132_Cardonal", "No.": 132.0, "Municipio": "Cardonal", "Rubro": "Infraestructura Carretera", "Ejercicio": 2025.0, "Obra": "Rehabilitación de la carretera Cardonal - Cerro Colorado, municipio de Cardonal", "Localidad": "Cardonal", "Inversión": 13410378.14, "Habitantes.beneficiados": null, "Ejecutora": "SIPDUS", "Trabajos": null, "Geometria_tipo": "Punto", "extract": -0.31199815195639174 }, "geometry": { "type": "Point", "coordinates": [ -99.126606342432453, 20.619680298810888 ] } },
{ "type": "Feature", "properties": { "ID_OBRA": "1362_Xochiatipan", "No.": 1362.0, "Municipio": "Xochiatipan", "Rubro": "Infraestructura Carretera", "Ejercicio": 2023.0, "Obra": "Rehabilitación del acceso a Chiapa, del Km 0+000 al Km 2+000; en el municipio de Xochiatipan.", "Localidad": "Chiapa", "Inversión": 1599695.24, "Habitantes.beneficiados": 523.0, "Ejecutora": "DGCCE", "Trabajos": "Se consideran trabajos de revestimiento, cunetas y limpieza de cunetas.", "Geometria_tipo": "Punto", "extract": 0.41701561196366743 }, "geometry": { "type": "Point", "coordinates": [ -98.309331949935668, 20.881749860900957 ] } },
{ "type": "Feature", "properties": { "ID_OBRA": "1364_Xochiatipan", "No.": 1364.0, "Municipio": "Xochiatipan", "Rubro": "Infraestructura Carretera", "Ejercicio": 2023.0, "Obra": "Modernización del camino Ohuatipa - Texoloc, tramo: del Km. 4+760 al KM. 5+760; en el municipio de Xochiatipan", "Localidad": "Ohuatipa", "Inversión": 9123736.96, "Habitantes.beneficiados": 2130.0, "Ejecutora": "DGCCE", "Trabajos": "Considera los trabajos de modernización del camino en la localidad de Ohuatipa municipio de Xochiatipan.", "Geometria_tipo": "Punto", "extract": 0.11432748232799625 }, "geometry": { "type": "Point", "coordinates": [ -98.268129354904474, 20.901085528798856 ] } },
{ "type": "Feature", "properties": { "ID_OBRA": "1366_Xochiatipan", "No.": 1366.0, "Municipio": "Xochiatipan", "Rubro": "Infraestructura Carretera", "Ejercicio": 2024.0, "Obra": "Modernización del Camino Ohuatipa - Texoloc, tramo: 5+760 Km al 6+635.00 Km, en el municipio de Xochiatipan.", "Localidad": "Ohuatipa", "Inversión": 11803997.53, "Habitantes.beneficiados": null, "Ejecutora": "DGIVC", "Trabajos": "Considera los trabajos de modernización del camino en la localidad de Ohuatipa municipio de Xochiatipan.", "Geometria_tipo": "Punto", "extract": 0.16609815197874256 }, "geometry": { "type": "Point", "coordinates": [ -98.266521524794726, 20.897563943186597 ] } },
{ "type": "Feature", "properties": { "ID_OBRA": "1371_Xochiatipan", "No.": 1371.0, "Municipio": "Xochiatipan", "Rubro": "Infraestructura Carretera", "Ejercicio": 2024.0, "Obra": "Reconstrucción de puente vehicular acceso a Tenexhueyac, municipio de Xochiatipan", "Localidad": "Tenexhueyac", "Inversión": 6261452.58, "Habitantes.beneficiados": 433.0, "Ejecutora": "DGCCE", "Trabajos": "Considera trabajos para la reconstrucción y/o conservación de Infraestructura Carretera en la localidad de Tenexhueyac municipio de Xochiatipan", "Geometria_tipo": "Punto", "extract": 0.17532632541518048 }, "geometry": { "type": "Point", "coordinates": [ -98.275765062286823, 20.874744235307137 ] } },
{ "type": "Feature", "properties": { "ID_OBRA": "1375_Xochiatipan", "No.": 1375.0, "Municipio": "Xochiatipan", "Rubro": "Infraestructura Carretera", "Ejercicio": 2023.0, "Obra": "Reconstrucción de acceso principal al municipio de Xochiatipan.", "Localidad": "Xochiatipan", "Inversión": 9672101.56, "Habitantes.beneficiados": 1593.0, "Ejecutora": "DGCCE", "Trabajos": "Considera trabajos para la reconstrucción y/o conservación de Infraestructura Carretera en la localidad de Xochiatipan municipio de Xochiatipan", "Geometria_tipo": "Punto", "extract": 0.36678659408810788 }, "geometry": { "type": "Point", "coordinates": [ -98.283618027412359, 20.834398671363754 ] } },
{ "type": "Feature", "properties": { "ID_OBRA": "1389_Yahualica", "No.": 1389.0, "Municipio": "Yahualica", "Rubro": "Infraestructura Carretera", "Ejercicio": 2023.0, "Obra": "Rehabilitación del tramo de acceso a Chompeletla, del Km 0+000 al Km 2+000", "Localidad": "Chompeletla", "Inversión": 1571102.55, "Habitantes.beneficiados": 286.0, "Ejecutora": "DGIVC", "Trabajos": "Se consideran trabajos de revestimiento, cunetas y limpieza de cunetas.", "Geometria_tipo": "Punto", "extract": 0.44118896945960534 }, "geometry": { "type": "Point", "coordinates": [ -98.370522159773813, 20.893885584764185 ] } },
{ "type": "Feature", "properties": { "ID_OBRA": "1412_Zacualtipán de Ángeles", "No.": 1412.0, "Municipio": "Zacualtipán de Ángeles", "Rubro": "Infraestructura Carretera", "Ejercicio": 2023.0, "Obra": "Reconstrucción de la carretera ramal a Tlahuelompa, en el municipio de Zacualtipán.", "Localidad": "Tlahuelompa (San Francisco Tlahuelompa)", "Inversión": 25628511.13, "Habitantes.beneficiados": 3025.0, "Ejecutora": "DGCCE", "Trabajos": "Considera trabajos para la reconstrucción y/o conservación de Infraestructura Carretera en la localidad de Tlahuelompa (San Francisco Tlahuelompa) municipio de Zacualtipán de Ángeles", "Geometria_tipo": "Punto", "extract": 0.0022774177477779198 }, "geometry": { "type": "Point", "coordinates": [ -98.577260907137045, 20.638458857519119 ] } },
{ "type": "Feature", "properties": { "ID_OBRA": "197_Chilcuautla", "No.": 197.0, "Municipio": "Chilcuautla", "Rubro": "Infraestructura Carretera", "Ejercicio": 2022.0, "Obra": "Re-encarpetamiento Cocineras - Mejay E.C. Progreso - El Tephé", "Localidad": "Santa Ana Batha", "Inversión": 996904.79, "Habitantes.beneficiados": null, "Ejecutora": "DGIVC", "Trabajos": "Considera trabajos para la reconstrucción y/o conservación de Infraestructura Carretera en la localidad de Santa Ana Batha municipio de Chilcuautla", "Geometria_tipo": "Punto", "extract": 0.094454521401147143 }, "geometry": { "type": "Point", "coordinates": [ -99.200611177083175, 20.379805601663158 ] } },
{ "type": "Feature", "properties": { "ID_OBRA": "260_Emiliano Zapata", "No.": 260.0, "Municipio": "Emiliano Zapata", "Rubro": "Infraestructura Carretera", "Ejercicio": 2023.0, "Obra": "Reconstrucción de la C.E. Apan - Emiliano Zapata; en el municipio de Emiliano Zapata", "Localidad": "Emiliano Zapata", "Inversión": 60820004.2, "Habitantes.beneficiados": null, "Ejecutora": "DGIVC", "Trabajos": "Considera trabajos para la reconstrucción y/o conservación de Infraestructura Carretera en la localidad de Emiliano Zapata municipio de Emiliano Zapata", "Geometria_tipo": "Punto", "extract": 0.10566883452888007 }, "geometry": { "type": "Point", "coordinates": [ -98.534891180543312, 19.639096931594143 ] } },
{ "type": "Feature", "properties": { "ID_OBRA": "263_Emiliano Zapata", "No.": 263.0, "Municipio": "Emiliano Zapata", "Rubro": "Infraestructura Carretera", "Ejercicio": 2025.0, "Obra": "Reconstrucción del acceso principal a la cabecera (Cuerpo derecho) entronque con carretera Apan - Calpulalpan, en el municipio de Emiliano Zapata", "Localidad": "Emiliano Zapata", "Inversión": 20680896.27, "Habitantes.beneficiados": null, "Ejecutora": "SIPDUS", "Trabajos": null, "Geometria_tipo": "Punto", "extract": 0.29643922836074577 }, "geometry": { "type": "Point", "coordinates": [ -98.542114581663924, 19.647306635089262 ] } },
{ "type": "Feature", "properties": { "ID_OBRA": "27_Actopan", "No.": 27.0, "Municipio": "Actopan", "Rubro": "Vialidades Urbanas", "Ejercicio": 2023.0, "Obra": "Rehabilitación del pavimento asfáltico de calle, en la localidad de Pozo Grande en el municipio de Actopan", "Localidad": "Actopan", "Inversión": 2911884.2, "Habitantes.beneficiados": null, "Ejecutora": "DGOPI", "Trabajos": "Se realizan los siguientes trabajos: trazo y nivelación de plazas, suministro y aplicación de carpeta asfáltica compactado.", "Geometria_tipo": "Punto", "extract": 0.37557100840387903 }, "geometry": { "type": "Point", "coordinates": [ -98.961840045331797, 20.269761384661198 ] } },
{ "type": "Feature", "properties": { "ID_OBRA": "291_Francisco I. Madero", "No.": 291.0, "Municipio": "Francisco I. Madero", "Rubro": "Infraestructura Carretera", "Ejercicio": 2023.0, "Obra": "Rehabilitación de acceso principal Tepatepec - San Juan Tepa; municipio de Francisco I. Madero", "Localidad": "San Juan Tepa", "Inversión": 18536227.01, "Habitantes.beneficiados": 11149.0, "Ejecutora": "DGIVC", "Trabajos": "Considera trabajos para la reconstrucción y/o conservación de Infraestructura Carretera en la localidad de San Juan Tepa municipio de Francisco I. Madero", "Geometria_tipo": "Punto", "extract": 0.31267175009322223 }, "geometry": { "type": "Point", "coordinates": [ -99.074523826313651, 20.219104929289148 ] } },
{ "type": "Feature", "properties": { "ID_OBRA": "298_Huasca de Ocampo", "No.": 298.0, "Municipio": "Huasca de Ocampo", "Rubro": "Infraestructura Carretera", "Ejercicio": 2024.0, "Obra": "Reconstrucción de la C.E. Huasca de Ocampo - Tulancingo", "Localidad": "Huasca de Ocampo", "Inversión": 29013982.09, "Habitantes.beneficiados": null, "Ejecutora": "DGCCE", "Trabajos": "Considera trabajos para la reconstrucción y/o conservación de Infraestructura Carretera en la localidad de Huasca de Ocampo municipio de Huasca de Ocampo", "Geometria_tipo": "Punto", "extract": -0.13882859024784089 }, "geometry": { "type": "Point", "coordinates": [ -98.516132557464061, 20.207100075351594 ] } },
{ "type": "Feature", "properties": { "ID_OBRA": "299_Huasca de Ocampo", "No.": 299.0, "Municipio": "Huasca de Ocampo", "Rubro": "Vialidades Urbanas", "Ejercicio": 2024.0, "Obra": "Reconstrucción de empedrados de calles principales del centro de Huasca y construcción de pasos peatonales", "Localidad": "Huasca de Ocampo", "Inversión": 1046160.69, "Habitantes.beneficiados": 417.0, "Ejecutora": "DGCCE", "Trabajos": "Considera los trabajos de preliminares, piso para pavimento de concreto hidráulico.", "Geometria_tipo": "Punto", "extract": 0.45706185221786 }, "geometry": { "type": "Point", "coordinates": [ -98.576048074188407, 20.203054678605199 ] } },
{ "type": "Feature", "properties": { "ID_OBRA": "307_Huautla", "No.": 307.0, "Municipio": "Huautla", "Rubro": "Infraestructura Carretera", "Ejercicio": 2024.0, "Obra": "Reconstrucción de la C.E. (E.C.F. Álamo - Huejutla) - Acatepec, municipio de Huautla", "Localidad": "Acatepec", "Inversión": 9872640.9, "Habitantes.beneficiados": 1078.0, "Ejecutora": "DGCCE", "Trabajos": "Considera trabajos para la reconstrucción y/o conservación de Infraestructura Carretera en la localidad de Acatepec municipio de Huautla", "Geometria_tipo": "Punto", "extract": -0.11005008423982789 }, "geometry": { "type": "Point", "coordinates": [ -98.275806888604492, 20.940141226220401 ] } },
{ "type": "Feature", "properties": { "ID_OBRA": "310_Huautla", "No.": 310.0, "Municipio": "Huautla", "Rubro": "Infraestructura Carretera", "Ejercicio": 2023.0, "Obra": "Modernización del C.R. El Ixtle - Los Cerezos; en el municipio de Huahutla.", "Localidad": "El Ixtle", "Inversión": 9678128.38, "Habitantes.beneficiados": null, "Ejecutora": "DGCCE", "Trabajos": "Considera los trabajos de modernización del camino en la localidad de El Ixtle municipio de Huautla", "Geometria_tipo": "Punto", "extract": -0.031587511830202399 }, "geometry": { "type": "Point", "coordinates": [ -98.160526196714144, 21.051302815089937 ] } },
{ "type": "Feature", "properties": { "ID_OBRA": "311_Huautla", "No.": 311.0, "Municipio": "Huautla", "Rubro": "Vialidades Urbanas", "Ejercicio": 2023.0, "Obra": "Rehabilitación de puente en la comunidad de El Ixtle Huautla.", "Localidad": "El Ixtle", "Inversión": 716219.82, "Habitantes.beneficiados": 411.0, "Ejecutora": "DGCCE", "Trabajos": "Considera trabajos en la rehabilitación y/o mejoramiento de las vialidades urbanas en la localidad de El Ixtle muncipio de Huautla", "Geometria_tipo": "Punto", "extract": -0.014904034178064532 }, "geometry": { "type": "Point", "coordinates": [ -98.159523876811804, 21.049728023119105 ] } },
{ "type": "Feature", "properties": { "ID_OBRA": "312_Huautla", "No.": 312.0, "Municipio": "Huautla", "Rubro": "Infraestructura Carretera", "Ejercicio": 2024.0, "Obra": "Modernización de C.R. El Ixtle - El Aguacate, en el municipio de Huautla", "Localidad": "El Ixtle", "Inversión": 10010323.51, "Habitantes.beneficiados": 411.0, "Ejecutora": "SIP", "Trabajos": "Considera los trabajos de Pavimento de Concreto&#10;Hidráulico, Cunetas.", "Geometria_tipo": "Punto", "extract": -0.017813681921468288 }, "geometry": { "type": "Point", "coordinates": [ -98.165635910101358, 21.042826159746319 ] } },
{ "type": "Feature", "properties": { "ID_OBRA": "316_Huautla", "No.": 316.0, "Municipio": "Huautla", "Rubro": "Infraestructura Carretera", "Ejercicio": 2023.0, "Obra": "Rehabilitación del tramo: Pepeyoca de Cabrera-Ahuatitla, del km 0+000 al km 3+500", "Localidad": "Pepeyoca de Cabrera", "Inversión": 2420505.49, "Habitantes.beneficiados": 140.0, "Ejecutora": "DGCCE", "Trabajos": "Se consideran trabajos de revestimiento, cunetas y limpieza de cunetas.", "Geometria_tipo": "Punto", "extract": 0.0 }, "geometry": { "type": "Point", "coordinates": [ -98.217635121060454, 20.972555222950788 ] } },
{ "type": "Feature", "properties": { "ID_OBRA": "319_Huautla", "No.": 319.0, "Municipio": "Huautla", "Rubro": "Infraestructura Carretera", "Ejercicio": 2023.0, "Obra": "Rehabilitación del tramo Tecoluco Calpan-Metlatepec, del km 0+000 al km 1+500; en el municipio de Huautla", "Localidad": "Tecoluco Calpan", "Inversión": 1087908.62, "Habitantes.beneficiados": 414.0, "Ejecutora": "DGCCE", "Trabajos": "Se consideran trabajos de revestimiento, cunetas y limpieza de cunetas.", "Geometria_tipo": "Punto", "extract": 0.26140758006721165 }, "geometry": { "type": "Point", "coordinates": [ -98.24457975520825, 21.119432502651321 ] } },
{ "type": "Feature", "properties": { "ID_OBRA": "320_Huautla", "No.": 320.0, "Municipio": "Huautla", "Rubro": "Infraestructura Carretera", "Ejercicio": 2023.0, "Obra": "Rehabilitación del Tramo: E.C. Huautla - Chalingo - Tzacuala - Tohuaco I, del km 0+000 al km 5+500 en el municipio de Huautla", "Localidad": "Tohuaco I", "Inversión": 3872813.43, "Habitantes.beneficiados": 181.0, "Ejecutora": "DGCCE", "Trabajos": "Se consideran trabajos de revestimiento, cunetas y limpieza de cunetas.", "Geometria_tipo": "Punto", "extract": 0.21361376463345311 }, "geometry": { "type": "Point", "coordinates": [ -98.266257561241943, 21.09338954427891 ] } },
{ "type": "Feature", "properties": { "ID_OBRA": "333_Huazalingo", "No.": 333.0, "Municipio": "Huazalingo", "Rubro": "Infraestructura Carretera", "Ejercicio": 2024.0, "Obra": "Rehabilitación de la C.E. Ramal a Tlamamala, municipio de Huazalingo", "Localidad": "Tlamamala", "Inversión": 5794367.97, "Habitantes.beneficiados": 722.0, "Ejecutora": "DGOPI", "Trabajos": "Considera trabajos para la reconstrucción y/o conservación de Infraestructura Carretera en la localidad de Tlamamala municipio de Huazalingo", "Geometria_tipo": "Punto", "extract": 0.30977193553703303 }, "geometry": { "type": "Point", "coordinates": [ -98.540155809560844, 20.969962849883871 ] } },
{ "type": "Feature", "properties": { "ID_OBRA": "343_Huehuetla", "No.": 343.0, "Municipio": "Huehuetla", "Rubro": "Infraestructura Carretera", "Ejercicio": 2024.0, "Obra": "Rehabilitación de puente vehicular Mirasol, en el municipio de Huehuetla.", "Localidad": "Linda Vista I (Mirasol)", "Inversión": 38720095.0, "Habitantes.beneficiados": 2993.0, "Ejecutora": "DGCCE", "Trabajos": "Considera trabajos para la reconstrucción y/o conservación de Infraestructura Carretera en la localidad de Linda Vista I (Mirasol) municipio de Huehuetla", "Geometria_tipo": "Punto", "extract": 0.99932740532193942 }, "geometry": { "type": "Point", "coordinates": [ -98.073429210999961, 20.461193162000022 ] } },
{ "type": "Feature", "properties": { "ID_OBRA": "374_Huejutla de Reyes", "No.": 374.0, "Municipio": "Huejutla de Reyes", "Rubro": "Infraestructura Carretera", "Ejercicio": 2024.0, "Obra": "Reconstrucción de superficie de rodamiento del puente El Aguacate, municipio de Huejutla de Reyes", "Localidad": "Los Parajes", "Inversión": 3369621.53, "Habitantes.beneficiados": 413.0, "Ejecutora": "DGCCE", "Trabajos": "Considera trabajos para la reconstrucción y/o conservación de Infraestructura Carretera en la localidad de Los Parajes municipio de Huejutla de Reyes", "Geometria_tipo": "Punto", "extract": 0.13789278487973719 }, "geometry": { "type": "Point", "coordinates": [ -98.293190646664328, 21.176611139854618 ] } },
{ "type": "Feature", "properties": { "ID_OBRA": "375_Huejutla de Reyes", "No.": 375.0, "Municipio": "Huejutla de Reyes", "Rubro": "Infraestructura Carretera", "Ejercicio": 2023.0, "Obra": "Modernización del camino rural los Parajes - Chalahuiyapa; en el municipio de Huejutla de Reyes.", "Localidad": "Los Parajes Benito Juárez", "Inversión": 9757411.25, "Habitantes.beneficiados": 11084.0, "Ejecutora": "DGCCE", "Trabajos": "La obra contempla las siguientes partidas: terracerías, estabilización de sub-rasante, pavimentación hidráulica, zampeado de cunetas, obras de drenaje y señalamiento.", "Geometria_tipo": "Punto", "extract": 0.0 }, "geometry": { "type": "Point", "coordinates": [ -98.440761311489979, 21.175622372071771 ] } },
{ "type": "Feature", "properties": { "ID_OBRA": "381_Huejutla de Reyes", "No.": 381.0, "Municipio": "Huejutla de Reyes", "Rubro": "Infraestructura Carretera", "Ejercicio": 2024.0, "Obra": "Reconstrucción de muro de contención en la C.E. Huejutla - Macuxtepetla, municipio de Huejutla de Reyes", "Localidad": "Tepexititla", "Inversión": 3748852.67, "Habitantes.beneficiados": 1203.0, "Ejecutora": "DGCCE", "Trabajos": "Considera en los trabajos la construcción de muros de contención en la Localidad de Tepexititla.", "Geometria_tipo": "Punto", "extract": 0.33015633445854048 }, "geometry": { "type": "Point", "coordinates": [ -98.485169374999941, 21.124771833000075 ] } },
{ "type": "Feature", "properties": { "ID_OBRA": "384_Huejutla de Reyes", "No.": 384.0, "Municipio": "Huejutla de Reyes", "Rubro": "Infraestructura Carretera", "Ejercicio": 2023.0, "Obra": "Mejoramiento del camino entronque carretero (Pachuca - Huejutla) - Tlalnepanco, municipio de Huejutla de Reyes", "Localidad": "Tlalnepanco", "Inversión": 2924919.21, "Habitantes.beneficiados": 526.0, "Ejecutora": "DGCCE", "Trabajos": "Considera los trabajos preliminares y pavimento de concreto hidráulico", "Geometria_tipo": "Punto", "extract": 0.53879606390754242 }, "geometry": { "type": "Point", "coordinates": [ -98.526486398186407, 21.054509866548496 ] } },
{ "type": "Feature", "properties": { "ID_OBRA": "393_Huichapan", "No.": 393.0, "Municipio": "Huichapan", "Rubro": "Infraestructura Carretera", "Ejercicio": 2024.0, "Obra": "Reconstrucción de la C.E. E.C.F. 45 Portezuelo - Palmillas a Tecozautla, en el municipio de Huichapan", "Localidad": "Huichapan", "Inversión": 46599999.89, "Habitantes.beneficiados": 9853.0, "Ejecutora": "DGCCE", "Trabajos": "Considera trabajos para la reconstrucción y/o conservación de Infraestructura Carretera en la localidad de Portezuelo municipio de Huichapan", "Geometria_tipo": "Punto", "extract": -0.24996778198390901 }, "geometry": { "type": "Point", "coordinates": [ -99.625343987400257, 20.40309992558538 ] } },
{ "type": "Feature", "properties": { "ID_OBRA": "407_Ixmiquilpan", "No.": 407.0, "Municipio": "Ixmiquilpan", "Rubro": "Infraestructura Carretera", "Ejercicio": 2024.0, "Obra": "Rehabilitación de pavimentación asfáltica de Circuito Dios Padre, en el municipio de Ixmiquilpan.", "Localidad": "Dios Padre", "Inversión": 13684964.79, "Habitantes.beneficiados": 2321.0, "Ejecutora": "DGCCE", "Trabajos": "Considera los trabajos de capa subbase, riego de impregnación, suministro y aplicación de riego de liga con emulsión asfáltica", "Geometria_tipo": "Punto", "extract": 0.20530639221503663 }, "geometry": { "type": "Point", "coordinates": [ -99.193796293594062, 20.464700561442243 ] } },
{ "type": "Feature", "properties": { "ID_OBRA": "471_Jaltocán", "No.": 471.0, "Municipio": "Jaltocán", "Rubro": "Infraestructura Carretera", "Ejercicio": 2023.0, "Obra": "Modernización y ampliación de camino rural E.C. Huejutla - San Felipe Orizatlán, E.C. Pahuayo, en la localidad de Tzinancatitla", "Localidad": "Tzinancatitla", "Inversión": 6209211.97, "Habitantes.beneficiados": 222.0, "Ejecutora": "DGCCE", "Trabajos": "Considera los trabajos de modernización y ampliación del camino rural en la localidad de Tzinancatitla en el municipio de Jaltocán", "Geometria_tipo": "Punto", "extract": 0.48303339660197453 }, "geometry": { "type": "Point", "coordinates": [ -98.542819734799991, 21.174293545258049 ] } },
{ "type": "Feature", "properties": { "ID_OBRA": "499_Lolotla", "No.": 499.0, "Municipio": "Lolotla", "Rubro": "Infraestructura Carretera", "Ejercicio": 2024.0, "Obra": "Reconstrucción del C.R. Jalpa - La Florida, municipio de Lolotla", "Localidad": "La Florida", "Inversión": 11630860.91, "Habitantes.beneficiados": 95.0, "Ejecutora": "DGCCE", "Trabajos": "Considera los trabajos de preliminares, revestimiento de camino en la localidad de La Florida municipio de Lolotla", "Geometria_tipo": "Punto", "extract": 0.44012687469378808 }, "geometry": { "type": "Point", "coordinates": [ -98.733164111325749, 21.108075814144375 ] } },
{ "type": "Feature", "properties": { "ID_OBRA": "509_Metepec", "No.": 509.0, "Municipio": "Metepec", "Rubro": "Vialidades Urbanas", "Ejercicio": 2023.0, "Obra": "Rehabilitación de guarniciones y banquetas en Estación de Apulco tramo: acceso Estación de Apulco - CBTA 126, municipio de Metepec", "Localidad": "Estación de Apulco", "Inversión": 6287131.84, "Habitantes.beneficiados": 1476.0, "Ejecutora": "DGOPI", "Trabajos": "Considera trabajos en la rehabilitación y/o mejoramiento de las vialidades urbanas en la localidad de Estación de Apulco muncipio de Metepec", "Geometria_tipo": "Punto", "extract": -0.046881294272991814 }, "geometry": { "type": "Point", "coordinates": [ -98.344083333333302, 20.292944444444494 ] } },
{ "type": "Feature", "properties": { "ID_OBRA": "513_Metepec", "No.": 513.0, "Municipio": "Metepec", "Rubro": "Vialidades Urbanas", "Ejercicio": 2023.0, "Obra": "Rehabilitación de guarniciones y banquetas en Ferrería en calle principal, Metepec", "Localidad": "Ferrería de Apulco", "Inversión": 2367751.56, "Habitantes.beneficiados": 723.0, "Ejecutora": "DGOPI", "Trabajos": "Considera los trabajos de preliminares, piso para pavimento de concreto hidráulico.", "Geometria_tipo": "Punto", "extract": 0.025023646479375695 }, "geometry": { "type": "Point", "coordinates": [ -98.343584510263796, 20.301213571821595 ] } },
{ "type": "Feature", "properties": { "ID_OBRA": "523_Metztitlán", "No.": 523.0, "Municipio": "Metztitlán", "Rubro": "Infraestructura Carretera", "Ejercicio": 2024.0, "Obra": "Rehabilitación de Puente Vado Tres Cruces sobre Río Venados (Río Grande) en el municipio de Metztitlán.", "Localidad": "Tres Cruces", "Inversión": 3958643.05, "Habitantes.beneficiados": 245.0, "Ejecutora": "DGIVC", "Trabajos": "Considera trabajos para la reconstrucción y/o conservación de Infraestructura Carretera en la localidad de Tres Cruces municipio de Metztitlán", "Geometria_tipo": "Punto", "extract": -0.25103620584803887 }, "geometry": { "type": "Point", "coordinates": [ -98.711705638120108, 20.515267679306746 ] } },
{ "type": "Feature", "properties": { "ID_OBRA": "591_Mineral del Chico", "No.": 591.0, "Municipio": "Mineral del Chico", "Rubro": "Infraestructura Carretera", "Ejercicio": 2024.0, "Obra": "Reconstrucción de pavimento asfáltico Pachuca - La Estanzuela - Las Milpas, en el municipio de Mineral del Chico", "Localidad": "La Estanzuela", "Inversión": 32334268.56, "Habitantes.beneficiados": 1680.0, "Ejecutora": "DGCCE", "Trabajos": "Considera los trabajos de la operación de escarificación, disgregado, construcción de base hidráulica, suministro y aplicación de riego de liga con emulsión asfáltica.", "Geometria_tipo": "Punto", "extract": 0.27141049084934155 }, "geometry": { "type": "Point", "coordinates": [ -98.753681467738971, 20.154712424163879 ] } },
{ "type": "Feature", "properties": { "ID_OBRA": "941_Pisaflores", "No.": 941.0, "Municipio": "Pisaflores", "Rubro": "Infraestructura Carretera", "Ejercicio": 2024.0, "Obra": "Rehabilitación del C.R. El Rayo - Bonigú, municipio de Pisaflores", "Localidad": "El Rayo", "Inversión": 2717147.22, "Habitantes.beneficiados": 967.0, "Ejecutora": "DGIVC", "Trabajos": "Considera los trabajos de preliminares, revestimiento de camino en la localidad de El Rayo municipio de Pisaflores", "Geometria_tipo": "Punto", "extract": 1.0246502355006921 }, "geometry": { "type": "Point", "coordinates": [ -99.000963702721407, 21.23332761512426 ] } },
{ "type": "Feature", "properties": { "ID_OBRA": "945_Pisaflores", "No.": 945.0, "Municipio": "Pisaflores", "Rubro": "Infraestructura Carretera", "Ejercicio": 2023.0, "Obra": "Modernización del camino El Rayo en el municipio de Pisaflores", "Localidad": "Pisaflores", "Inversión": 4311996.15, "Habitantes.beneficiados": 967.0, "Ejecutora": "DGOPI", "Trabajos": "Considera los trabajos de modernización del camino en la localidad de Pisaflores municipio de Pisaflores.", "Geometria_tipo": "Punto", "extract": 1.0459425661866142 }, "geometry": { "type": "Point", "coordinates": [ -99.019919771199554, 21.233597504074499 ] } }
]
}
