{
"type": "FeatureCollection",
"name": "obras_espacios_publicos_linea",
"crs": { "type": "name", "properties": { "name": "urn:ogc:def:crs:OGC:1.3:CRS84" } },
"features": [
{ "type": "Feature", "properties": { "ID_OBRA": "1278_Tula de Allende", "No.": 1278.0, "Municipio": "Tula de Allende", "Rubro": "Espacios Públicos", "Ejercicio": 2024.0, "Obra": "Mejoramiento y ampliación al CERESO Tula de Allende", "Localidad": "Tula de Allende", "Inversión": 12419825.48, "Habitantes.beneficiados": 29390.0, "Ejecutora": "DGOPI", "Trabajos": "Considera trabajos en infraestructura en Seguridad Pública en CERESO en el municipio de Tula de Allende.", "Geometria_tipo": "Línea" }, "geometry": { "type": "LineString", "coordinates": [ [ -99.362124730821137, 20.060809966142969 ], [ -99.362766206820865, 20.060012856486779 ], [ -99.36177269962937, 20.05910581566005 ], [ -99.361011033196647, 20.059868174580782 ] ] } },
{ "type": "Feature", "properties": { "ID_OBRA": "575_Mineral de la Reforma", "No.": 575.0, "Municipio": "Mineral de la Reforma", "Rubro": "Espacios Públicos", "Ejercicio": 2024.0, "Obra": "Construcción de bardeado perimetral del Instituto de Formación Profesional.", "Localidad": "San José Palma Gorda", "Inversión": 11910606.6, "Habitantes.beneficiados": null, "Ejecutora": "IFP", "Trabajos": "Considera trabajos en infraestructura en Seguridad Pública  del Instituto de Formación Profesional en la localidad de San José Palma Gorda el municipio de Mineral de la Reforma.", "Geometria_tipo": "Línea" }, "geometry": { "type": "LineString", "coordinates": [ [ -98.744748629420101, 20.033239301506502 ], [ -98.740111217418701, 20.0318737981368 ], [ -98.740654950054719, 20.029658513834601 ], [ -98.745904061271702, 20.031583995535598 ] ] } },
{ "type": "Feature", "properties": { "ID_OBRA": "692_Pachuca de Soto", "No.": 692.0, "Municipio": "Pachuca de Soto", "Rubro": "Espacios Públicos", "Ejercicio": 2023.0, "Obra": "Corredor Seguro de la Red Integrada de Transporte del Corredor Uno de la Zona Metropolitana de Pachuca", "Localidad": "Pachuca de Soto", "Inversión": 9678480.33, "Habitantes.beneficiados": null, "Ejecutora": "DGIVC", "Trabajos": "Considera trabajos en infraestructura eléctrica en la Red Integrada de Transporte del Corredor Uno en el municipio de Pachuca.", "Geometria_tipo": "Línea" }, "geometry": { "type": "LineString", "coordinates": [ [ -98.801816328028778, 20.031822559008539 ], [ -98.800924548688343, 20.032690524241609 ], [ -98.800385993510375, 20.03328896690272 ], [ -98.799017289366134, 20.034768937103511 ], [ -98.79746275393309, 20.036702478981681 ], [ -98.796445838407209, 20.038221582675948 ], [ -98.795336464917867, 20.039756999397252 ], [ -98.794362832776926, 20.04126054209684 ], [ -98.792445916095858, 20.044468091555991 ], [ -98.791325778317415, 20.046783569443551 ], [ -98.790113647441885, 20.048892473308769 ], [ -98.788894309079907, 20.051279202062691 ], [ -98.78666618313548, 20.05563221654733 ], [ -98.782865383205731, 20.062748238184209 ], [ -98.781293885945288, 20.06583018698716 ], [ -98.780158846365424, 20.06787952622421 ], [ -98.77709933071398, 20.073520699112301 ], [ -98.774532025987511, 20.078976078293461 ], [ -98.772224332467161, 20.083981168086758 ], [ -98.770732623031037, 20.08750646554104 ], [ -98.770652189265959, 20.089274517122991 ], [ -98.770745463039617, 20.090819226633489 ], [ -98.770349743445706, 20.09323592729913 ], [ -98.769818669648046, 20.09395658022898 ], [ -98.767038949357797, 20.09669376444554 ], [ -98.764688352594291, 20.099122702430559 ], [ -98.762311918338369, 20.10117038137189 ], [ -98.756762710896027, 20.10686534750603 ], [ -98.751822350342664, 20.111385751993499 ], [ -98.750398569513877, 20.11294158585925 ], [ -98.74839145005717, 20.114527042149199 ], [ -98.746903205998052, 20.115721603053089 ], [ -98.746537190769004, 20.116218387241691 ], [ -98.746314842192533, 20.1163384001559 ], [ -98.746045548782334, 20.11642786122702 ], [ -98.745709631141352, 20.116553143901399 ], [ -98.744485618416576, 20.117440214861709 ], [ -98.743428351799594, 20.118234018888842 ], [ -98.742592931476167, 20.118926443786439 ], [ -98.741715536365049, 20.119521875378801 ], [ -98.740765444731878, 20.120125324329429 ], [ -98.739856548854362, 20.12074871709379 ], [ -98.738903761480785, 20.121375209356131 ], [ -98.738151874261717, 20.12198242271284 ], [ -98.737657704842732, 20.12228430112123 ], [ -98.737273153677521, 20.122639456473031 ], [ -98.73676360622575, 20.122942350460399 ], [ -98.736492462288339, 20.123395009632699 ], [ -98.735901919771834, 20.12340206445166 ], [ -98.735088607617811, 20.123246036637742 ], [ -98.734800261964523, 20.123232717743999 ], [ -98.734621884669579, 20.12340895529973 ], [ -98.73395483864293, 20.124000230465981 ], [ -98.733323296433639, 20.12438223600234 ], [ -98.733112636618628, 20.124668851579191 ], [ -98.733069901775579, 20.12524496772437 ], [ -98.73302814278064, 20.125717880261661 ], [ -98.733036625537324, 20.126058323220381 ], [ -98.732604364151953, 20.126859524621612 ], [ -98.732239100792015, 20.127456804021051 ], [ -98.731998533503912, 20.12786646692615 ], [ -98.731904908142582, 20.128096917210939 ], [ -98.731822552868408, 20.12842611770526 ], [ -98.731372748628885, 20.12925954133172 ], [ -98.731206357244361, 20.1295687826643 ], [ -98.730955353589849, 20.129613543372841 ], [ -98.730832648577888, 20.129392355376091 ], [ -98.730997895662924, 20.128773483823132 ], [ -98.731271950587669, 20.12794862923349 ], [ -98.731489007496634, 20.12727837645178 ], [ -98.731703885886617, 20.126702151293461 ], [ -98.73192467010027, 20.126102358946131 ], [ -98.732147834861451, 20.125669813666981 ], [ -98.732441254786636, 20.125315996183819 ], [ -98.73288953404419, 20.124871104669399 ], [ -98.733037645428666, 20.12463842451762 ], [ -98.733063236554727, 20.12376924459295 ], [ -98.732977223757445, 20.123009444656081 ], [ -98.732976059217236, 20.122552207287288 ], [ -98.733053028716299, 20.122424078699652 ], [ -98.733282807182377, 20.12233416082373 ], [ -98.733806055651584, 20.122197277044279 ], [ -98.734486802660882, 20.12196710665593 ], [ -98.735139173764068, 20.121534140025592 ], [ -98.73588079002856, 20.120954266888869 ], [ -98.735937184007128, 20.12068672854679 ], [ -98.736205911685644, 20.12068848612757 ], [ -98.736579284587663, 20.12049893909688 ], [ -98.737618225792289, 20.119754418845609 ], [ -98.738382524120425, 20.119221285712818 ], [ -98.73877685078935, 20.118816440544851 ], [ -98.739254538991958, 20.118473873267089 ], [ -98.739680282320506, 20.11821178404244 ], [ -98.741866218121388, 20.116694658124349 ], [ -98.743198183595922, 20.11581218745426 ], [ -98.74387419751028, 20.115712207346409 ], [ -98.745665975510477, 20.11556526227433 ], [ -98.74588284147876, 20.115576116337049 ], [ -98.746045433280827, 20.115717874321341 ], [ -98.746072178755369, 20.115802971341139 ], [ -98.746284980742104, 20.11584126188998 ], [ -98.746490633345729, 20.115841327865269 ], [ -98.746712230124913, 20.115836558509319 ], [ -98.746872123115821, 20.115740147904422 ] ] } },
{ "type": "Feature", "properties": { "ID_OBRA": "889_Pachuca de Soto", "No.": 889.0, "Municipio": "Pachuca de Soto", "Rubro": "Espacios Públicos", "Ejercicio": 2024.0, "Obra": "Alumbrado público ciclovia Colosio- -Río de las Avenidas - Rojo Gómez en el municipio de Pachuca de Soto", "Localidad": "Pachuca de Soto", "Inversión": 3065409.13, "Habitantes.beneficiados": null, "Ejecutora": "DGCCE", "Trabajos": "Considera trabajos en infraestructura del Espacio Público en el municipio de Pachuca de Soto.", "Geometria_tipo": "Línea" }, "geometry": { "type": "LineString", "coordinates": [ [ -98.748495322521649, 20.105770779052389 ], [ -98.748581286574932, 20.10537158266678 ], [ -98.748825839762645, 20.104713390894862 ], [ -98.748825921343197, 20.101052267368431 ], [ -98.748730946023528, 20.096061092674741 ], [ -98.748739540977454, 20.094867027004259 ], [ -98.749009913721608, 20.092282159456168 ], [ -98.749438625083343, 20.090147778325932 ] ] } },
{ "type": "Feature", "properties": { "ID_OBRA": "227_San Agustín Tlaxiaca", "No.": 227.0, "Municipio": "San Agustín Tlaxiaca", "Rubro": "Espacios Públicos", "Ejercicio": 2024.0, "Obra": "Rehabilitación de la imagen urbana de la vialidad Pachuca - Actopan y Boulevard de acceso a la Concepción,           comunidad de Tilcuautla, en los municipios de Pachuca y San Agustín Tlaxiaca.", "Localidad": "Varias", "Inversión": 2985598.2857082202, "Habitantes.beneficiados": null, "Ejecutora": "DGEP", "Trabajos": "Considera trabajos en pintura de guarniciones, colocación de adoquín, sembrado de vegetación, rodetes para arboles y rampas.", "Geometria_tipo": "Línea" }, "geometry": { "type": "LineString", "coordinates": [ [ -98.811558618984606, 20.127243705264981 ], [ -98.811802237376455, 20.1248020280666 ], [ -98.811747465869971, 20.124296106740701 ], [ -98.812027748891325, 20.124034674000072 ], [ -98.812316784032816, 20.123901598420151 ], [ -98.812495002289154, 20.124161810599009 ], [ -98.812516091071871, 20.124357756925491 ], [ -98.812245398837561, 20.124541541072801 ], [ -98.811976300811438, 20.124632685486201 ], [ -98.811911918933419, 20.124672482910078 ], [ -98.811847513589555, 20.124712295575041 ], [ -98.811723576957846, 20.12475288754397 ], [ -98.811617292091498, 20.12478769817573 ], [ -98.811581853109857, 20.12479930551606 ], [ -98.811440040809714, 20.1248457523218 ], [ -98.811386771541706, 20.124863269209669 ], [ -98.810857804025147, 20.12511682210021 ], [ -98.810346463567598, 20.125366467446 ], [ -98.809535225908675, 20.125717000824839 ], [ -98.80902741565211, 20.125904717316001 ], [ -98.808567533351365, 20.126113559828351 ], [ -98.808065960574766, 20.12631797784362 ], [ -98.807469588811372, 20.126480505239179 ], [ -98.807121075622732, 20.126504741698721 ], [ -98.80705607877573, 20.126489643251851 ], [ -98.806914463001362, 20.126481736082329 ], [ -98.806837324718558, 20.126488580829388 ], [ -98.806700824483784, 20.12649645877163 ], [ -98.806683021622916, 20.126502272548539 ], [ -98.806079527387865, 20.126370561536671 ], [ -98.805953811943695, 20.126355562122889 ], [ -98.805834100300913, 20.126357056844231 ], [ -98.805786072143434, 20.12633554861269 ], [ -98.805648031463122, 20.126287515027951 ], [ -98.805599982545701, 20.126265997670881 ], [ -98.805551837044106, 20.126244434928939 ], [ -98.805247444851275, 20.126080356216939 ] ] } },
{ "type": "Feature", "properties": { "ID_OBRA": "646_Omitlán de Juárez", "No.": 646.0, "Municipio": "Omitlán de Juárez", "Rubro": "Espacios Públicos", "Ejercicio": 2024.0, "Obra": "Iluminación de calle principal de Omitlán de Juárez.", "Localidad": "Omitlán de Juárez", "Inversión": 5611854.21, "Habitantes.beneficiados": 1500.0, "Ejecutora": "DGOPI", "Trabajos": "Considera trabajos en infraestructura eléctrica en el municipio de Omitlán de Juárez.", "Geometria_tipo": "Línea" }, "geometry": { "type": "LineString", "coordinates": [ [ -98.645521933623925, 20.176889731500381 ], [ -98.645467821320068, 20.176771238565259 ], [ -98.64544976588671, 20.176686556242942 ], [ -98.645431709121809, 20.176618786984989 ], [ -98.645413673679315, 20.17653413450974 ], [ -98.645413682042999, 20.176449500130278 ], [ -98.645395643670923, 20.176381775255859 ], [ -98.645377579815033, 20.176297026590099 ], [ -98.645377562990546, 20.176229223957868 ], [ -98.645377554628041, 20.176195317287 ], [ -98.645359477837161, 20.17609355615425 ], [ -98.645359445244395, 20.17597481823417 ], [ -98.645359417151056, 20.17587301074942 ], [ -98.64534133338509, 20.175788117700922 ], [ -98.645341307840326, 20.175703231613898 ], [ -98.645341287450634, 20.17563530764377 ], [ -98.645323194205233, 20.17555034787863 ], [ -98.645305113529659, 20.17546546650944 ], [ -98.645305114010114, 20.175380690705619 ], [ -98.64528705739454, 20.17531291159198 ], [ -98.645269024299282, 20.17524527649395 ], [ -98.645251014720671, 20.175160818202169 ], [ -98.645251059016942, 20.175059391308501 ], [ -98.645269117468473, 20.17499161572044 ], [ -98.645287158584551, 20.174923722025291 ], [ -98.645323246757641, 20.174855713482319 ], [ -98.645359342451812, 20.174787691302232 ], [ -98.645359342411012, 20.174753787383711 ], [ -98.645413542606605, 20.17465242445525 ], [ -98.645449690307288, 20.174602360106419 ], [ -98.645503867039366, 20.174518933137669 ], [ -98.6455579853329, 20.174435595622221 ], [ -98.64561204513295, 20.174352349341479 ], [ -98.645666046744182, 20.17426919198277 ], [ -98.645701999782901, 20.174185911755281 ], [ -98.645755899109787, 20.174102926990269 ], [ -98.645809740052954, 20.174020031747009 ], [ -98.645881491779875, 20.173954147363911 ], [ -98.645899353395421, 20.173887630881332 ], [ -98.645935159443468, 20.173838070369339 ], [ -98.645988782999012, 20.173738803329041 ], [ -98.646042347136003, 20.17363963081382 ], [ -98.646113830812922, 20.173557086756698 ], [ -98.646185280935825, 20.17345759557687 ], [ -98.646203130467427, 20.173424342689881 ], [ -98.64627457848789, 20.1733077763936 ], [ -98.646328182085, 20.17320755932916 ], [ -98.646381766198346, 20.173107379038392 ], [ -98.646435373477757, 20.17304066346955 ], [ -98.64648891988243, 20.172940547046931 ], [ -98.646506717483803, 20.172873770145781 ], [ -98.646560284485759, 20.17280711502405 ], [ -98.646632040772886, 20.17267207486157 ], [ -98.646685906285597, 20.17257064169695 ], [ -98.646739727389672, 20.17248620948693 ], [ -98.646793619617426, 20.172384726655778 ], [ -98.646829683994838, 20.172282970611921 ], [ -98.646883148163084, 20.17221667336635 ], [ -98.646954284715179, 20.172117503799999 ], [ -98.646989834035764, 20.172067946333438 ], [ -98.647060931675483, 20.171985558147931 ], [ -98.647078596853476, 20.17191911885881 ], [ -98.647096256228977, 20.171852698525392 ], [ -98.647131713360835, 20.17178656225326 ], [ -98.647149358783921, 20.171720185719611 ], [ -98.647184753092304, 20.17163744579825 ], [ -98.647220172430664, 20.17157139171125 ], [ -98.647237835573705, 20.171521729254369 ], [ -98.647382592627451, 20.171374701023339 ], [ -98.647436683173595, 20.171223783402588 ], [ -98.647490784108342, 20.171056163213169 ], [ -98.647526756861808, 20.170989139833338 ], [ -98.64756272214531, 20.170922130275962 ], [ -98.647598758007547, 20.170855147897569 ], [ -98.647634713028495, 20.170788169013441 ], [ -98.647670583630472, 20.170721186091271 ], [ -98.647724322827571, 20.170637466994851 ], [ -98.647760181301464, 20.170570505336912 ], [ -98.647831666739762, 20.170503533242279 ], [ -98.647867565879153, 20.170419860450739 ], [ -98.647939087388266, 20.170336179212601 ], [ -98.64799268442971, 20.170285967945102 ], [ -98.648028413538668, 20.170252495780751 ], [ -98.648099961742943, 20.170152117990831 ], [ -98.648171450369887, 20.17006847468263 ], [ -98.648207258063906, 20.170001588155159 ], [ -98.648260829581176, 20.169951403424839 ], [ -98.648314481453284, 20.169867806603381 ], [ -98.64835027147646, 20.169800947690561 ], [ -98.648403907874552, 20.169717376595639 ], [ -98.648421876048971, 20.169650560287909 ], [ -98.648475420810755, 20.169600405787399 ], [ -98.648528962506361, 20.169550254214759 ], [ -98.648582446429685, 20.16950004107812 ], [ -98.648618067711652, 20.16948325737615 ], [ -98.648707128636602, 20.169416187487052 ], [ -98.648796201252765, 20.169349108940711 ], [ -98.648903104100725, 20.169281995774941 ], [ -98.648974381658704, 20.16923166675258 ], [ -98.649045838900136, 20.16918169555457 ], [ -98.649099446330439, 20.169148468644892 ], [ -98.649188763253491, 20.16908195099839 ], [ -98.649278045018292, 20.169015460721049 ], [ -98.649349445013513, 20.16896563193578 ], [ -98.649385136270183, 20.168932360548311 ], [ -98.649510013088914, 20.168866117484651 ], [ -98.649599197234451, 20.168816593670531 ], [ -98.649724022448595, 20.168734321920748 ], [ -98.649830900451548, 20.168685181151218 ], [ -98.649866515841083, 20.168652237023341 ], [ -98.649919910338497, 20.168619408352349 ], [ -98.650044408512898, 20.168537345095029 ], [ -98.650115491488492, 20.168488125808668 ], [ -98.65015101387614, 20.168455256496841 ], [ -98.650257539697407, 20.168406308850368 ], [ -98.650310765309044, 20.168373585409618 ], [ -98.65039939562638, 20.16834152585065 ], [ -98.650505510586484, 20.168277328375549 ], [ -98.650593844217113, 20.16824589667544 ], [ -98.650629141249837, 20.168230037397791 ], [ -98.650734889579667, 20.168166038793981 ], [ -98.650822797474149, 20.168102047661339 ], [ -98.650892960736002, 20.168037890944809 ], [ -98.650962957494443, 20.16795748037223 ], [ -98.650997880190872, 20.167909155559151 ], [ -98.651050063504059, 20.167812388883601 ], [ -98.651049624502861, 20.167714541731691 ], [ -98.651066526910981, 20.167617800495361 ], [ -98.651083254475537, 20.167488672158751 ], [ -98.651083433008537, 20.167438422377138 ], [ -98.651065790991595, 20.16728972280243 ], [ -98.651065714282879, 20.167240419446649 ], [ -98.651065586338746, 20.167158263685629 ], [ -98.651047855332578, 20.167026524968609 ], [ -98.651047729681792, 20.166944414846501 ], [ -98.651047603930763, 20.166862323322171 ], [ -98.651028911276853, 20.166735100174058 ], [ -98.651009968807713, 20.166659000208561 ], [ -98.651009221294132, 20.166596652312041 ], [ -98.651008288438817, 20.166518850110119 ], [ -98.651025107455396, 20.16642358719487 ], [ -98.651042287831032, 20.1663594452233 ], [ -98.651059344386624, 20.166295892549719 ], [ -98.651111726185007, 20.166214319741641 ], [ -98.651146710943749, 20.16616510136123 ], [ -98.651199296716683, 20.166099000313402 ], [ -98.651251787935507, 20.166033331395131 ], [ -98.651286684962116, 20.16598448425254 ], [ -98.651339157219212, 20.165918877004831 ], [ -98.651427391502551, 20.16585028610713 ], [ -98.651479887498439, 20.165784647989081 ], [ -98.651532381843666, 20.165719011390369 ], [ -98.651584874045994, 20.16565337714237 ], [ -98.651637703014188, 20.165602982533631 ], [ -98.651690202285863, 20.165537339697551 ], [ -98.651742741401009, 20.16548799530926 ], [ -98.651811179626776, 20.165443946026912 ], [ -98.651879624808146, 20.165399558915599 ], [ -98.651931620856345, 20.165351714194649 ], [ -98.652000913169303, 20.165337159718909 ], [ -98.652070160180685, 20.16525702969853 ], [ -98.652139364976421, 20.16522612345452 ], [ -98.652173950667091, 20.165177899527141 ], [ -98.652243090655816, 20.16511426567082 ], [ -98.652277643529857, 20.165049700543349 ], [ -98.652329454019593, 20.165002023657891 ], [ -98.652432819224501, 20.16492019301927 ], [ -98.652485278346887, 20.164836255173849 ], [ -98.652566991152256, 20.16473691331154 ], [ -98.652587902694094, 20.164687582876489 ], [ -98.652608447546996, 20.164646709089372 ], [ -98.652628680533695, 20.164614195298419 ], [ -98.652638959000072, 20.164589870567529 ], [ -98.652649393708217, 20.16455753639281 ], [ -98.652669953026944, 20.16450129866098 ], [ -98.652690193337051, 20.16445344653086 ], [ -98.652700968893811, 20.164406587658618 ], [ -98.65270161047269, 20.16438342833623 ], [ -98.652712107542939, 20.164344876958111 ], [ -98.652722735509045, 20.16429897352204 ], [ -98.652742464222669, 20.16426079294747 ], [ -98.652743198872415, 20.164230693270671 ], [ -98.652753079136744, 20.164208047035959 ], [ -98.652772567658928, 20.164170428996272 ], [ -98.652791938507278, 20.164133038265689 ], [ -98.652801651499942, 20.164110749746381 ], [ -98.652820970936645, 20.164066417035389 ], [ -98.65284027412919, 20.164015229779391 ], [ -98.652868281969575, 20.163985876085931 ], [ -98.6528869126888, 20.163963999496751 ], [ -98.652914702797233, 20.163934879360649 ], [ -98.652933178852692, 20.163913178251921 ], [ -98.652960753929705, 20.163884288627429 ], [ -98.65301552196135, 20.16385488154198 ], [ -98.653051934842722, 20.16384000105802 ], [ -98.653088289300285, 20.163825144572069 ], [ -98.653133603965671, 20.163819453421009 ], [ -98.653160706835735, 20.163821199068408 ], [ -98.653205754558925, 20.163824101069739 ], [ -98.653250649078544, 20.163826992965841 ], [ -98.653286977142358, 20.163850162328991 ], [ -98.653323632327172, 20.163871815170001 ], [ -98.653324335091639, 20.163892269911411 ], [ -98.653325513606347, 20.163926571531551 ], [ -98.653326701118544, 20.16396113944122 ], [ -98.653318533277186, 20.163988696297508 ], [ -98.653319937003829, 20.164030802621291 ], [ -98.65331135606948, 20.164060444459771 ], [ -98.653311786770274, 20.164083034324591 ], [ -98.653312651982219, 20.164128415233371 ], [ -98.653323376907082, 20.164204920165169 ], [ -98.653286931531284, 20.164242261296138 ], [ -98.653222797275021, 20.16432573554053 ], [ -98.653195239055719, 20.164379808070588 ], [ -98.653176766091661, 20.16441873992347 ], [ -98.653158114079318, 20.16444996049194 ], [ -98.653148753901149, 20.164465627900981 ], [ -98.653139553600226, 20.16450528502223 ], [ -98.653120741675565, 20.164544954741469 ], [ -98.653082629500091, 20.164592883920921 ], [ -98.653063467090732, 20.164617070335972 ], [ -98.653034614383415, 20.164665748429659 ], [ -98.653015275423783, 20.16469017871152 ], [ -98.653005563721862, 20.16472296641048 ], [ -98.652995808333856, 20.164755841595259 ], [ -98.652966452559355, 20.16480535243916 ], [ -98.652946769197612, 20.164838549810771 ], [ -98.652936689482303, 20.164897271925469 ], [ -98.652906879239595, 20.16495665920845 ], [ -98.652876875758551, 20.165016431096362 ], [ -98.652856850406181, 20.165042048235431 ], [ -98.652826719563393, 20.16507628393077 ], [ -98.65279637926524, 20.165119405503951 ], [ -98.652776011889287, 20.165154117064599 ], [ -98.652765637102547, 20.165189081819509 ], [ -98.652755144435488, 20.165232972337389 ], [ -98.652734491563436, 20.165276948280631 ], [ -98.65272370433685, 20.165338970821821 ], [ -98.652713057487503, 20.16538345616642 ], [ -98.652712530640912, 20.165428137868631 ], [ -98.65272217740258, 20.165472985834558 ], [ -98.652752371615122, 20.165508970105979 ], [ -98.652792863010035, 20.165535968685841 ], [ -98.65284368339789, 20.16553594406161 ], [ -98.652894416898391, 20.165517988405519 ], [ -98.65291472353816, 20.165491162864189 ], [ -98.652945060723184, 20.165446658158611 ], [ -98.652975176717916, 20.165428985775211 ], [ -98.653005199589629, 20.165384850185639 ], [ -98.653044992069184, 20.16534099766163 ], [ -98.653084527800388, 20.165288653257068 ], [ -98.653123842590517, 20.16524534567959 ], [ -98.653162937266245, 20.165202272001299 ], [ -98.653192044381328, 20.165159327577541 ], [ -98.65322119516722, 20.165142427233299 ], [ -98.653269445357964, 20.165100075644411 ], [ -98.653298250026367, 20.165074792315789 ], [ -98.653346119221183, 20.165041380109759 ], [ -98.653365041210193, 20.165016166108689 ], [ -98.653393487518144, 20.1649911974079 ], [ -98.653421702973631, 20.164957873863528 ], [ -98.653459314280298, 20.164924881826899 ], [ -98.653496592427913, 20.164883672592019 ], [ -98.65351538226092, 20.164875699479769 ], [ -98.653571373628324, 20.16484353485842 ], [ -98.653617830875618, 20.164819650011371 ], [ -98.653655103359299, 20.16481222654102 ], [ -98.653701377123454, 20.16479677815169 ], [ -98.653775299923112, 20.164807443117802 ], [ -98.65379363956356, 20.164808050798719 ], [ -98.653857880948749, 20.164818349448691 ], [ -98.653885236852673, 20.164819196405318 ], [ -98.653958049969589, 20.164829703922621 ], [ -98.654003602587082, 20.164847580994788 ], [ -98.654022413623053, 20.164881122400249 ], [ -98.654023005936679, 20.164905908887601 ], [ -98.654024192455793, 20.164955569800359 ], [ -98.654007099663957, 20.16499662274779 ], [ -98.653980299733604, 20.165012635793911 ], [ -98.653935199818164, 20.165028303176509 ], [ -98.653908176628875, 20.165044431209651 ], [ -98.653862552904897, 20.16505185109909 ], [ -98.6538351464269, 20.165059678300342 ], [ -98.65378950890414, 20.165084000534069 ], [ -98.653743561170188, 20.165099954657229 ], [ -98.653706826925017, 20.16512463944165 ], [ -98.653688597165456, 20.16514976062215 ], [ -98.653660829540001, 20.165166292786761 ], [ -98.653623821598188, 20.16519980566348 ], [ -98.653605602180292, 20.165242301106989 ], [ -98.653587199389548, 20.165276369888819 ], [ -98.653587659458324, 20.165310736860729 ], [ -98.653588350881265, 20.165362391937741 ], [ -98.653607741863354, 20.165397007396219 ], [ -98.653645798096647, 20.165423087236501 ], [ -98.653674133981596, 20.165431832834049 ], [ -98.653721149438255, 20.16544062889788 ], [ -98.65374920676139, 20.165440734685021 ], [ -98.65382318439103, 20.165398230185009 ], [ -98.653915313066932, 20.165373201231461 ], [ -98.653951767736174, 20.16535647171651 ], [ -98.65399702687121, 20.165331427879579 ], [ -98.654033379690077, 20.165323284845179 ], [ -98.654078468458408, 20.1653068393422 ], [ -98.654123346730771, 20.1652904702689 ], [ -98.654150223024004, 20.16528235972368 ], [ -98.654194512951861, 20.165257761633661 ], [ -98.654229624848469, 20.1652331791345 ], [ -98.654255926669961, 20.165216888114841 ], [ -98.654273233896163, 20.165200527127411 ], [ -98.654299117956938, 20.16517605830855 ], [ -98.654333771885234, 20.165151814913209 ], [ -98.654394133997442, 20.165111690189718 ], [ -98.654410827620936, 20.16508740175756 ], [ -98.654445300916976, 20.165071693239572 ], [ -98.65447060211541, 20.165047716086381 ], [ -98.654513337806137, 20.165024149348032 ], [ -98.654555904086862, 20.165000683683811 ], [ -98.654598268567383, 20.164977329709721 ], [ -98.654623522311525, 20.164961757372161 ], [ -98.654648701975418, 20.164946230322219 ], [ -98.654690268288221, 20.164915103460991 ], [ -98.654723440236793, 20.164891917097808 ], [ -98.654756846625887, 20.164876806706999 ], [ -98.654790507735967, 20.164869718669092 ], [ -98.654824062472073, 20.164862652977231 ], [ -98.654857511707903, 20.164855609836071 ], [ -98.654891249447559, 20.164856518340692 ], [ -98.65489966950301, 20.164856745018241 ] ] } },
{ "type": "Feature", "properties": { "ID_OBRA": "66_Almoloya", "No.": 66.0, "Municipio": "Almoloya", "Rubro": "Espacios Públicos", "Ejercicio": 2023.0, "Obra": "Construcción de barda perimetral y pavimento en el Mercado Municipal, de Almoloya.", "Localidad": "Almoloya", "Inversión": 4533820.88, "Habitantes.beneficiados": 4802.0, "Ejecutora": "DGIVC", "Trabajos": "Considera trabajos en infraestructura del Espacio Público en el municipio de Almoloya.", "Geometria_tipo": "Línea" }, "geometry": { "type": "LineString", "coordinates": [ [ -98.40199277837948, 19.700688214014502 ], [ -98.400339613064702, 19.7000077821735 ], [ -98.400426053081205, 19.7005706645344 ] ] } },
{ "type": "Feature", "properties": { "ID_OBRA": "980_San Agustín Tlaxiaca", "No.": 980.0, "Municipio": "San Agustín Tlaxiaca", "Rubro": "Espacios Públicos", "Ejercicio": 2024.0, "Obra": "Construcción de acceso a la unidad deportiva y ciclovía, en el municipio de San Agustín Tlaxiaca", "Localidad": "San Agustín Tlaxiaca", "Inversión": 13675956.22, "Habitantes.beneficiados": 12328.0, "Ejecutora": "DGOPI", "Trabajos": "Considera trabajos en infraestructura deportiva en el municipio de San Agustín Tlaxiaca.", "Geometria_tipo": "Línea" }, "geometry": { "type": "LineString", "coordinates": [ [ -98.879724957933519, 20.12282019491461 ], [ -98.880051373400349, 20.123056580182819 ], [ -98.880509263137242, 20.123402550667251 ], [ -98.880795058139086, 20.123695557043391 ], [ -98.881107454815947, 20.124007971664462 ], [ -98.881398635949864, 20.12422905907156 ], [ -98.881827003858149, 20.12450632164974 ], [ -98.882160034058202, 20.12478334338682 ], [ -98.882413839659989, 20.124932601069819 ], [ -98.882865672132596, 20.125192609784779 ], [ -98.883239465112794, 20.125287422753921 ], [ -98.883732810133594, 20.125604168884969 ], [ -98.884346315194733, 20.125848559678719 ], [ -98.884802366419493, 20.126092011682111 ], [ -98.885339195040046, 20.126336864513618 ], [ -98.886133849714966, 20.126711093000338 ] ] } }
]
}
