{
"type": "FeatureCollection",
"name": "obras_agua_linea",
"crs": { "type": "name", "properties": { "name": "urn:ogc:def:crs:OGC:1.3:CRS84" } },
"features": [
{ "type": "Feature", "properties": { "ID_OBRA": "1275_Tula de Allende", "No.": 1275.0, "Municipio": "Tula de Allende", "Rubro": "Infraestructura Hídrica", "Ejercicio": 2023.0, "Obra": "Mejoramiento y adecuación de la red de alcantarillado del Centro del Municipio de Tula de Allende&#9;", "Localidad": "Tula de Allende", "Inversión": 46999751.91, "Habitantes.beneficiados": 29390.0, "Ejecutora": "SIPDUS", "Trabajos": "Considera los trabajos de excavaciones y rellenos, descargas domiciliarias, red de alcantarillado.", "Geometria_tipo": "Línea" }, "geometry": { "type": "LineString", "coordinates": [ [ -99.34216131562998, 20.05276853151344 ], [ -99.339988047608557, 20.05488394103546 ], [ -99.340343122611856, 20.05563074415252 ], [ -99.3397696401818, 20.056011645245309 ], [ -99.339508021464184, 20.05681093572688 ], [ -99.339002562456997, 20.056972463666551 ] ] } },
{ "type": "Feature", "properties": { "ID_OBRA": "535_Mineral de la Reforma", "No.": 535.0, "Municipio": "Mineral de la Reforma", "Rubro": "Infraestructura Hídrica", "Ejercicio": 2023.0, "Obra": "Construcción de red de agua potable en Calle Francisco Villa, Col. El Venado, en el municipio de Mineral de la Reforma.", "Localidad": "El Venado", "Inversión": 147315.45, "Habitantes.beneficiados": null, "Ejecutora": "SIPDUS", "Trabajos": "Considera los trabajos de preliminares, piso para pavimento de concreto hidráulico.", "Geometria_tipo": "Línea" }, "geometry": { "type": "LineString", "coordinates": [ [ -98.759923431940265, 20.065279542504349 ], [ -98.760447233224809, 20.06413765158737 ], [ -98.760421852058855, 20.06366900928219 ], [ -98.760884191417304, 20.059650749813251 ], [ -98.761113417232963, 20.058462331201209 ] ] } },
{ "type": "Feature", "properties": { "ID_OBRA": "542_Mineral de la Reforma", "No.": 542.0, "Municipio": "Mineral de la Reforma", "Rubro": "Infraestructura Hídrica", "Ejercicio": 2023.0, "Obra": "Sustitución de linea de distribución por gravedad de agua potable 6 de diámetro, avenida La Providencia, desde la reja de CONALEP hasta la calle Corregidora, Municipio de Mineral de la Reforma, Hidalgo.", "Localidad": "La Providencia Siglo XXI", "Inversión": 775004.83, "Habitantes.beneficiados": 22705.0, "Ejecutora": "CAASIM", "Trabajos": "Considera los trabajos de preliminares, piso para pavimento de concreto hidráulico.", "Geometria_tipo": "Línea" }, "geometry": { "type": "LineString", "coordinates": [ [ -98.73770979023945, 20.065827387406529 ], [ -98.73586330603537, 20.066257703015509 ] ] } },
{ "type": "Feature", "properties": { "ID_OBRA": "543_Mineral de la Reforma", "No.": 543.0, "Municipio": "Mineral de la Reforma", "Rubro": "Infraestructura Hídrica", "Ejercicio": 2023.0, "Obra": "Sustitución y reubicación de líneas de conducción por bombeo y gravedad de agua potable de 6 de diámetro, de pb Providencia a fraccionamiento San Cristóbal II, colonia la Providencia, municipio de Mineral de la Reforma, hidalgo.", "Localidad": "La Providencia Siglo XXI", "Inversión": 3620300.34, "Habitantes.beneficiados": null, "Ejecutora": "CAASIM", "Trabajos": "Considera los trabajos de instalación de tubería, rellenos con material producto de excavación, prueba de la tubería en la comunidad.", "Geometria_tipo": "Línea" }, "geometry": { "type": "LineString", "coordinates": [ [ -98.717423581405967, 20.06357484708456 ], [ -98.715828394005314, 20.063249064773171 ] ] } },
{ "type": "Feature", "properties": { "ID_OBRA": "563_Mineral de la Reforma", "No.": 563.0, "Municipio": "Mineral de la Reforma", "Rubro": "Infraestructura Hídrica", "Ejercicio": 2023.0, "Obra": "Sustitución de línea de conducción por bombeo de 24” de diámetro, tramo salones Macro’s a tanque Abundio Martínez, Municipio de Mineral de la Reforma, Hidalgo.", "Localidad": "PRI Chacón", "Inversión": 26224986.0, "Habitantes.beneficiados": 2778.0, "Ejecutora": "CAASIM", "Trabajos": "Considera los trabajos de instalación de tubería, rellenos con material producto de excavación, prueba de la tubería en la comunidad.", "Geometria_tipo": "Línea" }, "geometry": { "type": "LineString", "coordinates": [ [ -98.731420145310281, 20.0824037722961 ], [ -98.731071772902311, 20.082475594755401 ], [ -98.730638431614395, 20.082435693393201 ], [ -98.7300266556785, 20.082515496107401 ], [ -98.728692644262694, 20.082571357983198 ], [ -98.727681514590799, 20.083177857067302 ], [ -98.725880174335103, 20.0844307490582 ] ] } },
{ "type": "Feature", "properties": { "ID_OBRA": "655_Pachuca de Soto", "No.": 655.0, "Municipio": "Pachuca de Soto", "Rubro": "Infraestructura Hídrica", "Ejercicio": 2022.0, "Obra": "Colector pluvial Ferrocarril Central - Dren Santa Julia, municipio de Pachuca de Soto", "Localidad": "Pachuca de Soto", "Inversión": 3691385.19, "Habitantes.beneficiados": 297848.0, "Ejecutora": "SIPDUS", "Trabajos": "Considera los trabajos colecto, canal rectangular cerrado, obra inducida general.", "Geometria_tipo": "Línea" }, "geometry": { "type": "LineString", "coordinates": [ [ -98.767608092826507, 20.099424943128099 ], [ -98.768256410864481, 20.101259208796598 ], [ -98.765837077698279, 20.102856284939001 ], [ -98.764524628987189, 20.104026419934399 ], [ -98.763591683517902, 20.105038428579 ] ] } },
{ "type": "Feature", "properties": { "ID_OBRA": "658_Pachuca de Soto", "No.": 658.0, "Municipio": "Pachuca de Soto", "Rubro": "Infraestructura Hídrica", "Ejercicio": 2023.0, "Obra": "Construcción del colector pluvial circuito Nuevo Pachuca, Col. Juan C. Doria", "Localidad": "Pachuca de Soto", "Inversión": 31702926.43, "Habitantes.beneficiados": 297848.0, "Ejecutora": "SIPDUS", "Trabajos": "Considera los trabajos de Canal de Concreto, Colector Principal, Colector Pluvial.", "Geometria_tipo": "Línea" }, "geometry": { "type": "LineString", "coordinates": [ [ -98.782636659904298, 20.063170035273 ], [ -98.7821761716407, 20.064118099345102 ], [ -98.781787916830297, 20.064840433876199 ], [ -98.781651119385003, 20.065075671317501 ], [ -98.781255195113587, 20.065815585493201 ], [ -98.780605094035607, 20.0670616125593 ] ] } },
{ "type": "Feature", "properties": { "ID_OBRA": "658_Pachuca de Soto", "No.": 658.0, "Municipio": "Pachuca de Soto", "Rubro": "Infraestructura Hídrica", "Ejercicio": 2023.0, "Obra": "Construcción del colector pluvial circuito Nuevo Pachuca, Col. Juan C. Doria", "Localidad": "Pachuca de Soto", "Inversión": 31702926.43, "Habitantes.beneficiados": 297848.0, "Ejecutora": "SIPDUS", "Trabajos": "Considera los trabajos de Canal de Concreto, Colector Principal, Colector Pluvial.", "Geometria_tipo": "Línea" }, "geometry": { "type": "LineString", "coordinates": [ [ -98.781651119385003, 20.065075671317501 ], [ -98.780689742613404, 20.064596081648101 ], [ -98.78021119598661, 20.064370352107101 ], [ -98.779624299180085, 20.063955009751702 ], [ -98.779145752553205, 20.063711221847502 ], [ -98.778883906285699, 20.0633771421269 ], [ -98.778712351834599, 20.0631785001308 ], [ -98.777917783850398, 20.062772186957101 ], [ -98.777005836504912, 20.062293640330299 ], [ -98.776455056425007, 20.061986648154601 ], [ -98.775958451434917, 20.061697714342099 ], [ -98.775615342532603, 20.061544218254301 ], [ -98.775263204448706, 20.061462955619501 ], [ -98.774820774548388, 20.0614087805297 ] ] } },
{ "type": "Feature", "properties": { "ID_OBRA": "658_Pachuca de Soto", "No.": 658.0, "Municipio": "Pachuca de Soto", "Rubro": "Infraestructura Hídrica", "Ejercicio": 2023.0, "Obra": "Construcción del colector pluvial circuito Nuevo Pachuca, Col. Juan C. Doria", "Localidad": "Pachuca de Soto", "Inversión": 31702926.43, "Habitantes.beneficiados": 297848.0, "Ejecutora": "SIPDUS", "Trabajos": "Considera los trabajos de Canal de Concreto, Colector Principal, Colector Pluvial.", "Geometria_tipo": "Línea" }, "geometry": { "type": "LineString", "coordinates": [ [ -98.776077543419404, 20.061767004223999 ], [ -98.776044228660396, 20.062117571288301 ], [ -98.775999082752207, 20.062699953504001 ], [ -98.7759719952073, 20.062997916498102 ], [ -98.776459571015806, 20.063322967037099 ], [ -98.776613067103597, 20.0634177734443 ], [ -98.777389576724502, 20.063471948534101 ] ] } },
{ "type": "Feature", "properties": { "ID_OBRA": "659_Pachuca de Soto", "No.": 659.0, "Municipio": "Pachuca de Soto", "Rubro": "Infraestructura Hídrica", "Ejercicio": 2023.0, "Obra": "Construcción del dren pluvial Nopancalco - Tezontle", "Localidad": "Pachuca de Soto", "Inversión": 78016684.52, "Habitantes.beneficiados": null, "Ejecutora": "SIPDUS", "Trabajos": "Considera los trabajos de Canal Rectangular Revestida.", "Geometria_tipo": "Línea" }, "geometry": { "type": "LineString", "coordinates": [ [ -98.784483187422111, 20.0917550212083 ], [ -98.781935119579401, 20.0909705015927 ], [ -98.781105214531394, 20.0906917053656 ], [ -98.780249374950699, 20.0904129091385 ], [ -98.778978582845895, 20.090049825680101 ], [ -98.778913746514107, 20.0900303747805 ], [ -98.778907262880921, 20.089634873156001 ], [ -98.777895816103708, 20.089258822431201 ], [ -98.778219997763003, 20.088441884649601 ], [ -98.774997632068903, 20.0873072488418 ] ] } },
{ "type": "Feature", "properties": { "ID_OBRA": "660_Pachuca de Soto", "No.": 660.0, "Municipio": "Pachuca de Soto", "Rubro": "Infraestructura Hídrica", "Ejercicio": 2023.0, "Obra": "Rehabilitación del dren pluvial Las Torres", "Localidad": "Pachuca de Soto", "Inversión": 73320199.89, "Habitantes.beneficiados": null, "Ejecutora": "SIPDUS", "Trabajos": "Considera los trabajos de Canal de Concreto, Colector Principal, Colector Pluvial.", "Geometria_tipo": "Línea" }, "geometry": { "type": "LineString", "coordinates": [ [ -98.793946974609398, 20.042055680672998 ], [ -98.797093849201104, 20.0375213204658 ] ] } },
{ "type": "Feature", "properties": { "ID_OBRA": "660_Pachuca de Soto", "No.": 660.0, "Municipio": "Pachuca de Soto", "Rubro": "Infraestructura Hídrica", "Ejercicio": 2023.0, "Obra": "Rehabilitación del dren pluvial Las Torres", "Localidad": "Pachuca de Soto", "Inversión": 73320199.89, "Habitantes.beneficiados": null, "Ejecutora": "SIPDUS", "Trabajos": "Considera los trabajos de Canal de Concreto, Colector Principal, Colector Pluvial.", "Geometria_tipo": "Línea" }, "geometry": { "type": "LineString", "coordinates": [ [ -98.795307776103911, 20.040094889428701 ], [ -98.795087716648794, 20.040049548120798 ], [ -98.784903286151902, 20.0381614233657 ], [ -98.778466497214296, 20.037045713283199 ], [ -98.775374803558009, 20.036468781859199 ] ] } },
{ "type": "Feature", "properties": { "ID_OBRA": "783_Pachuca de Soto", "No.": 783.0, "Municipio": "Pachuca de Soto", "Rubro": "Infraestructura Hídrica", "Ejercicio": 2024.0, "Obra": "Sustitución de linea de conducción por bombeo de agua potable de 18 pulgadas de diametro, sobre Blvd. Santa Catarina, tramo: La Herradura-Tanque Nopalcalco, etapa 4 de 4 Municipio de Pachuca de Soto, Hgo.", "Localidad": "Pachuca de Soto", "Inversión": 6416305.65, "Habitantes.beneficiados": 297848.0, "Ejecutora": "CAASIM", "Trabajos": "Considera los trabajos de mejoramiento en Infraestructura hídrica en la localidad de Pachuca de Soto municipio de Pachuca de Soto", "Geometria_tipo": "Línea" }, "geometry": { "type": "LineString", "coordinates": [ [ -98.795230805457194, 20.07839354130077 ], [ -98.797895054905595, 20.084242172841371 ] ] } },
{ "type": "Feature", "properties": { "ID_OBRA": "784_Pachuca de Soto", "No.": 784.0, "Municipio": "Pachuca de Soto", "Rubro": "Infraestructura Hídrica", "Ejercicio": 2024.0, "Obra": "Sustitución de linea de conducción por bombeo de agua potable de 18 pulgadas de diametro, sobre Blvd. Santa Catarina, tramo: La Herradura-Tanque Nopalcalco, etapa 3 de 4 Municipio de Pachuca de Soto, Hgo.", "Localidad": "Pachuca de Soto", "Inversión": 6669996.38, "Habitantes.beneficiados": null, "Ejecutora": "CAASIM", "Trabajos": "Considera los trabajos de mejoramiento en Infraestructura hídrica en la localidad de Pachuca de Soto municipio de Pachuca de Soto", "Geometria_tipo": "Línea" }, "geometry": { "type": "LineString", "coordinates": [ [ -98.792579544973549, 20.07278270650307 ], [ -98.795196365053158, 20.078266300293649 ] ] } },
{ "type": "Feature", "properties": { "ID_OBRA": "785_Pachuca de Soto", "No.": 785.0, "Municipio": "Pachuca de Soto", "Rubro": "Infraestructura Hídrica", "Ejercicio": 2024.0, "Obra": "Sustitución de linea de conducción por bombeo de agua potable de 18 pulgadas de diametro, sobre Blvd. Santa Catarina, tramo: La Herradura-Tanque Nopalcalco, etapa 2 de 4 Municipio de Pachuca de Soto, Hgo.", "Localidad": "Pachuca de Soto", "Inversión": 7201217.31, "Habitantes.beneficiados": null, "Ejecutora": "CAASIM", "Trabajos": "Considera los trabajos de mejoramiento en Infraestructura hídrica en la localidad de Pachuca de Soto municipio de Pachuca de Soto", "Geometria_tipo": "Línea" }, "geometry": { "type": "LineString", "coordinates": [ [ -98.789755877856749, 20.066596145865429 ], [ -98.792585348828439, 20.07266770685149 ] ] } },
{ "type": "Feature", "properties": { "ID_OBRA": "786_Pachuca de Soto", "No.": 786.0, "Municipio": "Pachuca de Soto", "Rubro": "Infraestructura Hídrica", "Ejercicio": 2024.0, "Obra": "Sustitución de linea de conducción por bombeo de agua potable de 18 pulgadas de diametro, sobre Blvd. Santa Catarina, tramo: La Herradura-Tanque Nopalcalco, etapa 1 de 4 Municipio de Pachuca de Soto, Hgo.", "Localidad": "Pachuca de Soto", "Inversión": 6642044.39, "Habitantes.beneficiados": null, "Ejecutora": "CAASIM", "Trabajos": "Considera los trabajos de mejoramiento en Infraestructura hídrica en la localidad de Pachuca de Soto municipio de Pachuca de Soto", "Geometria_tipo": "Línea" }, "geometry": { "type": "LineString", "coordinates": [ [ -98.787321170262743, 20.06147732376558 ], [ -98.789696809026623, 20.066493920301141 ] ] } },
{ "type": "Feature", "properties": { "ID_OBRA": "787_Pachuca de Soto", "No.": 787.0, "Municipio": "Pachuca de Soto", "Rubro": "Infraestructura Hídrica", "Ejercicio": 2024.0, "Obra": "Sustitución de línea de agua potable sobre calle San Martín de Porres y Fray Juan de Zumarraga, Colonia Nueva Francisco I. Madero", "Localidad": "Pachuca de Soto", "Inversión": 3428860.47, "Habitantes.beneficiados": null, "Ejecutora": "CAASIM", "Trabajos": "Considera los trabajos de mejoramiento en Infraestructura hídrica en la localidad de Pachuca de Soto municipio de Pachuca de Soto", "Geometria_tipo": "Línea" }, "geometry": { "type": "LineString", "coordinates": [ [ -98.715859382229326, 20.11515739854093 ], [ -98.717362915689449, 20.11255120139403 ] ] } },
{ "type": "Feature", "properties": { "ID_OBRA": "788_Pachuca de Soto", "No.": 788.0, "Municipio": "Pachuca de Soto", "Rubro": "Infraestructura Hídrica", "Ejercicio": 2024.0, "Obra": "Sustitución de línea de agua potable sobre calle Fernández de Lizardi, Colonia Nueva Francisco I. Madero.", "Localidad": "Pachuca de Soto", "Inversión": 3026129.6, "Habitantes.beneficiados": null, "Ejecutora": "CAASIM", "Trabajos": "Considera los trabajos de mejoramiento en Infraestructura hídrica en la localidad de Pachuca de Soto municipio de Pachuca de Soto", "Geometria_tipo": "Línea" }, "geometry": { "type": "LineString", "coordinates": [ [ -98.718799907429755, 20.116498974738739 ], [ -98.71675302674457, 20.115884905297222 ], [ -98.71557369567924, 20.115367740143629 ], [ -98.714681487259199, 20.114964053941421 ] ] } },
{ "type": "Feature", "properties": { "ID_OBRA": "879_Pachuca de Soto", "No.": 879.0, "Municipio": "Pachuca de Soto", "Rubro": "Infraestructura Hídrica", "Ejercicio": 2024.0, "Obra": "Construcción del Dren Pluvial Norponiente, en el municipio de Pachuca de Soto.", "Localidad": "Pachuca de Soto", "Inversión": 24987511.05, "Habitantes.beneficiados": null, "Ejecutora": "DGIVC", "Trabajos": "Considera los trabajos de Canal Rectangular Revestida.", "Geometria_tipo": "Línea" }, "geometry": { "type": "LineString", "coordinates": [ [ -98.785691831666455, 20.092117749734111 ], [ -98.778882111049583, 20.090005004807189 ], [ -98.778796119677821, 20.08906073092367 ], [ -98.77820968662617, 20.088817272503441 ] ] } },
{ "type": "Feature", "properties": { "ID_OBRA": "890_Pachuca de Soto", "No.": 890.0, "Municipio": "Pachuca de Soto", "Rubro": "Infraestructura Hídrica", "Ejercicio": 2024.0, "Obra": "Construcción del dren pluvial Norponiente, en el municipio de Pachuca de Soto.", "Localidad": "Pachuca de Soto", "Inversión": 42854334.85, "Habitantes.beneficiados": null, "Ejecutora": "DGEP", "Trabajos": "Considera los trabajos de Canal Rectangular Revestida.", "Geometria_tipo": "Línea" }, "geometry": { "type": "LineString", "coordinates": [ [ -98.785617825797317, 20.092153016342639 ], [ -98.778882111049583, 20.090005004807189 ], [ -98.778796119677821, 20.08906073092367 ], [ -98.776955438467624, 20.088312336793638 ] ] } },
{ "type": "Feature", "properties": { "ID_OBRA": "903_Pachuca de Soto", "No.": 903.0, "Municipio": "Pachuca de Soto", "Rubro": "Infraestructura Hídrica", "Ejercicio": 2025.0, "Obra": "Construcción del Dren pluvial Santa Julia, municipio de Pachuca de Soto (Primera etapa)", "Localidad": "Pachuca de Soto", "Inversión": 38000000.0, "Habitantes.beneficiados": null, "Ejecutora": "SIPDUS", "Trabajos": null, "Geometria_tipo": "Línea" }, "geometry": { "type": "LineString", "coordinates": [ [ -98.752821263934322, 20.113072566463249 ], [ -98.755607012840116, 20.110961020926091 ], [ -98.757035799595982, 20.108445668938899 ], [ -98.758695146828686, 20.106733926937579 ], [ -98.760332304111017, 20.10561404510133 ], [ -98.76163587667476, 20.102704629012081 ], [ -98.76441197922162, 20.099725624197749 ] ] } },
{ "type": "Feature", "properties": { "ID_OBRA": "906_Pachuca de Soto", "No.": 906.0, "Municipio": "Pachuca de Soto", "Rubro": "Infraestructura Hídrica", "Ejercicio": 2025.0, "Obra": "Terminación de la Construcción del Dren Pluvial San Antonio - Rio de Las Avenidas, en los municipios de Pachuca de Soto y Mineral de la Reforma", "Localidad": "Pachuca de Soto", "Inversión": 78000000.0, "Habitantes.beneficiados": null, "Ejecutora": "SIPDUS", "Trabajos": null, "Geometria_tipo": "Línea" }, "geometry": { "type": "LineString", "coordinates": [ [ -98.793663962571799, 20.04279181960187 ], [ -98.795282256496861, 20.040219047036821 ], [ -98.792731538967246, 20.03947779771709 ], [ -98.781722092386772, 20.037444165143821 ], [ -98.780373877578668, 20.03654433031328 ], [ -98.758337635377302, 20.024388749711409 ] ] } },
{ "type": "Feature", "properties": { "ID_OBRA": "907_Pachuca de Soto", "No.": 907.0, "Municipio": "Pachuca de Soto", "Rubro": "Infraestructura Hídrica", "Ejercicio": 2025.0, "Obra": "Terminación de la Construcción del Dren pluvial Norponiente, en el municipio de Pachuca de Soto", "Localidad": "Pachuca de Soto", "Inversión": 60000000.0, "Habitantes.beneficiados": null, "Ejecutora": "SIPDUS", "Trabajos": null, "Geometria_tipo": "Línea" }, "geometry": { "type": "LineString", "coordinates": [ [ -98.785617825797317, 20.092153016342639 ], [ -98.778882111049583, 20.090005004807189 ], [ -98.778796119677821, 20.08906073092367 ], [ -98.775867028356984, 20.087902130218708 ] ] } },
{ "type": "Feature", "properties": { "ID_OBRA": "1002_San Bartolo Tutotepec", "No.": 1002.0, "Municipio": "San Bartolo Tutotepec", "Rubro": "Infraestructura Hídrica", "Ejercicio": 2023.0, "Obra": "Construcción de drenaje pluvial (alcantarilla tipo bóveda) en Camino de Acceso principal a la Localidad El Piñal, San Bartolo Tutotepec.", "Localidad": "El Piñal", "Inversión": 7691446.13, "Habitantes.beneficiados": 84.0, "Ejecutora": "SIPDUS", "Trabajos": "Considera los trabajos de excavaciones y rellenos, descargas domiciliarias, pozos de visita, red de drenaje.", "Geometria_tipo": "Línea" }, "geometry": { "type": "LineString", "coordinates": [ [ -98.178559779878427, 20.51881452732184 ], [ -98.178205193264205, 20.518933621222629 ] ] } },
{ "type": "Feature", "properties": { "ID_OBRA": "625_Molango de Escamilla", "No.": 625.0, "Municipio": "Molango de Escamilla", "Rubro": "Infraestructura Hídrica", "Ejercicio": 2024.0, "Obra": "Construcción de línea de conducción de agua potable de la captación Río Claro a tanque de regulación, en el municipio de Molango de Escamilla.", "Localidad": "Molango de Escamilla", "Inversión": 36541794.58, "Habitantes.beneficiados": 4995.0, "Ejecutora": "DGCCE", "Trabajos": "Considera los trabajos de mejoramiento en Infraestructura hídrica en la localidad de Molango de Escamilla  municipio de Molango de Escamilla", "Geometria_tipo": "Línea" }, "geometry": { "type": "LineString", "coordinates": [ [ -98.775521144561054, 20.79788781486695 ], [ -98.774101026466198, 20.796191076969929 ], [ -98.772554748082797, 20.796148704191559 ], [ -98.772098960369192, 20.796102658731201 ], [ -98.771699484847375, 20.79599923223007 ], [ -98.771205037841767, 20.795871215790381 ], [ -98.770523964142313, 20.795698352122479 ], [ -98.768362028680301, 20.792844381293801 ], [ -98.766407693758651, 20.792938338812771 ], [ -98.765649594538743, 20.79592004164757 ], [ -98.763426615109537, 20.79678152763282 ], [ -98.761735939578585, 20.797452657048279 ], [ -98.75956608181437, 20.797589803914011 ], [ -98.758309446070783, 20.798750978177569 ], [ -98.757586601032543, 20.801350689078191 ], [ -98.756051900349249, 20.802873542672959 ], [ -98.755209130244879, 20.804392647600821 ], [ -98.753588036092751, 20.80423486061877 ], [ -98.752554972546605, 20.805387004478369 ], [ -98.751269549717307, 20.805667064835919 ], [ -98.749996083567794, 20.806285927176909 ], [ -98.74860142813499, 20.80709496805499 ] ] } },
{ "type": "Feature", "properties": { "ID_OBRA": "643_Omitlán de Juárez", "No.": 643.0, "Municipio": "Omitlán de Juárez", "Rubro": "Infraestructura Hídrica", "Ejercicio": 2022.0, "Obra": "Construcción de línea de conducción de agua potable tramo La Atarjea - El Tejocote - Bo El Piojo, municipio de Omitlán de Juárez, etapa uno de dos.", "Localidad": "El Tejocote", "Inversión": 2027104.81, "Habitantes.beneficiados": 102.0, "Ejecutora": "CEAA", "Trabajos": "Considera los trabajos de instalación de tubería, rellenos con material producto de excavación, prueba de la tubería en la comunidad.", "Geometria_tipo": "Línea" }, "geometry": { "type": "LineString", "coordinates": [ [ -98.647213619788232, 20.151936283276029 ], [ -98.647406282408667, 20.152051121096861 ], [ -98.647439888387893, 20.152098096837189 ], [ -98.647508015820378, 20.152177046059389 ], [ -98.647540922976901, 20.152239329039499 ], [ -98.647555810550259, 20.152300923298519 ], [ -98.647552239126796, 20.152361229024081 ], [ -98.64755001026775, 20.15242385182799 ], [ -98.647547348715079, 20.152502476043981 ], [ -98.647544147359667, 20.152597035669249 ], [ -98.647542008776369, 20.15266020295012 ], [ -98.64752149425415, 20.152722492176629 ], [ -98.647518792875459, 20.15280174243555 ], [ -98.647497665558831, 20.152880211374569 ], [ -98.647494933310625, 20.152959802713479 ], [ -98.647492743605255, 20.153023592839091 ], [ -98.647546274949931, 20.153073918939999 ], [ -98.647653410589143, 20.153141323205169 ], [ -98.6477058130194, 20.153190110379779 ], [ -98.647776351515702, 20.15323936939944 ], [ -98.64782823607726, 20.153304089808849 ], [ -98.647862665663979, 20.153352577945789 ], [ -98.647914087682324, 20.153433363687618 ], [ -98.647985093956038, 20.153483162588689 ], [ -98.648056237796823, 20.15353314255097 ], [ -98.648108716012771, 20.153598631164918 ], [ -98.648144061667509, 20.153631645493359 ], [ -98.64821382391392, 20.1537297964625 ], [ -98.648248446580425, 20.15379525883661 ], [ -98.648265813552854, 20.153878387886198 ], [ -98.64830158479694, 20.1539622976576 ], [ -98.648318078846899, 20.15404426655617 ], [ -98.648334597550402, 20.154126354910179 ], [ -98.64829796003518, 20.154242844009751 ], [ -98.648259815815919, 20.154324068667119 ], [ -98.648221577885238, 20.154405491188729 ], [ -98.648202227616778, 20.154488201248711 ], [ -98.64818320470674, 20.154537661711409 ], [ -98.648182363054119, 20.154638019521531 ], [ -98.648200283224412, 20.154722327318328 ], [ -98.648255535193883, 20.154791073712151 ], [ -98.648328262779373, 20.15487620459939 ], [ -98.648381882116894, 20.154926541010589 ], [ -98.648454297895583, 20.154994518482059 ], [ -98.648510592922477, 20.155081001752588 ], [ -98.648546369449804, 20.15516506469152 ], [ -98.648599991436114, 20.15523223703622 ], [ -98.648635638550914, 20.155282543175861 ], [ -98.648726148167455, 20.155333795981171 ], [ -98.648799017307724, 20.155368510853901 ], [ -98.648834933624272, 20.155435826955809 ], [ -98.648852336769281, 20.15551943298296 ], [ -98.648869935018723, 20.155586428199989 ], [ -98.648905864020392, 20.155653761147651 ], [ -98.648941959407836, 20.155704398081632 ], [ -98.649013679434049, 20.155754893254681 ], [ -98.64903088053623, 20.155821637291741 ], [ -98.649047539302259, 20.155904938678091 ], [ -98.649028550462759, 20.155988543697049 ], [ -98.649045240255163, 20.156072198224251 ], [ -98.649044317958683, 20.15613929077173 ], [ -98.649079178823484, 20.156206414769219 ], [ -98.649096194756581, 20.156273705717449 ], [ -98.649113241025049, 20.156341118277599 ], [ -98.649112808800723, 20.156391822783281 ], [ -98.649112059209514, 20.156493360621042 ], [ -98.649093409880464, 20.15656112775622 ], [ -98.649092664932809, 20.156645940818962 ], [ -98.649109861483652, 20.156747868565692 ], [ -98.649109127290856, 20.156832936355858 ], [ -98.649108685918307, 20.156884032864681 ], [ -98.649089826065648, 20.156969287157771 ], [ -98.649089076496182, 20.15705465836778 ], [ -98.649070824577066, 20.157122812699129 ], [ -98.649070762938436, 20.157207981636269 ], [ -98.649033713310317, 20.157276539620479 ], [ -98.649033394382812, 20.15734489998243 ], [ -98.64901452158874, 20.157447677028451 ], [ -98.64901411659983, 20.157533269419769 ], [ -98.649032118397869, 20.157618722901908 ], [ -98.649050282435581, 20.157669923509811 ], [ -98.649049889232614, 20.15775563671929 ], [ -98.649049357395981, 20.157858636632909 ], [ -98.649030206386897, 20.157910946867251 ], [ -98.649028989471631, 20.157997862669969 ], [ -98.649009040998763, 20.15810270188685 ], [ -98.648989791947244, 20.158155391364911 ], [ -98.648969624669135, 20.158243683169541 ], [ -98.649043351095798, 20.158294414945939 ], [ -98.649134953857669, 20.158362812070589 ], [ -98.649189236228068, 20.158415341301641 ], [ -98.649280157159438, 20.158468005031249 ], [ -98.649334425193047, 20.158521022799601 ], [ -98.649387912588878, 20.158593477894069 ], [ -98.649423404191992, 20.158648420751579 ], [ -98.64943966276752, 20.158740771976731 ], [ -98.649456505383668, 20.15881481566705 ], [ -98.64947305153791, 20.158907758606421 ], [ -98.649489687948702, 20.159001207550411 ], [ -98.649506800650187, 20.15907628219572 ], [ -98.649505257509617, 20.15915194979884 ], [ -98.649539348529487, 20.15928792914276 ], [ -98.649556354259332, 20.159348340800509 ], [ -98.649590358366837, 20.159489345864269 ], [ -98.649739341799304, 20.15961190411635 ], [ -98.649872128084198, 20.15961541447556 ], [ -98.649928895978178, 20.15963758122961 ], [ -98.650062259072172, 20.159658831163561 ], [ -98.65013865925809, 20.15963890306773 ], [ -98.650234026878607, 20.159619083771219 ], [ -98.650329052971443, 20.159558974235111 ], [ -98.650404746803346, 20.159499971700001 ], [ -98.650461218493831, 20.15944135634679 ], [ -98.650517485894611, 20.15938295308953 ], [ -98.650573550364854, 20.15932476021408 ], [ -98.650610490153028, 20.159266346559519 ], [ -98.650628560050436, 20.159208679663159 ], [ -98.650684162540799, 20.15909845901955 ], [ -98.650702282816454, 20.159024817261098 ], [ -98.650739178310289, 20.158951721919951 ], [ -98.650757184509871, 20.15887844586344 ], [ -98.650774817273899, 20.15878660262894 ], [ -98.650811287712742, 20.158713455111041 ], [ -98.650828497387025, 20.158621376232929 ], [ -98.650883917530109, 20.158567783058 ], [ -98.650996096892626, 20.158516728965779 ], [ -98.651071424122023, 20.158483611855559 ], [ -98.651185176797597, 20.158469748764901 ], [ -98.651280153111088, 20.15847251391579 ], [ -98.651394413887644, 20.158458129399449 ], [ -98.65150906851116, 20.15844369558376 ], [ -98.65162432190283, 20.158464758630959 ], [ -98.651720713975223, 20.15848533919214 ], [ -98.65182020777668, 20.158509234206271 ], [ -98.651900159446896, 20.158478558673171 ], [ -98.651981355145466, 20.158466406322809 ], [ -98.652040639797875, 20.158415148696701 ], [ -98.652142502518473, 20.15838557817662 ], [ -98.652244114270488, 20.15833701862293 ], [ -98.65230517818037, 20.15830398324465 ], [ -98.652428629607897, 20.158256138928099 ], [ -98.652529741939148, 20.158241458985771 ], [ -98.652590402551695, 20.158225230513121 ], [ -98.652734592034946, 20.158194575215209 ], [ -98.652838815065252, 20.15818071695556 ], [ -98.652945082938615, 20.15818590923292 ], [ -98.653050529823403, 20.158171941956748 ], [ -98.653178013845093, 20.158158848384691 ], [ -98.653284538055885, 20.158144602389221 ], [ -98.653373253085491, 20.158167962567351 ], [ -98.653505589050283, 20.158174518194841 ], [ -98.653637053227669, 20.158142883865409 ], [ -98.653772047587168, 20.158130842625109 ], [ -98.653861168371208, 20.15813465787291 ], [ -98.653971924576112, 20.158138939235531 ], [ -98.654066322765217, 20.158182334067131 ], [ -98.654138254891137, 20.158224851751569 ], [ -98.654171532172811, 20.158325345974049 ], [ -98.654182912651265, 20.158425701399779 ], [ -98.654234106813561, 20.15848785097775 ], [ -98.654285127055772, 20.158550116461019 ], [ -98.654272325915642, 20.158669105219069 ], [ -98.654254766379495, 20.15872830393501 ], [ -98.654217213849222, 20.158826394673191 ], [ -98.654200080885715, 20.158924624332471 ], [ -98.654204516960448, 20.15902364880672 ], [ -98.654164848502589, 20.159101724735411 ], [ -98.654125150826744, 20.159179857229461 ], [ -98.654086753065215, 20.159258946917809 ], [ -98.654071797539814, 20.159340183151979 ], [ -98.654056798483595, 20.159421654948609 ], [ -98.654020048677864, 20.15950258365709 ], [ -98.65400493451601, 20.159584507189599 ], [ -98.653946286276593, 20.1596650172472 ], [ -98.65388753056277, 20.159745675315051 ], [ -98.653850413876185, 20.159827351904749 ], [ -98.653791391219727, 20.15990827883072 ], [ -98.653729720643042, 20.159986931562319 ], [ -98.653646929897064, 20.1600848151901 ], [ -98.653605530895618, 20.160163031997481 ], [ -98.65354342212855, 20.160241344250771 ], [ -98.653502011549179, 20.160300063574589 ], [ -98.653439886272764, 20.160358879557581 ], [ -98.653398466936025, 20.160437128562361 ], [ -98.653336327691704, 20.16051547974136 ], [ -98.653294897055787, 20.160574226509421 ], [ -98.653235163885256, 20.160655808322151 ], [ -98.653239568242341, 20.160759464783791 ], [ -98.65322231372906, 20.160842714268789 ], [ -98.653203270758397, 20.160884467793629 ], [ -98.653187681456785, 20.16100980485918 ], [ -98.653171170530257, 20.161114609926479 ], [ -98.653132852510566, 20.161198819325339 ], [ -98.653095031004398, 20.161303893492779 ], [ -98.653077386588492, 20.161408027324971 ], [ -98.653059002688849, 20.16149145830974 ], [ -98.653020753197296, 20.161616763120559 ], [ -98.65300296150707, 20.16172162024062 ], [ -98.653005709495943, 20.16180589700414 ], [ -98.652966574215611, 20.161910924639521 ], [ -98.652947370150457, 20.161974223994811 ], [ -98.652909811498432, 20.162063178017259 ], [ -98.652893501294258, 20.162152748005841 ], [ -98.652876325282222, 20.162240953775111 ], [ -98.652879473016853, 20.162327472104199 ], [ -98.652841329094201, 20.162437115833988 ], [ -98.652846005381335, 20.162567683913 ], [ -98.652850220350103, 20.162677538845561 ], [ -98.652855990544836, 20.162791309727702 ], [ -98.652881811225271, 20.162882000101401 ], [ -98.652928930525633, 20.16297229358381 ], [ -98.652933706259461, 20.163064268306659 ], [ -98.652939699260088, 20.163179688428329 ], [ -98.652948133444738, 20.16334212369399 ], [ -98.652969462954459, 20.163422638620808 ], [ -98.652992030527372, 20.163506187202231 ], [ -98.652972428619449, 20.16359269735311 ], [ -98.65297556871036, 20.163702430035141 ], [ -98.652977456028097, 20.1637683878781 ] ] } },
{ "type": "Feature", "properties": { "ID_OBRA": "648_Omitlán de Juárez", "No.": 648.0, "Municipio": "Omitlán de Juárez", "Rubro": "Infraestructura Hídrica", "Ejercicio": 2024.0, "Obra": "Perforación exploratoria y equipamiento de pozo profundo Rincón Chico, en el municipio de Omitlán de Juárez", "Localidad": "Omitlán de Juárez", "Inversión": 11618365.86, "Habitantes.beneficiados": null, "Ejecutora": "DGCCE", "Trabajos": "Considera los trabajos de preliminares, perforación de pozo en la localidad de Omitlán de Juárez municipio de Omitlán de Juárez", "Geometria_tipo": "Línea" }, "geometry": { "type": "LineString", "coordinates": [ [ -98.645942522425372, 20.19224220849053 ], [ -98.646226609919822, 20.193014005496909 ], [ -98.646662420221702, 20.193706401515239 ], [ -98.646989451415592, 20.193730117820071 ], [ -98.64716490934174, 20.193529071781331 ], [ -98.647442955221379, 20.19341278854106 ], [ -98.64763285374282, 20.193382559521829 ], [ -98.647853552348153, 20.19346487937478 ], [ -98.648088162580919, 20.19353284279585 ], [ -98.64822680410505, 20.193305940896991 ], [ -98.648389025940801, 20.193120372017461 ], [ -98.648500804059466, 20.19282639809488 ], [ -98.648578197139727, 20.19256345922577 ], [ -98.648530741516694, 20.19238737464887 ], [ -98.648349496138295, 20.192171509312161 ], [ -98.648185802906326, 20.19187460101687 ], [ -98.647988145999136, 20.19144149821609 ], [ -98.647948675045157, 20.190993200166179 ], [ -98.647981012300747, 20.19058418094837 ], [ -98.64809510229918, 20.19020570491659 ], [ -98.648215400995923, 20.189739684369361 ], [ -98.648418249919914, 20.18918241273041 ], [ -98.648520456229818, 20.18884160462941 ], [ -98.648624673569884, 20.188457087533159 ], [ -98.648666443499849, 20.188024293776959 ], [ -98.648536984896069, 20.187791559458631 ], [ -98.648258315521559, 20.187431048032579 ], [ -98.647885477387987, 20.18707966085789 ], [ -98.647722956644941, 20.18680878213463 ], [ -98.647706778215394, 20.18670664001155 ], [ -98.648020416729707, 20.186711544099751 ], [ -98.648191441335584, 20.186596108533859 ], [ -98.648377414050813, 20.186327470379069 ], [ -98.648620097741002, 20.186113053679112 ], [ -98.648676848350334, 20.185858822619998 ], [ -98.648790437028794, 20.185591807228761 ], [ -98.648861586221386, 20.185324424708259 ], [ -98.64896052152973, 20.185071824665052 ], [ -98.64901678992787, 20.18485940314762 ], [ -98.649016539640769, 20.184646374585231 ], [ -98.649044033351586, 20.184208579238721 ], [ -98.649099508837153, 20.183892617589748 ], [ -98.649113042796728, 20.18381471229614 ], [ -98.649777975293333, 20.18390614593206 ], [ -98.649919297614858, 20.183677285680972 ], [ -98.650137901141676, 20.183470254816761 ] ] } },
{ "type": "Feature", "properties": { "ID_OBRA": "650_Omitlán de Juárez", "No.": 650.0, "Municipio": "Omitlán de Juárez", "Rubro": "Infraestructura Hídrica", "Ejercicio": 2023.0, "Obra": "Rehabilitación de línea de conducción de sistema de agua potable Morelos - Rincón Chico en el municipio de Omitlan de Juárez, Hidalgo.", "Localidad": "Rincón Chico", "Inversión": 11405040.15, "Habitantes.beneficiados": 433.0, "Ejecutora": "CEAA", "Trabajos": "Considera los trabajos de instalación de tubería, rellenos con material producto de excavación, prueba de la tubería en la comunidad.", "Geometria_tipo": "Línea" }, "geometry": { "type": "LineString", "coordinates": [ [ -98.664849660522208, 20.206829851556389 ], [ -98.665023341373725, 20.206043196319499 ], [ -98.664992809120406, 20.205886492935161 ], [ -98.664942357797756, 20.205627549776821 ], [ -98.665035814452139, 20.205446645663869 ], [ -98.665088622228993, 20.205265034224372 ], [ -98.665019344604346, 20.205112918677361 ], [ -98.66482922826782, 20.204990218097269 ], [ -98.664657671329877, 20.204765348014391 ], [ -98.66467703617694, 20.204630782874219 ], [ -98.664848855121903, 20.204389447154639 ], [ -98.664926905083178, 20.204355947910891 ], [ -98.665091617718488, 20.204107310461449 ], [ -98.665264215111378, 20.203906717817301 ], [ -98.665381038209318, 20.20365032211318 ], [ -98.665470054527731, 20.203479108509551 ], [ -98.665500090782999, 20.203248907738189 ], [ -98.665583031478548, 20.20292577869586 ], [ -98.665596440038129, 20.20261402961437 ], [ -98.66563325885609, 20.20243462121342 ], [ -98.665635838072632, 20.20225993831032 ], [ -98.665588951300435, 20.202005086984101 ], [ -98.665576176468988, 20.20174938407937 ], [ -98.665514715169792, 20.201416448646039 ], [ -98.665438066181707, 20.201208117418371 ], [ -98.665238125636705, 20.200916344507011 ], [ -98.665078945444819, 20.200631352667038 ], [ -98.664734633258789, 20.20027280361435 ], [ -98.664520337345152, 20.20013458664274 ], [ -98.664297946983964, 20.200021943972018 ], [ -98.66411199893065, 20.200009063636202 ], [ -98.663789066992351, 20.19992358021355 ], [ -98.663455255975336, 20.19992090396304 ], [ -98.663304217702262, 20.19993542882834 ], [ -98.66309618584431, 20.200024285628551 ], [ -98.662770180726952, 20.20009284990142 ], [ -98.662611718926868, 20.20013784079498 ], [ -98.662375230370387, 20.200215321993749 ], [ -98.66234562321722, 20.20022131066575 ], [ -98.66208404783535, 20.200316426353869 ], [ -98.66194454146904, 20.200426332863749 ], [ -98.661771193244093, 20.200540813137248 ], [ -98.661570809591623, 20.20070411967237 ], [ -98.661455701619303, 20.200776557945449 ], [ -98.661337108459335, 20.200813028438379 ], [ -98.661191623947218, 20.200898482705689 ], [ -98.661044537924212, 20.200984878049869 ], [ -98.660830525073507, 20.201051244499538 ], [ -98.660668442861336, 20.20101865911781 ], [ -98.66055212352444, 20.20090329763477 ], [ -98.660500949980559, 20.200741810133032 ], [ -98.660468893298543, 20.200418254300189 ], [ -98.660456978353821, 20.200297995060211 ], [ -98.660433320377265, 20.20005921078884 ], [ -98.660444144614971, 20.19982108046273 ], [ -98.6604626787489, 20.199663106890291 ], [ -98.660477175477268, 20.199467516230971 ], [ -98.660491552684391, 20.19927353896972 ], [ -98.660505811722203, 20.199081154880059 ], [ -98.660553509539966, 20.198888919479341 ], [ -98.660567232348185, 20.19869945816021 ], [ -98.660618376018931, 20.198547817585801 ], [ -98.660667957016173, 20.19839550023401 ], [ -98.660716296630753, 20.19827428227882 ], [ -98.660783738879857, 20.19807289413539 ], [ -98.66087108119477, 20.197796657982149 ], [ -98.660917087898966, 20.197679187657219 ], [ -98.660978565494162, 20.197451090274459 ], [ -98.661025062622357, 20.19733778805945 ], [ -98.661111995026943, 20.197108164805289 ], [ -98.66116035200983, 20.197030292701371 ], [ -98.661220231211075, 20.196842620317408 ], [ -98.661279321782629, 20.196657417410979 ], [ -98.661396504273213, 20.196470051262789 ], [ -98.661384242999588, 20.19640038554957 ], [ -98.661493368411712, 20.196182383873708 ], [ -98.661626878775039, 20.195796253988689 ], [ -98.66168741101427, 20.195657689164371 ], [ -98.661753592908795, 20.19555335607313 ], [ -98.661862647756692, 20.19538144087775 ], [ -98.661884273551394, 20.19534735009734 ], [ -98.66194237849183, 20.195213613293461 ], [ -98.662006309112428, 20.19511300957501 ], [ -98.662109705011034, 20.19491843728504 ], [ -98.662171489878432, 20.194792297652491 ], [ -98.662199411484863, 20.194665375507299 ], [ -98.662218682112865, 20.194508199151649 ], [ -98.662297640348939, 20.194353372389141 ], [ -98.662294168207964, 20.19423013228668 ], [ -98.662320571824196, 20.194108372112709 ], [ -98.662389354502011, 20.193928145567501 ], [ -98.662436121671533, 20.193779772704289 ], [ -98.66246661551736, 20.193690451223478 ], [ -98.662477378193714, 20.1935425973824 ], [ -98.662511567628627, 20.193430412757269 ], [ -98.66249042597326, 20.193232903487019 ], [ -98.662495964281462, 20.193148660728571 ], [ -98.662473083466637, 20.193064864982329 ], [ -98.662335795085724, 20.192871207266521 ], [ -98.662162251987482, 20.192735248851911 ], [ -98.661940018204405, 20.192475236848001 ], [ -98.661657453303064, 20.19226654272709 ], [ -98.661622352690443, 20.192139517496589 ], [ -98.661636264905894, 20.19198693483909 ], [ -98.661625278339116, 20.191835292109481 ], [ -98.661640956558955, 20.19170911837303 ], [ -98.661610691671996, 20.191633948157548 ], [ -98.661601610154221, 20.191508596765591 ], [ -98.661568317395236, 20.19143353177051 ], [ -98.661536649936551, 20.191234265254739 ], [ -98.66155838192492, 20.191134751017149 ], [ -98.661532138896419, 20.190985571968358 ], [ -98.661507235479121, 20.190910897302309 ], [ -98.661480971835346, 20.19076161178354 ], [ -98.661479630466573, 20.19068709023222 ], [ -98.6614542568594, 20.19058744998312 ], [ -98.661403905262361, 20.190412832429871 ], [ -98.661354803914818, 20.19031252735957 ], [ -98.661300907470689, 20.190162977628841 ], [ -98.661248322117714, 20.190038073749971 ], [ -98.661194170492934, 20.189888506783589 ], [ -98.661140441019043, 20.189763753710949 ], [ -98.661086701515998, 20.189638977213448 ], [ -98.661058939061434, 20.189539442403341 ], [ -98.661031760988323, 20.189414824223579 ], [ -98.661008183647425, 20.189288981208541 ], [ -98.661005530749989, 20.189165229390099 ], [ -98.66095176214597, 20.18906531381247 ], [ -98.660897981977556, 20.188965379865142 ], [ -98.660818831267875, 20.188889603516898 ], [ -98.660816780698269, 20.188790733353891 ], [ -98.660790391955558, 20.188765455549969 ], [ -98.660783753755595, 20.188569196267871 ], [ -98.660778165925493, 20.1884972994187 ], [ -98.660769175284088, 20.188402492621709 ], [ -98.660781869512718, 20.188261354971431 ], [ -98.660719647970268, 20.188142311754049 ], [ -98.660608250640948, 20.188045662790501 ], [ -98.660471098541535, 20.187948530760529 ], [ -98.660365063273176, 20.187922826648919 ], [ -98.660255050793523, 20.187875105978481 ], [ -98.660167597851071, 20.187781281021671 ], [ -98.660082366527092, 20.187710867424109 ], [ -98.659997311243345, 20.187640599686929 ], [ -98.659963674957112, 20.187547741688821 ], [ -98.659902285969849, 20.187407091648168 ], [ -98.659894351877185, 20.187315965318199 ], [ -98.659861803016625, 20.187223395433719 ], [ -98.659800842783923, 20.187084083684368 ], [ -98.659717597114508, 20.18699000747786 ], [ -98.659557517477793, 20.18689336305453 ], [ -98.659423202671832, 20.186797689738629 ], [ -98.659289147356773, 20.186701926605739 ], [ -98.659186177601271, 20.186625021303929 ], [ -98.659108411132422, 20.18654950825092 ], [ -98.658979534465772, 20.18644664751735 ], [ -98.658877287230723, 20.186392007936881 ], [ -98.658750407079566, 20.186358342791859 ], [ -98.65862468200018, 20.186371091216831 ], [ -98.658472835346828, 20.186381801513761 ], [ -98.658344990016005, 20.18637126609136 ], [ -98.658268013152934, 20.186364922747831 ], [ -98.658165055940799, 20.186356438711591 ], [ -98.658034502057902, 20.18629877202401 ], [ -98.657980475057244, 20.186224439522139 ], [ -98.657927828612273, 20.186196854833149 ] ] } },
{ "type": "Feature", "properties": { "ID_OBRA": "937_Pacula", "No.": 937.0, "Municipio": "Pacula", "Rubro": "Infraestructura Hídrica", "Ejercicio": 2025.0, "Obra": "Terminación de la construcción de línea Conducción para agua potable, derivación La Puerta-Jiliapan, Los Fresnos, Canoas y Jiliapan en el municipio de Pacula", "Localidad": "Pacula", "Inversión": 10000000.0, "Habitantes.beneficiados": null, "Ejecutora": "SIPDUS", "Trabajos": null, "Geometria_tipo": "Línea" }, "geometry": { "type": "LineString", "coordinates": [ [ -99.305915815244902, 20.985464176152011 ], [ -99.306226493143214, 20.985294790403248 ], [ -99.306385306950659, 20.985272140920209 ], [ -99.306491459902105, 20.985214573807191 ], [ -99.306624087073274, 20.98520623966299 ], [ -99.30670375599658, 20.985226726315339 ], [ -99.306876294774312, 20.98529278378329 ], [ -99.307035715153276, 20.985334503698681 ], [ -99.307169017558323, 20.985390840988622 ], [ -99.307262621411979, 20.985436847162401 ], [ -99.307396747464566, 20.98549354407924 ], [ -99.307504505683184, 20.985564975311799 ], [ -99.307625897974532, 20.98559689068561 ], [ -99.307760836798863, 20.98558909069925 ], [ -99.307882270186624, 20.985556040046699 ], [ -99.307990023092302, 20.985497737606671 ], [ -99.308124759276637, 20.98542483499207 ], [ -99.308191721699842, 20.985355926328541 ], [ -99.308385152159516, 20.985250338330271 ], [ -99.308551702720422, 20.98515918053273 ], [ -99.308687111706462, 20.985085687265389 ], [ -99.308862246577959, 20.98502353934153 ], [ -99.309010814019487, 20.984975790476451 ], [ -99.309159580572953, 20.984927976790161 ], [ -99.309281660249951, 20.984894616732799 ], [ -99.309447858709532, 20.984935357656941 ], [ -99.309501743839007, 20.984906284757422 ], [ -99.309710283274015, 20.98495733041597 ], [ -99.309878420318881, 20.984997161709469 ], [ -99.309992902603454, 20.985065783003989 ], [ -99.310119373958244, 20.985095551951041 ], [ -99.310276244131316, 20.985174204195559 ], [ -99.310418115944231, 20.985228491595109 ], [ -99.310559880609915, 20.985283839012151 ], [ -99.310686685820471, 20.985315121121481 ], [ -99.310828996361735, 20.985370894244021 ], [ -99.310998955783333, 20.985409457671139 ], [ -99.311169040968565, 20.98545049144861 ], [ -99.311339595661465, 20.985492388402811 ], [ -99.31149850131294, 20.98557368298221 ], [ -99.311642453601891, 20.985630250428631 ], [ -99.311786753786649, 20.985686954592989 ], [ -99.311872915479242, 20.985708349780129 ], [ -99.31205813702023, 20.985712421789952 ], [ -99.312256241294975, 20.98567681697341 ], [ -99.312399213550265, 20.98566989873779 ], [ -99.312554805850908, 20.985623155990289 ], [ -99.312770667610181, 20.985612626420689 ], [ -99.312959236300671, 20.985616551072411 ], [ -99.313112865591151, 20.985565571493709 ], [ -99.313300052165076, 20.98556709348113 ], [ -99.313428192878533, 20.9855332620293 ], [ -99.313556499944241, 20.985499386398889 ], [ -99.313757468944175, 20.98546132144498 ], [ -99.313858124183625, 20.98544225634566 ], [ -99.313975375558257, 20.985448859950768 ], [ -99.314172996733689, 20.985407747271719 ], [ -99.314279123423475, 20.985343979901 ], [ -99.314368518674726, 20.985254974985889 ], [ -99.314457573244283, 20.985166308099021 ], [ -99.314539797809871, 20.985011730530211 ], [ -99.314592165955531, 20.984980408120311 ], [ -99.314725779442497, 20.98479585896083 ], [ -99.314806652265204, 20.984643444486661 ], [ -99.314893738160322, 20.984556959915899 ], [ -99.315005785884324, 20.984455403449921 ], [ -99.315067370462117, 20.984385095450989 ], [ -99.315182635161705, 20.984285270519969 ], [ -99.315323925851331, 20.984170815799821 ], [ -99.315412177326138, 20.984086476448471 ], [ -99.315552692845387, 20.983972669227541 ], [ -99.315640412382933, 20.98388881354796 ], [ -99.31574466744226, 20.983829629243541 ], [ -99.315848572774343, 20.983770535910161 ], [ -99.316024415885266, 20.983706751847901 ], [ -99.316147835503699, 20.98367242333369 ], [ -99.316263955165084, 20.983677339008661 ], [ -99.316451435757671, 20.98367734052005 ], [ -99.316659992227684, 20.9837020724589 ], [ -99.316806986226965, 20.983692481496291 ], [ -99.316986449573932, 20.983628520989811 ], [ -99.317050335878491, 20.98352022717194 ], [ -99.317161128996929, 20.98342217138665 ], [ -99.317219045048333, 20.98335375399115 ], [ -99.317254489267427, 20.983261327582351 ], [ -99.317345092288207, 20.98310177426205 ], [ -99.317400385375095, 20.982933584691501 ], [ -99.3175283719427, 20.982861390703029 ], [ -99.317691398406055, 20.98283695765975 ], [ -99.317854390539978, 20.982812528802711 ], [ -99.318023126839492, 20.982787673574592 ], [ -99.318167619330865, 20.98277713219349 ], [ -99.318312413324151, 20.982766569652991 ], [ -99.318459439148242, 20.982718095629661 ], [ -99.318597622385752, 20.98270802491993 ], [ -99.318671718285771, 20.982664936450959 ], [ -99.318799123423446, 20.982592893213969 ], [ -99.318880029185081, 20.982511922052169 ], [ -99.318991078595701, 20.98241629309894 ], [ -99.31906946555317, 20.98237304962959 ], [ -99.319128009712955, 20.98230645617036 ], [ -99.319224988177524, 20.98215037919222 ], [ -99.31929556234526, 20.982009311990581 ], [ -99.319385649961845, 20.981891807271921 ], [ -99.319475452998873, 20.98177467434429 ], [ -99.319581182504564, 20.981717277538039 ], [ -99.319663306232215, 20.981673698511791 ], [ -99.319845646866852, 20.981645629474251 ], [ -99.320001283271793, 20.98163203226974 ], [ -99.32039381044774, 20.98133743101079 ], [ -99.320603008181678, 20.981026215839801 ], [ -99.320701295202582, 20.980940878454138 ], [ -99.320786578416431, 20.980902868450681 ], [ -99.320869528396912, 20.98078329101147 ], [ -99.320965141389735, 20.980619734711141 ], [ -99.321063474985039, 20.98053433180435 ], [ -99.321161860810932, 20.980448882879578 ], [ -99.321215866479179, 20.980344544225559 ], [ -99.32126339783764, 20.980085968419761 ], [ -99.321285435507207, 20.979919034271749 ], [ -99.321250726049513, 20.979779625982019 ], [ -99.321257000450231, 20.979581677246578 ], [ -99.321278858596074, 20.979417738367552 ], [ -99.321331958122144, 20.979312445250631 ], [ -99.321397315129346, 20.979162854958009 ], [ -99.321478089810014, 20.979040150690391 ], [ -99.321534079236855, 20.979006846751311 ], [ -99.321654184578136, 20.97881614794883 ], [ -99.321745676478542, 20.978643293434072 ], [ -99.321911903149939, 20.978544935004528 ], [ -99.322006623121197, 20.978451077531329 ], [ -99.322101287891869, 20.978359181635799 ], [ -99.322279153786681, 20.978224758050281 ], [ -99.32234172080787, 20.978079290647479 ], [ -99.322404053423995, 20.97793436664778 ], [ -99.322466153642353, 20.977789983000449 ], [ -99.322544069241303, 20.97767400368576 ], [ -99.32261783093621, 20.97749095034801 ], [ -99.32256434634148, 20.977334809008859 ], [ -99.322555109840337, 20.977195162996878 ], [ -99.322546136309313, 20.97705705670646 ], [ -99.3225107468826, 20.97693714800365 ], [ -99.322514259248024, 20.976762472033101 ], [ -99.322517758035119, 20.97658845524894 ], [ -99.322621624164881, 20.976462058270421 ], [ -99.322729421870889, 20.976402122507739 ], [ -99.322890992357998, 20.97631228893577 ], [ -99.323068055537092, 20.976248098837861 ], [ -99.323133065253302, 20.976177697209408 ], [ -99.323241044786215, 20.97611894693609 ], [ -99.323419313137435, 20.976057349084702 ], [ -99.32358158174253, 20.975969598396951 ], [ -99.32366272089628, 20.975925720440451 ], [ -99.323841319757463, 20.975863982475602 ], [ -99.323900526348922, 20.97572753394752 ], [ -99.323932576535398, 20.975606074916978 ], [ -99.324007809438527, 20.975496137880931 ], [ -99.324142610076905, 20.975423233048222 ], [ -99.324283405406717, 20.975416339785362 ], [ -99.324424239628442, 20.975409183791811 ], [ -99.324572770052839, 20.975358827225978 ], [ -99.32465172620617, 20.97531313425894 ], [ -99.324835587889268, 20.975206733083791 ], [ -99.324969511234983, 20.975133197639419 ], [ -99.325032301976535, 20.97506303425742 ], [ -99.325194603051045, 20.974976178028449 ], [ -99.325275781940718, 20.974932734608501 ], [ -99.325382025905284, 20.974766521039321 ], [ -99.325579224172088, 20.97462462454536 ], [ -99.325722224806057, 20.974511790504931 ], [ -99.325792097438892, 20.974402012986271 ], [ -99.325880776700828, 20.974318431319819 ], [ -99.325998200758477, 20.974221386725219 ], [ -99.326144737237144, 20.974110844079888 ], [ -99.326282238876374, 20.97403972054753 ], [ -99.326401436021314, 20.973943282363109 ], [ -99.326502073066962, 20.973821726872629 ], [ -99.326602580326295, 20.973700328664979 ], [ -99.326675428044481, 20.973593363486 ], [ -99.326821960651571, 20.973482795921711 ], [ -99.326913406730682, 20.973400804481692 ], [ -99.327010228872368, 20.973279258657559 ], [ -99.327099627225181, 20.973197095182829 ], [ -99.327199066875878, 20.973076402547999 ], [ -99.327317113533411, 20.972980228443301 ], [ -99.327389368468161, 20.972874179225609 ], [ -99.327478354621633, 20.97279233465893 ], [ -99.32754925498449, 20.972686483371358 ], [ -99.327611300206442, 20.972619230653802 ], [ -99.327717263158277, 20.972460995540199 ], [ -99.3277611559202, 20.972370123358399 ], [ -99.327857259061972, 20.972150869900801 ], [ -99.327927368933004, 20.97204626849107 ], [ -99.327979366243014, 20.971918348734221 ], [ -99.328075633075628, 20.971799916449779 ], [ -99.328171721335949, 20.971681702939399 ], [ -99.328241242435283, 20.9715779794304 ], [ -99.328334000379826, 20.971460548315171 ], [ -99.328427263251953, 20.971307161352339 ], [ -99.328464992577608, 20.971183406138511 ], [ -99.328568900620809, 20.971126868897102 ], [ -99.328797914587568, 20.971036135901119 ], [ -99.328954024932315, 20.970986897644512 ], [ -99.329068324683732, 20.970892825127521 ], [ -99.329176666893858, 20.97083540706593 ], [ -99.329269667331104, 20.970719185108869 ], [ -99.329362464281317, 20.970603217868501 ], [ -99.329457496391669, 20.970486963434709 ], [ -99.32952571427829, 20.970385163660001 ], [ -99.329600173704065, 20.9702473061257 ], [ -99.329667691147449, 20.970146055634 ], [ -99.329757086108543, 20.970031977852479 ], [ -99.329846233304352, 20.969918214708461 ], [ -99.330011406558512, 20.969797051830099 ], [ -99.330095997415413, 20.969718910795059 ], [ -99.330232032145645, 20.969646744703809 ], [ -99.330334440437611, 20.969624843083011 ], [ -99.330437660752509, 20.969602720377889 ], [ -99.330574609954084, 20.969530164711522 ], [ -99.330568567575355, 20.969436371462979 ], [ -99.330555591892079, 20.96937880115329 ], [ -99.330447401996409, 20.969307666101749 ], [ -99.330679304936297, 20.96924902587287 ], [ -99.330861859725601, 20.96894075980018 ], [ -99.33098748432738, 20.968872838237981 ], [ -99.331099785897962, 20.968782385902969 ], [ -99.331249552220967, 20.96864238933528 ], [ -99.3313222824506, 20.96854353404844 ], [ -99.331385922594322, 20.968538893723679 ], [ -99.331541640194487, 20.968632957898009 ], [ -99.331645295348608, 20.968696014670439 ], [ -99.331762827263518, 20.96878198477377 ], [ -99.331867563624485, 20.9688454900968 ], [ -99.33203678377825, 20.968904653584321 ], [ -99.332128539498285, 20.968945738742541 ], [ -99.332259616773939, 20.968996127012019 ], [ -99.332365607966707, 20.969060830866681 ], [ -99.332511490885651, 20.96913522644142 ], [ -99.332629926080941, 20.969163455347971 ], [ -99.332799659567883, 20.9691643730803 ], [ -99.332930281258655, 20.969156175567189 ], [ -99.333115024173154, 20.96917922615944 ], [ -99.333262041223833, 20.969195634375701 ], [ -99.333404887156775, 20.969149644580579 ], [ -99.333547915530772, 20.969103595932079 ], [ -99.33369112601369, 20.969057488869261 ], [ -99.333824261059021, 20.96904890143913 ], [ -99.333973368741596, 20.96906398238426 ], [ -99.334123236449798, 20.969079139560669 ], [ -99.33422222659415, 20.969122541356139 ], [ -99.334363673872915, 20.96917605888623 ], [ -99.334447749767619, 20.969195878079969 ], [ -99.334637788009786, 20.969159670263188 ], [ -99.334795707518509, 20.96907512355396 ], [ -99.334919799643416, 20.968942435399029 ], [ -99.33498169837307, 20.96887624821845 ], [ -99.335052688972596, 20.968772335861502 ], [ -99.335166810032518, 20.96867831335528 ], [ -99.335237304703597, 20.968574995358569 ], [ -99.335368411434601, 20.968504672697669 ], [ -99.335506679479138, 20.968396930979392 ], [ -99.335565394322686, 20.96833162229834 ], [ -99.335717672031947, 20.968247572689759 ], [ -99.335905591603236, 20.968209597071091 ], [ -99.336016609039319, 20.968213680993319 ], [ -99.336188523567742, 20.96825002244578 ], [ -99.336352393559423, 20.968324069582518 ], [ -99.336466879693958, 20.968427066910358 ], [ -99.336484835398224, 20.968450614522979 ], [ -99.336638953145382, 20.96860234848489 ], [ -99.336730506781777, 20.968722158352481 ], [ -99.336821113973244, 20.968842864638582 ], [ -99.336937749173089, 20.968949876239709 ], [ -99.336979164186317, 20.969102017154881 ], [ -99.337071933983921, 20.96922580271405 ], [ -99.337121171114262, 20.9693405478227 ], [ -99.337169696841201, 20.969455886399579 ], [ -99.337262734507362, 20.969582132321559 ], [ -99.33733697595855, 20.969683633596269 ], [ -99.33743555717912, 20.969769865006811 ], [ -99.337577724390002, 20.96986634163796 ], [ -99.337701811754116, 20.969937532834152 ], [ -99.337799623069913, 20.970067736474959 ], [ -99.337850891184473, 20.970187754002581 ], [ -99.337874845333488, 20.970323710971851 ], [ -99.337898962807813, 20.970460594144971 ], [ -99.337895396053653, 20.970613657104021 ], [ -99.337941308532521, 20.970734375212071 ], [ -99.337959225285218, 20.970870835383071 ], [ -99.337978082111022, 20.971008310330959 ], [ -99.338005991493404, 20.971103979137592 ], [ -99.33799891907239, 20.97125906657001 ], [ -99.338038130487647, 20.971426276839509 ], [ -99.338058836557607, 20.971567303804321 ], [ -99.338006498288266, 20.97171433805007 ], [ -99.337999962647388, 20.971873279948198 ], [ -99.338001869240628, 20.971988976893279 ], [ -99.338003783880239, 20.972105166292529 ], [ -99.338016154653033, 20.972294370063938 ], [ -99.33799056374275, 20.972428582368369 ], [ -99.33800260280448, 20.97261974975099 ], [ -99.337975533051633, 20.97275447112807 ], [ -99.337883590862376, 20.972850637676419 ], [ -99.337819300513814, 20.97293020098002 ], [ -99.337704003273018, 20.973048658762039 ], [ -99.337609950014752, 20.97319950793678 ], [ -99.337598785288776, 20.97336421836258 ], [ -99.337522861441528, 20.97349035454744 ], [ -99.337511307154855, 20.973656290027801 ], [ -99.337574484453128, 20.973816328394442 ], [ -99.33765116159347, 20.973934417682489 ], [ -99.337693003451108, 20.974120808123551 ], [ -99.337763548741137, 20.974290604622389 ], [ -99.337836731911636, 20.97446409358853 ], [ -99.337889851821785, 20.974607338242951 ], [ -99.337919279877354, 20.974715736464528 ], [ -99.337978447541246, 20.974933676579798 ], [ -99.337971714597103, 20.975112515242671 ], [ -99.338010724356252, 20.975362546902851 ], [ -99.338137545906989, 20.97536917013835 ], [ -99.338166620003335, 20.975350763535921 ], [ -99.338232487141966, 20.975135830691631 ], [ -99.338315173895708, 20.974949946949408 ], [ -99.33841178732456, 20.97484823844119 ], [ -99.338511156663927, 20.97475008788636 ], [ -99.338656048945495, 20.97471898426512 ], [ -99.33882436783901, 20.974721357496922 ], [ -99.338962733792826, 20.97473997346756 ], [ -99.339016385559404, 20.974757041485379 ], [ -99.339293671194739, 20.974918240503978 ], [ -99.339413672900918, 20.975032247252891 ], [ -99.339557627414237, 20.975180535500701 ], [ -99.33964840010168, 20.975312982500359 ], [ -99.339708110808417, 20.9754624995299 ], [ -99.339791211664163, 20.97564663136512 ], [ -99.339843069332517, 20.97584852824296 ], [ -99.339927347698421, 20.976035609790571 ], [ -99.340010579386927, 20.976222342054029 ], [ -99.340123874348549, 20.976390961991481 ], [ -99.340215069780541, 20.9765266929452 ], [ -99.340329272652184, 20.97669686487216 ], [ -99.340452856993579, 20.976816273792188 ], [ -99.340577105539879, 20.976936324389889 ] ] } },
{ "type": "Feature", "properties": { "ID_OBRA": "954_San Agustín Metzquititlán", "No.": 954.0, "Municipio": "San Agustín Metzquititlán", "Rubro": "Infraestructura Hídrica", "Ejercicio": 2022.0, "Obra": "Construcción de sistema integral de agua potable San Agustín Metzquititlán, etapa dos de seis.", "Localidad": "Apartadero", "Inversión": 1965480.7, "Habitantes.beneficiados": 102.0, "Ejecutora": "CEAA", "Trabajos": "Considera los trabajos de líneas de distribución con la instalación de tubería, tomas domiciliarias. en la localidad de Apartadero municipio de  San Agustín Metzquititlán", "Geometria_tipo": "Línea" }, "geometry": { "type": "LineString", "coordinates": [ [ -98.607275136438261, 20.427191198480269 ], [ -98.607357408263397, 20.427081821338 ], [ -98.607521396841435, 20.426940013110961 ], [ -98.607570583101719, 20.42690821355637 ], [ -98.607636505861961, 20.426876412947031 ], [ -98.60771932542184, 20.426813542387031 ], [ -98.60781828466807, 20.426765547879011 ], [ -98.607900537723438, 20.42673285060911 ], [ -98.60794993822995, 20.4267162805873 ], [ -98.608016016989751, 20.426683876691751 ], [ -98.608132287307413, 20.426619914508681 ], [ -98.60821574153465, 20.426588184045539 ], [ -98.608265409100341, 20.426602692723751 ], [ -98.608348303086444, 20.4266320200928 ], [ -98.608447996459503, 20.426676519046179 ], [ -98.608564717354255, 20.42673633331167 ], [ -98.608631592914605, 20.426781649688579 ], [ -98.608698883325431, 20.426780770998729 ], [ -98.608766413840328, 20.426733593172649 ], [ -98.608850709418505, 20.426716900298501 ], [ -98.608901343458868, 20.426700718085371 ], [ -98.608968898457903, 20.426684258485992 ], [ -98.60905346983273, 20.426682911756401 ], [ -98.609121131441526, 20.42665102047474 ], [ -98.609188877431677, 20.4266187180956 ], [ -98.609256704416183, 20.42657040068303 ], [ -98.609324716522494, 20.42653741747333 ], [ -98.609410540410565, 20.426565461551139 ], [ -98.609462200844035, 20.426579261001791 ], [ -98.609548114530966, 20.426561044165311 ], [ -98.609633849466618, 20.426511808945861 ], [ -98.60966777550118, 20.426464257816981 ], [ -98.609718757704243, 20.426400685746628 ], [ -98.609752651531323, 20.426353178244138 ], [ -98.609804154896977, 20.42628847167687 ], [ -98.609890712486049, 20.42618991254394 ], [ -98.609942599187534, 20.426092560347271 ], [ -98.609977301772048, 20.426043452871841 ], [ -98.610029462797186, 20.42597763221584 ], [ -98.610081632022911, 20.425895816070781 ], [ -98.610150843840131, 20.425798134257999 ], [ -98.610202697399117, 20.42573303405311 ], [ -98.61025459106213, 20.42566788485269 ], [ -98.610307605729645, 20.425600696954611 ], [ -98.610379142334793, 20.42556338536783 ], [ -98.610432808680272, 20.4255759456201 ], [ -98.610486605934511, 20.425653201247879 ], [ -98.610558672022748, 20.42568085189659 ], [ -98.610594771902299, 20.425694771095579 ], [ -98.610667660064408, 20.42577073358234 ], [ -98.610740864592529, 20.425847025744002 ], [ -98.610796194740843, 20.42592458113516 ], [ -98.610851718672961, 20.426002408148001 ], [ -98.610907251960015, 20.426064341415501 ], [ -98.610962970121591, 20.42612648074816 ], [ -98.611000867418028, 20.426222104280779 ], [ -98.61103827724051, 20.42626922776347 ], [ -98.611112529947235, 20.42629862825607 ], [ -98.611149972522, 20.426329675755149 ], [ -98.611206930407263, 20.426441900962171 ], [ -98.611189676919551, 20.426557197792889 ], [ -98.611190334242707, 20.426639313855318 ], [ -98.611191123779335, 20.426737915971309 ], [ -98.61121011277541, 20.426836269570199 ], [ -98.611265445671179, 20.42691767628877 ], [ -98.611302523459543, 20.426999579802661 ], [ -98.611376081901398, 20.4270811578603 ], [ -98.611394815916398, 20.427147063432152 ], [ -98.611468483901135, 20.427212384169639 ], [ -98.611541260718539, 20.427244959110361 ], [ -98.611631893691552, 20.427277579981659 ], [ -98.611704611948028, 20.42729369312595 ], [ -98.61177722345829, 20.427326532150509 ], [ -98.611849916183573, 20.427359407463431 ], [ -98.611849712041803, 20.4273761172097 ] ] } },
{ "type": "Feature", "properties": { "ID_OBRA": "955_San Agustín Metzquititlán", "No.": 955.0, "Municipio": "San Agustín Metzquititlán", "Rubro": "Infraestructura Hídrica", "Ejercicio": 2023.0, "Obra": "Construcción de sistema integral de agua potable San Agustín Metzquititlán, etapa tres de seis.", "Localidad": "Apartadero", "Inversión": 5225630.5, "Habitantes.beneficiados": 102.0, "Ejecutora": "CEAA", "Trabajos": "Considera los trabajos de líneas de distribución con la instalación de tubería, tomas domiciliarias. en la localidad de Apartadero municipio de  San Agustín Metzquititlán", "Geometria_tipo": "Línea" }, "geometry": { "type": "LineString", "coordinates": [ [ -98.610243590463497, 20.429847623625658 ], [ -98.610628725801078, 20.429857478594091 ], [ -98.610902791123848, 20.429882170823898 ], [ -98.611041225261943, 20.429887392262309 ], [ -98.611314779683639, 20.4296848306127 ], [ -98.611488959118887, 20.42943026532528 ], [ -98.611630932180859, 20.429298621617029 ], [ -98.611703638461989, 20.42913921494468 ], [ -98.611723483061013, 20.428860271254951 ], [ -98.611733021697518, 20.428504858398671 ], [ -98.611750799097564, 20.42831282048191 ], [ -98.611836769098645, 20.427950297875419 ], [ -98.611919927867007, 20.427728058510361 ], [ -98.61198974780136, 20.42750757131267 ], [ -98.611979065909978, 20.427301816089741 ], [ -98.611901546264036, 20.427169926555688 ], [ -98.611773630117, 20.427027860898779 ], [ -98.611776222434585, 20.426922159336279 ], [ -98.611818779736353, 20.426758975964649 ], [ -98.611911275320438, 20.426642794464399 ], [ -98.612003782717423, 20.426551813640419 ], [ -98.612109123623156, 20.426405260943611 ], [ -98.612265157358678, 20.426140461311729 ], [ -98.612392397113183, 20.425871749412039 ], [ -98.61244237418579, 20.425723191712621 ], [ -98.612553149798487, 20.42553581840551 ], [ -98.612649212040353, 20.425290784522911 ], [ -98.612731605228859, 20.425101953541809 ], [ -98.612859067251179, 20.42490171269522 ], [ -98.613063464654843, 20.42510083176056 ], [ -98.613292568785909, 20.42529147365083 ], [ -98.613379211501666, 20.425416472209221 ], [ -98.613534817333786, 20.42548302578934 ], [ -98.613673559469603, 20.425637612367868 ], [ -98.613811895851526, 20.42578503626768 ], [ -98.614001073959201, 20.4259216309976 ], [ -98.61413377960487, 20.426068437548668 ], [ -98.614317325724272, 20.426206079806121 ] ] } },
{ "type": "Feature", "properties": { "ID_OBRA": "986_San Agustín Tlaxiaca", "No.": 986.0, "Municipio": "San Agustín Tlaxiaca", "Rubro": "Infraestructura Hídrica", "Ejercicio": 2023.0, "Obra": "Construcción de línea de conducción de agua potable en San Juan Solís, San Agustín Tlaxiaca", "Localidad": "San Juan Solís", "Inversión": 3172730.37, "Habitantes.beneficiados": 1762.0, "Ejecutora": "CEAA", "Trabajos": "Considera los trabajos de instalación de tubería, rellenos con material producto de excavación, prueba de la tubería en la comunidad.", "Geometria_tipo": "Línea" }, "geometry": { "type": "LineString", "coordinates": [ [ -98.90113050423642, 20.154825623488751 ], [ -98.903604118960615, 20.155274715686421 ], [ -98.905658968839859, 20.155623390457691 ], [ -98.908017037441738, 20.155863520414261 ], [ -98.909651053911517, 20.156113935808332 ], [ -98.910823136696578, 20.156253506320809 ], [ -98.911435398970283, 20.156486397338359 ], [ -98.912405861129812, 20.15648100527013 ], [ -98.91291713198045, 20.156478165743529 ], [ -98.914094363992348, 20.156471616445749 ], [ -98.915222125122853, 20.156465335363212 ], [ -98.916250531180694, 20.156456913169379 ], [ -98.917016834136348, 20.156555436963998 ], [ -98.918554969684479, 20.15674504211184 ], [ -98.919681490570198, 20.156745089539999 ], [ -98.920504676395538, 20.15698220934075 ], [ -98.921900324926384, 20.157255813335919 ], [ -98.922628729168224, 20.157426317950119 ] ] } }
]
}
